<?xml version='1.0' encoding='utf-8'?>
<kml xmlns="http://www.opengis.net/kml/2.2"><Document><name>Candidates FL_ne_atlantic p0</name><Placemark id="5BDC209446D84876"><name>M: Adventure Yacht Harbor Marina</name><Point><coordinates>-80.9618291,29.1320088,0</coordinates></Point><LookAt><longitude>-80.9618291</longitude><latitude>29.1320088</latitude><altitude>0</altitude><range>800</range><tilt>0</tilt><heading>0</heading></LookAt></Placemark><Placemark id="7D8A46149AF60F26"><name>M: Arlington Marina</name><Point><coordinates>-81.6117300,30.3344753,0</coordinates></Point><LookAt><longitude>-81.6117300</longitude><latitude>30.3344753</latitude><altitude>0</altitude><range>800</range><tilt>0</tilt><heading>0</heading></LookAt></Placemark><Placemark id="7CC9207C791AD736"><name>M: Bayside Marina</name><Point><coordinates>-81.5581119,28.3693258,0</coordinates></Point><LookAt><longitude>-81.5581119</longitude><latitude>28.3693258</latitude><altitude>0</altitude><range>800</range><tilt>0</tilt><heading>0</heading></LookAt></Placemark><Placemark id="74378A0131D46606"><name>M: Beach Marine</name><Point><coordinates>-81.4167693,30.2893605,0</coordinates></Point><LookAt><longitude>-81.4167693</longitude><latitude>30.2893605</latitude><altitude>0</altitude><range>800</range><tilt>0</tilt><heading>0</heading></LookAt></Placemark><Placemark id="E4F0F8F3E360832B"><name>M: Bill Dye Marina</name><Point><coordinates>-81.6408852,30.3898875,0</coordinates></Point><LookAt><longitude>-81.6408852</longitude><latitude>30.3898875</latitude><altitude>0</altitude><range>800</range><tilt>0</tilt><heading>0</heading></LookAt></Placemark><Placemark id="D82AC5EE93F79E7A"><name>M: Bull Bay Pier</name><Point><coordinates>-81.6330039,30.1345449,0</coordinates></Point><LookAt><longitude>-81.6330039</longitude><latitude>30.1345449</latitude><altitude>0</altitude><range>800</range><tilt>0</tilt><heading>0</heading></LookAt></Placemark><Placemark id="1CAE57A19E5FE3A4"><name>M: Cape Crossing Marina</name><Point><coordinates>-80.7072541,28.4072204,0</coordinates></Point><LookAt><longitude>-80.7072541</longitude><latitude>28.4072204</latitude><altitude>0</altitude><range>800</range><tilt>0</tilt><heading>0</heading></LookAt></Placemark><Placemark id="56A27271DB9E0253"><name>M: Cape Marina</name><Point><coordinates>-80.6274505,28.4075422,0</coordinates></Point><LookAt><longitude>-80.6274505</longitude><latitude>28.4075422</latitude><altitude>0</altitude><range>800</range><tilt>0</tilt><heading>0</heading></LookAt></Placemark><Placemark id="13A43DF8F8C2FFD7"><name>M: Cassen Park Marina</name><Point><coordinates>-81.0545190,29.2852950,0</coordinates></Point><LookAt><longitude>-81.0545190</longitude><latitude>29.2852950</latitude><altitude>0</altitude><range>800</range><tilt>0</tilt><heading>0</heading></LookAt></Placemark><Placemark id="B37CDC2294589B94"><name>M: Conch House Marina</name><Point><coordinates>-81.2940702,29.8939960,0</coordinates></Point><LookAt><longitude>-81.2940702</longitude><latitude>29.8939960</latitude><altitude>0</altitude><range>800</range><tilt>0</tilt><heading>0</heading></LookAt></Placemark><Placemark id="AE40E1C97CDF036D"><name>M: Contemporary Marina</name><Point><coordinates>-81.5730133,28.4152770,0</coordinates></Point><LookAt><longitude>-81.5730133</longitude><latitude>28.4152770</latitude><altitude>0</altitude><range>800</range><tilt>0</tilt><heading>0</heading></LookAt></Placemark><Placemark id="B5921D95CE41ECCA"><name>M: Crescent Fish Camp</name><Point><coordinates>-81.5076064,29.4436575,0</coordinates></Point><LookAt><longitude>-81.5076064</longitude><latitude>29.4436575</latitude><altitude>0</altitude><range>800</range><tilt>0</tilt><heading>0</heading></LookAt></Placemark><Placemark id="27F916A6C09FC93A"><name>M: Eau Gallie Yacht Basin</name><Point><coordinates>-80.6274617,28.1258262,0</coordinates></Point><LookAt><longitude>-80.6274617</longitude><latitude>28.1258262</latitude><altitude>0</altitude><range>800</range><tilt>0</tilt><heading>0</heading></LookAt></Placemark><Placemark id="D1D58739F37A3284"><name>M: English Landing Marina</name><Point><coordinates>-81.3236668,29.8848140,0</coordinates></Point><LookAt><longitude>-81.3236668</longitude><latitude>29.8848140</latitude><altitude>0</altitude><range>800</range><tilt>0</tilt><heading>0</heading></LookAt></Placemark><Placemark id="908FD75FD9550D91"><name>M: Fernandina Harbor Marina</name><Point><coordinates>-81.4658650,30.6716385,0</coordinates></Point><LookAt><longitude>-81.4658650</longitude><latitude>30.6716385</latitude><altitude>0</altitude><range>800</range><tilt>0</tilt><heading>0</heading></LookAt></Placemark><Placemark id="BCBDC05370271AE8"><name>M: Fins Marina</name><Point><coordinates>-80.4726677,27.8266735,0</coordinates></Point><LookAt><longitude>-80.4726677</longitude><latitude>27.8266735</latitude><altitude>0</altitude><range>800</range><tilt>0</tilt><heading>0</heading></LookAt></Placemark><Placemark id="6FE8C7B2F257C0E5"><name>M: Fisherman's Marina</name><Point><coordinates>-81.6424669,30.3904017,0</coordinates></Point><LookAt><longitude>-81.6424669</longitude><latitude>30.3904017</latitude><altitude>0</altitude><range>800</range><tilt>0</tilt><heading>0</heading></LookAt></Placemark><Placemark id="89AE440763A16CFC"><name>M: Fort Wilderness Marina</name><Point><coordinates>-81.5618635,28.4131395,0</coordinates></Point><LookAt><longitude>-81.5618635</longitude><latitude>28.4131395</latitude><altitude>0</altitude><range>800</range><tilt>0</tilt><heading>0</heading></LookAt></Placemark><Placemark id="ECD717BE1F10927E"><name>M: Free Marina Day Slips</name><Point><coordinates>-81.2677706,28.8152803,0</coordinates></Point><LookAt><longitude>-81.2677706</longitude><latitude>28.8152803</latitude><altitude>0</altitude><range>800</range><tilt>0</tilt><heading>0</heading></LookAt></Placemark><Placemark id="F2E4E2801C383E18"><name>M: Green Cove Springs Marina</name><Point><coordinates>-81.6495503,29.9839694,0</coordinates></Point><LookAt><longitude>-81.6495503</longitude><latitude>29.9839694</latitude><altitude>0</altitude><range>800</range><tilt>0</tilt><heading>0</heading></LookAt></Placemark><Placemark id="C86F201C36DDCEB3"><name>M: Halifax Harbor Marina</name><Point><coordinates>-81.0125605,29.2041299,0</coordinates></Point><LookAt><longitude>-81.0125605</longitude><latitude>29.2041299</latitude><altitude>0</altitude><range>800</range><tilt>0</tilt><heading>0</heading></LookAt></Placemark><Placemark id="C55A7B9CD35D4275"><name>M: Harbortown Marina</name><Point><coordinates>-81.4408994,30.3208842,0</coordinates></Point><LookAt><longitude>-81.4408994</longitude><latitude>30.3208842</latitude><altitude>0</altitude><range>800</range><tilt>0</tilt><heading>0</heading></LookAt></Placemark><Placemark id="B0E78E3A579ABB0B"><name>M: Harbour Village Marina</name><Point><coordinates>-80.9470981,29.1017500,0</coordinates></Point><LookAt><longitude>-80.9470981</longitude><latitude>29.1017500</latitude><altitude>0</altitude><range>800</range><tilt>0</tilt><heading>0</heading></LookAt></Placemark><Placemark id="0CE3654112783F55"><name>M: Hidden Harbor Marina</name><Point><coordinates>-81.3223119,29.8897956,0</coordinates></Point><LookAt><longitude>-81.3223119</longitude><latitude>29.8897956</latitude><altitude>0</altitude><range>800</range><tilt>0</tilt><heading>0</heading></LookAt></Placemark><Placemark id="A2B13D0407472F85"><name>M: Inlet Harbor Marina</name><Point><coordinates>-80.9387579,29.0916495,0</coordinates></Point><LookAt><longitude>-80.9387579</longitude><latitude>29.0916495</latitude><altitude>0</altitude><range>800</range><tilt>0</tilt><heading>0</heading></LookAt></Placemark><Placemark id="E98A9453E1476072"><name>M: Inlet Marina</name><Point><coordinates>-81.2990438,29.9172409,0</coordinates></Point><LookAt><longitude>-81.2990438</longitude><latitude>29.9172409</latitude><altitude>0</altitude><range>800</range><tilt>0</tilt><heading>0</heading></LookAt></Placemark><Placemark id="071E858948FDFA28"><name>M: Jim King Marina</name><Point><coordinates>-81.4590616,30.3952572,0</coordinates></Point><LookAt><longitude>-81.4590616</longitude><latitude>30.3952572</latitude><altitude>0</altitude><range>800</range><tilt>0</tilt><heading>0</heading></LookAt></Placemark><Placemark id="2A4005394A625A50"><name>M: Julington Creek Pier 3 Marina And Dry Storage</name><Point><coordinates>-81.6301180,30.1333453,0</coordinates></Point><LookAt><longitude>-81.6301180</longitude><latitude>30.1333453</latitude><altitude>0</altitude><range>800</range><tilt>0</tilt><heading>0</heading></LookAt></Placemark><Placemark id="051A50618572A00F"><name>M: Lake Fairview Marina</name><Point><coordinates>-81.4148550,28.5959290,0</coordinates></Point><LookAt><longitude>-81.4148550</longitude><latitude>28.5959290</latitude><altitude>0</altitude><range>800</range><tilt>0</tilt><heading>0</heading></LookAt></Placemark><Placemark id="E8FAF077F3C4E38F"><name>M: Lakeshore Marina</name><Point><coordinates>-81.4114386,27.8545536,0</coordinates></Point><LookAt><longitude>-81.4114386</longitude><latitude>27.8545536</latitude><altitude>0</altitude><range>800</range><tilt>0</tilt><heading>0</heading></LookAt></Placemark><Placemark id="796BD1A6A86DBAD5"><name>M: Lighthouse Boatyard</name><Point><coordinates>-80.9272674,29.0791517,0</coordinates></Point><LookAt><longitude>-80.9272674</longitude><latitude>29.0791517</latitude><altitude>0</altitude><range>800</range><tilt>0</tilt><heading>0</heading></LookAt></Placemark><Placemark id="457CCB359006F55A"><name>M: Loggerhead Marina Daytona Beach</name><Point><coordinates>-81.0228833,29.2259811,0</coordinates></Point><LookAt><longitude>-81.0228833</longitude><latitude>29.2259811</latitude><altitude>0</altitude><range>800</range><tilt>0</tilt><heading>0</heading></LookAt></Placemark><Placemark id="1BE54CB5A6C8E1E5"><name>M: Loggerhead Marina Vero Beach</name><Point><coordinates>-80.3953175,27.6924983,0</coordinates></Point><LookAt><longitude>-80.3953175</longitude><latitude>27.6924983</latitude><altitude>0</altitude><range>800</range><tilt>0</tilt><heading>0</heading></LookAt></Placemark><Placemark id="75E1037D7B61EC79"><name>M: M 1011942353</name><Point><coordinates>-80.6120696,28.2530922,0</coordinates></Point><LookAt><longitude>-80.6120696</longitude><latitude>28.2530922</latitude><altitude>0</altitude><range>800</range><tilt>0</tilt><heading>0</heading></LookAt></Placemark><Placemark id="FC9056667ECDFDFB"><name>M: M 1036366872</name><Point><coordinates>-80.9207856,29.0274050,0</coordinates></Point><LookAt><longitude>-80.9207856</longitude><latitude>29.0274050</latitude><altitude>0</altitude><range>800</range><tilt>0</tilt><heading>0</heading></LookAt></Placemark><Placemark id="A37E1926836B21A7"><name>M: M 1039601490</name><Point><coordinates>-80.9141245,29.0127534,0</coordinates></Point><LookAt><longitude>-80.9141245</longitude><latitude>29.0127534</latitude><altitude>0</altitude><range>800</range><tilt>0</tilt><heading>0</heading></LookAt></Placemark><Placemark id="4F843B81CD82EE3B"><name>M: M 1039676771</name><Point><coordinates>-80.9171581,29.0335147,0</coordinates></Point><LookAt><longitude>-80.9171581</longitude><latitude>29.0335147</latitude><altitude>0</altitude><range>800</range><tilt>0</tilt><heading>0</heading></LookAt></Placemark><Placemark id="B4ED0208CD77D5B2"><name>M: M 1039676774</name><Point><coordinates>-80.9135199,29.0367464,0</coordinates></Point><LookAt><longitude>-80.9135199</longitude><latitude>29.0367464</latitude><altitude>0</altitude><range>800</range><tilt>0</tilt><heading>0</heading></LookAt></Placemark><Placemark id="90B89AA133977C6F"><name>M: M 1039676775</name><Point><coordinates>-80.9077945,29.0392182,0</coordinates></Point><LookAt><longitude>-80.9077945</longitude><latitude>29.0392182</latitude><altitude>0</altitude><range>800</range><tilt>0</tilt><heading>0</heading></LookAt></Placemark><Placemark id="D4B65AFA9C0853DF"><name>M: M 1039680461</name><Point><coordinates>-80.9126826,29.0324111,0</coordinates></Point><LookAt><longitude>-80.9126826</longitude><latitude>29.0324111</latitude><altitude>0</altitude><range>800</range><tilt>0</tilt><heading>0</heading></LookAt></Placemark><Placemark id="B3BCAD6C65DEFB5F"><name>M: M 1039680463</name><Point><coordinates>-80.9197733,29.0290325,0</coordinates></Point><LookAt><longitude>-80.9197733</longitude><latitude>29.0290325</latitude><altitude>0</altitude><range>800</range><tilt>0</tilt><heading>0</heading></LookAt></Placemark><Placemark id="0245E314CD218486"><name>M: M 1092932351</name><Point><coordinates>-81.4779747,30.6317532,0</coordinates></Point><LookAt><longitude>-81.4779747</longitude><latitude>30.6317532</latitude><altitude>0</altitude><range>800</range><tilt>0</tilt><heading>0</heading></LookAt></Placemark><Placemark id="6A99EE8E31FB30D5"><name>M: M 1104537256</name><Point><coordinates>-81.5049034,30.6653491,0</coordinates></Point><LookAt><longitude>-81.5049034</longitude><latitude>30.6653491</latitude><altitude>0</altitude><range>800</range><tilt>0</tilt><heading>0</heading></LookAt></Placemark><Placemark id="C5E3E73113F2A9DC"><name>M: M 1177148273</name><Point><coordinates>-81.5255039,30.6801232,0</coordinates></Point><LookAt><longitude>-81.5255039</longitude><latitude>30.6801232</latitude><altitude>0</altitude><range>800</range><tilt>0</tilt><heading>0</heading></LookAt></Placemark><Placemark id="095BC29BB90A7F36"><name>M: M 1177148275</name><Point><coordinates>-81.5065687,30.6649555,0</coordinates></Point><LookAt><longitude>-81.5065687</longitude><latitude>30.6649555</latitude><altitude>0</altitude><range>800</range><tilt>0</tilt><heading>0</heading></LookAt></Placemark><Placemark id="B33B17912654144A"><name>M: M 1177148276</name><Point><coordinates>-81.5587098,30.5902065,0</coordinates></Point><LookAt><longitude>-81.5587098</longitude><latitude>30.5902065</latitude><altitude>0</altitude><range>800</range><tilt>0</tilt><heading>0</heading></LookAt></Placemark><Placemark id="2DED08DC102AC750"><name>M: M 1177148277</name><Point><coordinates>-81.5876353,30.5790607,0</coordinates></Point><LookAt><longitude>-81.5876353</longitude><latitude>30.5790607</latitude><altitude>0</altitude><range>800</range><tilt>0</tilt><heading>0</heading></LookAt></Placemark><Placemark id="9A597B9620DBAF4C"><name>M: M 1177148278</name><Point><coordinates>-81.5364140,30.5500156,0</coordinates></Point><LookAt><longitude>-81.5364140</longitude><latitude>30.5500156</latitude><altitude>0</altitude><range>800</range><tilt>0</tilt><heading>0</heading></LookAt></Placemark><Placemark id="E0F7E2063D533282"><name>M: M 1177150985</name><Point><coordinates>-81.4588172,30.6954388,0</coordinates></Point><LookAt><longitude>-81.4588172</longitude><latitude>30.6954388</latitude><altitude>0</altitude><range>800</range><tilt>0</tilt><heading>0</heading></LookAt></Placemark><Placemark id="12816B9EDB4CCB0A"><name>M: M 1177150986</name><Point><coordinates>-81.4515022,30.6895527,0</coordinates></Point><LookAt><longitude>-81.4515022</longitude><latitude>30.6895527</latitude><altitude>0</altitude><range>800</range><tilt>0</tilt><heading>0</heading></LookAt></Placemark><Placemark id="F44AFC1EEECAF13B"><name>M: M 1177150987</name><Point><coordinates>-81.4548458,30.6912003,0</coordinates></Point><LookAt><longitude>-81.4548458</longitude><latitude>30.6912003</latitude><altitude>0</altitude><range>800</range><tilt>0</tilt><heading>0</heading></LookAt></Placemark><Placemark id="469E071773D0590D"><name>M: M 1177150988</name><Point><coordinates>-81.4661258,30.6700150,0</coordinates></Point><LookAt><longitude>-81.4661258</longitude><latitude>30.6700150</latitude><altitude>0</altitude><range>800</range><tilt>0</tilt><heading>0</heading></LookAt></Placemark><Placemark id="394988D3B21EDE22"><name>M: M 1183317735</name><Point><coordinates>-81.7002550,30.1460753,0</coordinates></Point><LookAt><longitude>-81.7002550</longitude><latitude>30.1460753</latitude><altitude>0</altitude><range>800</range><tilt>0</tilt><heading>0</heading></LookAt></Placemark><Placemark id="CE4D02387AFE0E59"><name>M: M 1183317739</name><Point><coordinates>-81.6923177,30.0074067,0</coordinates></Point><LookAt><longitude>-81.6923177</longitude><latitude>30.0074067</latitude><altitude>0</altitude><range>800</range><tilt>0</tilt><heading>0</heading></LookAt></Placemark><Placemark id="46A7A4BAE60F0BA3"><name>M: M 1184702268</name><Point><coordinates>-81.6531083,29.6775656,0</coordinates></Point><LookAt><longitude>-81.6531083</longitude><latitude>29.6775656</latitude><altitude>0</altitude><range>800</range><tilt>0</tilt><heading>0</heading></LookAt></Placemark><Placemark id="4A169046E5EB5A7D"><name>M: M 1184702269</name><Point><coordinates>-81.6318932,29.6444030,0</coordinates></Point><LookAt><longitude>-81.6318932</longitude><latitude>29.6444030</latitude><altitude>0</altitude><range>800</range><tilt>0</tilt><heading>0</heading></LookAt></Placemark><Placemark id="27505D9279F54E60"><name>M: M 1184702271</name><Point><coordinates>-81.5915781,29.6371861,0</coordinates></Point><LookAt><longitude>-81.5915781</longitude><latitude>29.6371861</latitude><altitude>0</altitude><range>800</range><tilt>0</tilt><heading>0</heading></LookAt></Placemark><Placemark id="EE65CEFD334581EB"><name>M: M 1184702272</name><Point><coordinates>-81.5896559,29.6118296,0</coordinates></Point><LookAt><longitude>-81.5896559</longitude><latitude>29.6118296</latitude><altitude>0</altitude><range>800</range><tilt>0</tilt><heading>0</heading></LookAt></Placemark><Placemark id="19F8E6E72D5C7A26"><name>M: M 1184702273</name><Point><coordinates>-81.6763336,29.5758074,0</coordinates></Point><LookAt><longitude>-81.6763336</longitude><latitude>29.5758074</latitude><altitude>0</altitude><range>800</range><tilt>0</tilt><heading>0</heading></LookAt></Placemark><Placemark id="C6D05FBAE73E0DEC"><name>M: M 1184702274</name><Point><coordinates>-81.6993419,29.5700421,0</coordinates></Point><LookAt><longitude>-81.6993419</longitude><latitude>29.5700421</latitude><altitude>0</altitude><range>800</range><tilt>0</tilt><heading>0</heading></LookAt></Placemark><Placemark id="BABA0911DB94CB68"><name>M: M 1184702276</name><Point><coordinates>-81.6773666,29.5079635,0</coordinates></Point><LookAt><longitude>-81.6773666</longitude><latitude>29.5079635</latitude><altitude>0</altitude><range>800</range><tilt>0</tilt><heading>0</heading></LookAt></Placemark><Placemark id="FDDDCF925AD16B56"><name>M: M 1184702281</name><Point><coordinates>-81.6775267,29.4889873,0</coordinates></Point><LookAt><longitude>-81.6775267</longitude><latitude>29.4889873</latitude><altitude>0</altitude><range>800</range><tilt>0</tilt><heading>0</heading></LookAt></Placemark><Placemark id="B0025C4193D03D5F"><name>M: M 1184702282</name><Point><coordinates>-81.6736028,29.4853162,0</coordinates></Point><LookAt><longitude>-81.6736028</longitude><latitude>29.4853162</latitude><altitude>0</altitude><range>800</range><tilt>0</tilt><heading>0</heading></LookAt></Placemark><Placemark id="0CBB66E36F765A25"><name>M: M 1184702283</name><Point><coordinates>-81.6748094,29.4746130,0</coordinates></Point><LookAt><longitude>-81.6748094</longitude><latitude>29.4746130</latitude><altitude>0</altitude><range>800</range><tilt>0</tilt><heading>0</heading></LookAt></Placemark><Placemark id="F9D5197D7597F6C6"><name>M: M 1184702285</name><Point><coordinates>-81.6768745,29.4707370,0</coordinates></Point><LookAt><longitude>-81.6768745</longitude><latitude>29.4707370</latitude><altitude>0</altitude><range>800</range><tilt>0</tilt><heading>0</heading></LookAt></Placemark><Placemark id="96A696C96F993DA4"><name>M: M 1184702289</name><Point><coordinates>-81.6649053,29.4328460,0</coordinates></Point><LookAt><longitude>-81.6649053</longitude><latitude>29.4328460</latitude><altitude>0</altitude><range>800</range><tilt>0</tilt><heading>0</heading></LookAt></Placemark><Placemark id="916207F89FB4F719"><name>M: M 1184702291</name><Point><coordinates>-81.6507250,29.4006318,0</coordinates></Point><LookAt><longitude>-81.6507250</longitude><latitude>29.4006318</latitude><altitude>0</altitude><range>800</range><tilt>0</tilt><heading>0</heading></LookAt></Placemark><Placemark id="7FBB8AFFDA42F46C"><name>M: M 1184702292</name><Point><coordinates>-81.6446277,29.3916396,0</coordinates></Point><LookAt><longitude>-81.6446277</longitude><latitude>29.3916396</latitude><altitude>0</altitude><range>800</range><tilt>0</tilt><heading>0</heading></LookAt></Placemark><Placemark id="BC562EAA0FB08BB4"><name>M: M 1184702293</name><Point><coordinates>-81.6394949,29.3875279,0</coordinates></Point><LookAt><longitude>-81.6394949</longitude><latitude>29.3875279</latitude><altitude>0</altitude><range>800</range><tilt>0</tilt><heading>0</heading></LookAt></Placemark><Placemark id="A4DBDC38F3B7E5EB"><name>M: M 1184702294</name><Point><coordinates>-81.6278937,29.3814112,0</coordinates></Point><LookAt><longitude>-81.6278937</longitude><latitude>29.3814112</latitude><altitude>0</altitude><range>800</range><tilt>0</tilt><heading>0</heading></LookAt></Placemark><Placemark id="43C926DF6250C6BE"><name>M: M 1184702295</name><Point><coordinates>-81.6248154,29.3808974,0</coordinates></Point><LookAt><longitude>-81.6248154</longitude><latitude>29.3808974</latitude><altitude>0</altitude><range>800</range><tilt>0</tilt><heading>0</heading></LookAt></Placemark><Placemark id="92479ABC03A60C4E"><name>M: M 1184702296</name><Point><coordinates>-81.6222476,29.3796800,0</coordinates></Point><LookAt><longitude>-81.6222476</longitude><latitude>29.3796800</latitude><altitude>0</altitude><range>800</range><tilt>0</tilt><heading>0</heading></LookAt></Placemark><Placemark id="F8DC548BE8DD9423"><name>M: M 1184702297</name><Point><coordinates>-81.6166704,29.3732352,0</coordinates></Point><LookAt><longitude>-81.6166704</longitude><latitude>29.3732352</latitude><altitude>0</altitude><range>800</range><tilt>0</tilt><heading>0</heading></LookAt></Placemark><Placemark id="AE29E1B32CF14B56"><name>M: M 1187762059</name><Point><coordinates>-81.5658948,29.9863107,0</coordinates></Point><LookAt><longitude>-81.5658948</longitude><latitude>29.9863107</latitude><altitude>0</altitude><range>800</range><tilt>0</tilt><heading>0</heading></LookAt></Placemark><Placemark id="1819406E94035CA9"><name>M: M 1187762060</name><Point><coordinates>-81.3092616,29.9490357,0</coordinates></Point><LookAt><longitude>-81.3092616</longitude><latitude>29.9490357</latitude><altitude>0</altitude><range>800</range><tilt>0</tilt><heading>0</heading></LookAt></Placemark><Placemark id="4268AB5B5E0D99BC"><name>M: M 1187762061</name><Point><coordinates>-81.3077959,29.9389477,0</coordinates></Point><LookAt><longitude>-81.3077959</longitude><latitude>29.9389477</latitude><altitude>0</altitude><range>800</range><tilt>0</tilt><heading>0</heading></LookAt></Placemark><Placemark id="44EF3C270474EE77"><name>M: M 1187762062</name><Point><coordinates>-81.3086098,29.9159458,0</coordinates></Point><LookAt><longitude>-81.3086098</longitude><latitude>29.9159458</latitude><altitude>0</altitude><range>800</range><tilt>0</tilt><heading>0</heading></LookAt></Placemark><Placemark id="71B311435B5CB76B"><name>M: M 1187762063</name><Point><coordinates>-81.3071380,29.9148922,0</coordinates></Point><LookAt><longitude>-81.3071380</longitude><latitude>29.9148922</latitude><altitude>0</altitude><range>800</range><tilt>0</tilt><heading>0</heading></LookAt></Placemark><Placemark id="70D31C9C9BAA9E78"><name>M: M 1187762065</name><Point><coordinates>-81.3090404,29.9122721,0</coordinates></Point><LookAt><longitude>-81.3090404</longitude><latitude>29.9122721</latitude><altitude>0</altitude><range>800</range><tilt>0</tilt><heading>0</heading></LookAt></Placemark><Placemark id="69B6077AC845209E"><name>M: M 1187762066</name><Point><coordinates>-81.2955436,29.8930745,0</coordinates></Point><LookAt><longitude>-81.2955436</longitude><latitude>29.8930745</latitude><altitude>0</altitude><range>800</range><tilt>0</tilt><heading>0</heading></LookAt></Placemark><Placemark id="9AB52CF5B2D6E49E"><name>M: M 1187762069</name><Point><coordinates>-81.3185662,29.8871904,0</coordinates></Point><LookAt><longitude>-81.3185662</longitude><latitude>29.8871904</latitude><altitude>0</altitude><range>800</range><tilt>0</tilt><heading>0</heading></LookAt></Placemark><Placemark id="3D1B1037D42A9DF3"><name>M: M 1187762070</name><Point><coordinates>-81.3225616,29.8864327,0</coordinates></Point><LookAt><longitude>-81.3225616</longitude><latitude>29.8864327</latitude><altitude>0</altitude><range>800</range><tilt>0</tilt><heading>0</heading></LookAt></Placemark><Placemark id="3B3025D9E9EC8F08"><name>M: M 1187762074</name><Point><coordinates>-81.3179673,29.8717774,0</coordinates></Point><LookAt><longitude>-81.3179673</longitude><latitude>29.8717774</latitude><altitude>0</altitude><range>800</range><tilt>0</tilt><heading>0</heading></LookAt></Placemark><Placemark id="DB02DB306FFD5FFB"><name>M: M 1187762075</name><Point><coordinates>-81.3138951,29.8575847,0</coordinates></Point><LookAt><longitude>-81.3138951</longitude><latitude>29.8575847</latitude><altitude>0</altitude><range>800</range><tilt>0</tilt><heading>0</heading></LookAt></Placemark><Placemark id="1DE19D26E9BDD8D1"><name>M: M 1187963267</name><Point><coordinates>-81.1937449,29.5781657,0</coordinates></Point><LookAt><longitude>-81.1937449</longitude><latitude>29.5781657</latitude><altitude>0</altitude><range>800</range><tilt>0</tilt><heading>0</heading></LookAt></Placemark><Placemark id="8409D389B4FA97BE"><name>M: M 1187963273</name><Point><coordinates>-81.4341898,29.4229515,0</coordinates></Point><LookAt><longitude>-81.4341898</longitude><latitude>29.4229515</latitude><altitude>0</altitude><range>800</range><tilt>0</tilt><heading>0</heading></LookAt></Placemark><Placemark id="4151167B161D811C"><name>M: M 1189051652</name><Point><coordinates>-81.6539289,29.2945281,0</coordinates></Point><LookAt><longitude>-81.6539289</longitude><latitude>29.2945281</latitude><altitude>0</altitude><range>800</range><tilt>0</tilt><heading>0</heading></LookAt></Placemark><Placemark id="BFED9319580A7EC3"><name>M: M 1232366674</name><Point><coordinates>-81.6901682,28.8516343,0</coordinates></Point><LookAt><longitude>-81.6901682</longitude><latitude>28.8516343</latitude><altitude>0</altitude><range>800</range><tilt>0</tilt><heading>0</heading></LookAt></Placemark><Placemark id="95B1B8408351AECB"><name>M: M 1232366689</name><Point><coordinates>-81.6433915,28.7971372,0</coordinates></Point><LookAt><longitude>-81.6433915</longitude><latitude>28.7971372</latitude><altitude>0</altitude><range>800</range><tilt>0</tilt><heading>0</heading></LookAt></Placemark><Placemark id="CC65D3BF82C009E8"><name>M: M 1232366713</name><Point><coordinates>-81.6734917,28.7045591,0</coordinates></Point><LookAt><longitude>-81.6734917</longitude><latitude>28.7045591</latitude><altitude>0</altitude><range>800</range><tilt>0</tilt><heading>0</heading></LookAt></Placemark><Placemark id="3F20BFAA903D3319"><name>M: M 1232366714</name><Point><coordinates>-81.6778865,28.7045222,0</coordinates></Point><LookAt><longitude>-81.6778865</longitude><latitude>28.7045222</latitude><altitude>0</altitude><range>800</range><tilt>0</tilt><heading>0</heading></LookAt></Placemark><Placemark id="AD9C0D147BDFEA03"><name>M: M 1232366894</name><Point><coordinates>-81.5076302,29.0471058,0</coordinates></Point><LookAt><longitude>-81.5076302</longitude><latitude>29.0471058</latitude><altitude>0</altitude><range>800</range><tilt>0</tilt><heading>0</heading></LookAt></Placemark><Placemark id="90B16DFA477A25D3"><name>M: M 1232366905</name><Point><coordinates>-81.6366558,29.0132333,0</coordinates></Point><LookAt><longitude>-81.6366558</longitude><latitude>29.0132333</latitude><altitude>0</altitude><range>800</range><tilt>0</tilt><heading>0</heading></LookAt></Placemark><Placemark id="875C0D296D970784"><name>M: M 1232366906</name><Point><coordinates>-81.3825365,29.0073395,0</coordinates></Point><LookAt><longitude>-81.3825365</longitude><latitude>29.0073395</latitude><altitude>0</altitude><range>800</range><tilt>0</tilt><heading>0</heading></LookAt></Placemark><Placemark id="ACEEA568038765CA"><name>M: M 1232366907</name><Point><coordinates>-81.3664485,28.9812259,0</coordinates></Point><LookAt><longitude>-81.3664485</longitude><latitude>28.9812259</latitude><altitude>0</altitude><range>800</range><tilt>0</tilt><heading>0</heading></LookAt></Placemark><Placemark id="4F2EBB055EE4BB69"><name>M: M 1232366910</name><Point><coordinates>-81.6911164,28.8664327,0</coordinates></Point><LookAt><longitude>-81.6911164</longitude><latitude>28.8664327</latitude><altitude>0</altitude><range>800</range><tilt>0</tilt><heading>0</heading></LookAt></Placemark><Placemark id="20B6343DC31CA739"><name>M: M 1232366968</name><Point><coordinates>-81.6269934,29.1707095,0</coordinates></Point><LookAt><longitude>-81.6269934</longitude><latitude>29.1707095</latitude><altitude>0</altitude><range>800</range><tilt>0</tilt><heading>0</heading></LookAt></Placemark><Placemark id="009DC85CA4CE3098"><name>M: M 1232366969</name><Point><coordinates>-81.5238692,29.1657852,0</coordinates></Point><LookAt><longitude>-81.5238692</longitude><latitude>29.1657852</latitude><altitude>0</altitude><range>800</range><tilt>0</tilt><heading>0</heading></LookAt></Placemark><Placemark id="4E04CC103D97B60F"><name>M: M 1232366970</name><Point><coordinates>-81.5248700,29.1632847,0</coordinates></Point><LookAt><longitude>-81.5248700</longitude><latitude>29.1632847</latitude><altitude>0</altitude><range>800</range><tilt>0</tilt><heading>0</heading></LookAt></Placemark><Placemark id="252DAD6E09E6324D"><name>M: M 1232916762</name><Point><coordinates>-81.3432015,28.8483412,0</coordinates></Point><LookAt><longitude>-81.3432015</longitude><latitude>28.8483412</latitude><altitude>0</altitude><range>800</range><tilt>0</tilt><heading>0</heading></LookAt></Placemark><Placemark id="D01DD83CB731C6CB"><name>M: M 1232916775</name><Point><coordinates>-81.3699355,29.0625088,0</coordinates></Point><LookAt><longitude>-81.3699355</longitude><latitude>29.0625088</latitude><altitude>0</altitude><range>800</range><tilt>0</tilt><heading>0</heading></LookAt></Placemark><Placemark id="73784534A31F5066"><name>M: M 1232916777</name><Point><coordinates>-80.9149223,29.0328279,0</coordinates></Point><LookAt><longitude>-80.9149223</longitude><latitude>29.0328279</latitude><altitude>0</altitude><range>800</range><tilt>0</tilt><heading>0</heading></LookAt></Placemark><Placemark id="CE6D0F0D29DE2919"><name>M: M 1232916779</name><Point><coordinates>-80.9169099,29.0317416,0</coordinates></Point><LookAt><longitude>-80.9169099</longitude><latitude>29.0317416</latitude><altitude>0</altitude><range>800</range><tilt>0</tilt><heading>0</heading></LookAt></Placemark><Placemark id="FF815043274CA113"><name>M: M 1232916782</name><Point><coordinates>-81.3826068,29.0247933,0</coordinates></Point><LookAt><longitude>-81.3826068</longitude><latitude>29.0247933</latitude><altitude>0</altitude><range>800</range><tilt>0</tilt><heading>0</heading></LookAt></Placemark><Placemark id="91B4903837A6669F"><name>M: M 1232916783</name><Point><coordinates>-81.3811703,29.0084992,0</coordinates></Point><LookAt><longitude>-81.3811703</longitude><latitude>29.0084992</latitude><altitude>0</altitude><range>800</range><tilt>0</tilt><heading>0</heading></LookAt></Placemark><Placemark id="0969B291F19AC170"><name>M: M 1232916790</name><Point><coordinates>-81.3504454,29.0045924,0</coordinates></Point><LookAt><longitude>-81.3504454</longitude><latitude>29.0045924</latitude><altitude>0</altitude><range>800</range><tilt>0</tilt><heading>0</heading></LookAt></Placemark><Placemark id="A792F440C9012AA9"><name>M: M 1232916791</name><Point><coordinates>-81.3518777,28.9933474,0</coordinates></Point><LookAt><longitude>-81.3518777</longitude><latitude>28.9933474</latitude><altitude>0</altitude><range>800</range><tilt>0</tilt><heading>0</heading></LookAt></Placemark><Placemark id="5B79909E2715AB5D"><name>M: M 1232916792</name><Point><coordinates>-80.8915312,28.9709710,0</coordinates></Point><LookAt><longitude>-80.8915312</longitude><latitude>28.9709710</latitude><altitude>0</altitude><range>800</range><tilt>0</tilt><heading>0</heading></LookAt></Placemark><Placemark id="9D29133C01B77439"><name>M: M 1232916793</name><Point><coordinates>-81.3576203,28.9776686,0</coordinates></Point><LookAt><longitude>-81.3576203</longitude><latitude>28.9776686</latitude><altitude>0</altitude><range>800</range><tilt>0</tilt><heading>0</heading></LookAt></Placemark><Placemark id="FBAE415D2E455BA2"><name>M: M 1232916794</name><Point><coordinates>-81.3578242,28.9747820,0</coordinates></Point><LookAt><longitude>-81.3578242</longitude><latitude>28.9747820</latitude><altitude>0</altitude><range>800</range><tilt>0</tilt><heading>0</heading></LookAt></Placemark><Placemark id="EE21351FC73862FB"><name>M: M 1232916796</name><Point><coordinates>-80.8293393,28.9349117,0</coordinates></Point><LookAt><longitude>-80.8293393</longitude><latitude>28.9349117</latitude><altitude>0</altitude><range>800</range><tilt>0</tilt><heading>0</heading></LookAt></Placemark><Placemark id="A490BC03055E32FE"><name>M: M 1232916797</name><Point><coordinates>-80.8548726,28.9034573,0</coordinates></Point><LookAt><longitude>-80.8548726</longitude><latitude>28.9034573</latitude><altitude>0</altitude><range>800</range><tilt>0</tilt><heading>0</heading></LookAt></Placemark><Placemark id="707F3477566209AA"><name>M: M 1232916798</name><Point><coordinates>-81.3570650,28.8860838,0</coordinates></Point><LookAt><longitude>-81.3570650</longitude><latitude>28.8860838</latitude><altitude>0</altitude><range>800</range><tilt>0</tilt><heading>0</heading></LookAt></Placemark><Placemark id="EF09564FE0291626"><name>M: M 1232916799</name><Point><coordinates>-80.8359250,28.8648797,0</coordinates></Point><LookAt><longitude>-80.8359250</longitude><latitude>28.8648797</latitude><altitude>0</altitude><range>800</range><tilt>0</tilt><heading>0</heading></LookAt></Placemark><Placemark id="C2BB57B49B9BE396"><name>M: M 1232916800</name><Point><coordinates>-80.8338222,28.8655567,0</coordinates></Point><LookAt><longitude>-80.8338222</longitude><latitude>28.8655567</latitude><altitude>0</altitude><range>800</range><tilt>0</tilt><heading>0</heading></LookAt></Placemark><Placemark id="8FDE0CA841146658"><name>M: M 1232916801</name><Point><coordinates>-81.2517423,28.8630437,0</coordinates></Point><LookAt><longitude>-81.2517423</longitude><latitude>28.8630437</latitude><altitude>0</altitude><range>800</range><tilt>0</tilt><heading>0</heading></LookAt></Placemark><Placemark id="3D24B689F999FC3C"><name>M: M 1232916853</name><Point><coordinates>-81.0947154,29.3062062,0</coordinates></Point><LookAt><longitude>-81.0947154</longitude><latitude>29.3062062</latitude><altitude>0</altitude><range>800</range><tilt>0</tilt><heading>0</heading></LookAt></Placemark><Placemark id="7F935A01B940EDC9"><name>M: M 1232916856</name><Point><coordinates>-81.0240050,29.2289363,0</coordinates></Point><LookAt><longitude>-81.0240050</longitude><latitude>29.2289363</latitude><altitude>0</altitude><range>800</range><tilt>0</tilt><heading>0</heading></LookAt></Placemark><Placemark id="8D5A188ED2E8937F"><name>M: M 1232916860</name><Point><coordinates>-81.0145639,29.2074501,0</coordinates></Point><LookAt><longitude>-81.0145639</longitude><latitude>29.2074501</latitude><altitude>0</altitude><range>800</range><tilt>0</tilt><heading>0</heading></LookAt></Placemark><Placemark id="0C6B7F02B4920DAE"><name>M: M 1232916862</name><Point><coordinates>-81.5637029,29.2030145,0</coordinates></Point><LookAt><longitude>-81.5637029</longitude><latitude>29.2030145</latitude><altitude>0</altitude><range>800</range><tilt>0</tilt><heading>0</heading></LookAt></Placemark><Placemark id="DB92445F3BFDDADC"><name>M: M 1232916863</name><Point><coordinates>-81.5462623,29.1851274,0</coordinates></Point><LookAt><longitude>-81.5462623</longitude><latitude>29.1851274</latitude><altitude>0</altitude><range>800</range><tilt>0</tilt><heading>0</heading></LookAt></Placemark><Placemark id="22D50BA0BA13BB7F"><name>M: M 1232916866</name><Point><coordinates>-81.5333332,29.1852151,0</coordinates></Point><LookAt><longitude>-81.5333332</longitude><latitude>29.1852151</latitude><altitude>0</altitude><range>800</range><tilt>0</tilt><heading>0</heading></LookAt></Placemark><Placemark id="5234C492760ED7B8"><name>M: M 1232916867</name><Point><coordinates>-81.5319170,29.1780145,0</coordinates></Point><LookAt><longitude>-81.5319170</longitude><latitude>29.1780145</latitude><altitude>0</altitude><range>800</range><tilt>0</tilt><heading>0</heading></LookAt></Placemark><Placemark id="5409ECDACE586B17"><name>M: M 1232916868</name><Point><coordinates>-81.5210937,29.1674278,0</coordinates></Point><LookAt><longitude>-81.5210937</longitude><latitude>29.1674278</latitude><altitude>0</altitude><range>800</range><tilt>0</tilt><heading>0</heading></LookAt></Placemark><Placemark id="CC82F9EC3574069C"><name>M: M 1232916869</name><Point><coordinates>-80.9749397,29.1548692,0</coordinates></Point><LookAt><longitude>-80.9749397</longitude><latitude>29.1548692</latitude><altitude>0</altitude><range>800</range><tilt>0</tilt><heading>0</heading></LookAt></Placemark><Placemark id="8A1269634340126A"><name>M: M 1234825473</name><Point><coordinates>-80.3443842,27.5091344,0</coordinates></Point><LookAt><longitude>-80.3443842</longitude><latitude>27.5091344</latitude><altitude>0</altitude><range>800</range><tilt>0</tilt><heading>0</heading></LookAt></Placemark><Placemark id="01D26BC042137002"><name>M: M 1235125330</name><Point><coordinates>-80.7772529,27.7259000,0</coordinates></Point><LookAt><longitude>-80.7772529</longitude><latitude>27.7259000</latitude><altitude>0</altitude><range>800</range><tilt>0</tilt><heading>0</heading></LookAt></Placemark><Placemark id="9707800FC1D6DD74"><name>M: M 1235125332</name><Point><coordinates>-80.3692109,27.6575294,0</coordinates></Point><LookAt><longitude>-80.3692109</longitude><latitude>27.6575294</latitude><altitude>0</altitude><range>800</range><tilt>0</tilt><heading>0</heading></LookAt></Placemark><Placemark id="43070A6C822CFB8D"><name>M: M 1235125333</name><Point><coordinates>-80.6444046,27.6626070,0</coordinates></Point><LookAt><longitude>-80.6444046</longitude><latitude>27.6626070</latitude><altitude>0</altitude><range>800</range><tilt>0</tilt><heading>0</heading></LookAt></Placemark><Placemark id="D6DE0C97DBBD65EC"><name>M: M 1235125334</name><Point><coordinates>-80.3702811,27.6528231,0</coordinates></Point><LookAt><longitude>-80.3702811</longitude><latitude>27.6528231</latitude><altitude>0</altitude><range>800</range><tilt>0</tilt><heading>0</heading></LookAt></Placemark><Placemark id="2834B84F63EE56E4"><name>M: M 1235125355</name><Point><coordinates>-80.4745267,27.8292845,0</coordinates></Point><LookAt><longitude>-80.4745267</longitude><latitude>27.8292845</latitude><altitude>0</altitude><range>800</range><tilt>0</tilt><heading>0</heading></LookAt></Placemark><Placemark id="A82583F3D5E8413D"><name>M: M 1235125357</name><Point><coordinates>-80.4712025,27.8214565,0</coordinates></Point><LookAt><longitude>-80.4712025</longitude><latitude>27.8214565</latitude><altitude>0</altitude><range>800</range><tilt>0</tilt><heading>0</heading></LookAt></Placemark><Placemark id="68293B0B7CBAECA8"><name>M: M 1235125358</name><Point><coordinates>-80.4718203,27.8240194,0</coordinates></Point><LookAt><longitude>-80.4718203</longitude><latitude>27.8240194</latitude><altitude>0</altitude><range>800</range><tilt>0</tilt><heading>0</heading></LookAt></Placemark><Placemark id="B576974442A2A8E1"><name>M: M 1235125359</name><Point><coordinates>-80.4684098,27.8174790,0</coordinates></Point><LookAt><longitude>-80.4684098</longitude><latitude>27.8174790</latitude><altitude>0</altitude><range>800</range><tilt>0</tilt><heading>0</heading></LookAt></Placemark><Placemark id="8D63465153C767E0"><name>M: M 1235125360</name><Point><coordinates>-80.4646488,27.8108669,0</coordinates></Point><LookAt><longitude>-80.4646488</longitude><latitude>27.8108669</latitude><altitude>0</altitude><range>800</range><tilt>0</tilt><heading>0</heading></LookAt></Placemark><Placemark id="C744F75F177CBA62"><name>M: M 1235125361</name><Point><coordinates>-80.4542767,27.7932907,0</coordinates></Point><LookAt><longitude>-80.4542767</longitude><latitude>27.7932907</latitude><altitude>0</altitude><range>800</range><tilt>0</tilt><heading>0</heading></LookAt></Placemark><Placemark id="FAF7CC6A36D99622"><name>M: M 1235985490</name><Point><coordinates>-80.8468820,28.7705992,0</coordinates></Point><LookAt><longitude>-80.8468820</longitude><latitude>28.7705992</latitude><altitude>0</altitude><range>800</range><tilt>0</tilt><heading>0</heading></LookAt></Placemark><Placemark id="0240F344832FDD6D"><name>M: M 1235985496</name><Point><coordinates>-80.7565622,28.7335134,0</coordinates></Point><LookAt><longitude>-80.7565622</longitude><latitude>28.7335134</latitude><altitude>0</altitude><range>800</range><tilt>0</tilt><heading>0</heading></LookAt></Placemark><Placemark id="3892F76AF2A192A9"><name>M: M 1235985497</name><Point><coordinates>-80.7323759,28.7109653,0</coordinates></Point><LookAt><longitude>-80.7323759</longitude><latitude>28.7109653</latitude><altitude>0</altitude><range>800</range><tilt>0</tilt><heading>0</heading></LookAt></Placemark><Placemark id="35562CF4BC5D0608"><name>M: M 1235985498</name><Point><coordinates>-80.7211161,28.7062592,0</coordinates></Point><LookAt><longitude>-80.7211161</longitude><latitude>28.7062592</latitude><altitude>0</altitude><range>800</range><tilt>0</tilt><heading>0</heading></LookAt></Placemark><Placemark id="E82832B7F62DFF9C"><name>M: M 1235985499</name><Point><coordinates>-80.8266438,28.6783394,0</coordinates></Point><LookAt><longitude>-80.8266438</longitude><latitude>28.6783394</latitude><altitude>0</altitude><range>800</range><tilt>0</tilt><heading>0</heading></LookAt></Placemark><Placemark id="8EE797E566895B5C"><name>M: M 1235985500</name><Point><coordinates>-80.7913600,28.6258669,0</coordinates></Point><LookAt><longitude>-80.7913600</longitude><latitude>28.6258669</latitude><altitude>0</altitude><range>800</range><tilt>0</tilt><heading>0</heading></LookAt></Placemark><Placemark id="907119E2502D4833"><name>M: M 1235985502</name><Point><coordinates>-80.8095339,28.6194537,0</coordinates></Point><LookAt><longitude>-80.8095339</longitude><latitude>28.6194537</latitude><altitude>0</altitude><range>800</range><tilt>0</tilt><heading>0</heading></LookAt></Placemark><Placemark id="61670CFE38EC5D99"><name>M: M 1235985504</name><Point><coordinates>-80.8056476,28.6141517,0</coordinates></Point><LookAt><longitude>-80.8056476</longitude><latitude>28.6141517</latitude><altitude>0</altitude><range>800</range><tilt>0</tilt><heading>0</heading></LookAt></Placemark><Placemark id="B2153B603C813FD7"><name>M: M 1235985505</name><Point><coordinates>-80.7960273,28.5545191,0</coordinates></Point><LookAt><longitude>-80.7960273</longitude><latitude>28.5545191</latitude><altitude>0</altitude><range>800</range><tilt>0</tilt><heading>0</heading></LookAt></Placemark><Placemark id="D5ACE1572888A754"><name>M: M 1235985537</name><Point><coordinates>-80.7670852,28.4751191,0</coordinates></Point><LookAt><longitude>-80.7670852</longitude><latitude>28.4751191</latitude><altitude>0</altitude><range>800</range><tilt>0</tilt><heading>0</heading></LookAt></Placemark><Placemark id="82B1BFA03B2F9E7A"><name>M: M 1235985540</name><Point><coordinates>-80.8715478,28.3708478,0</coordinates></Point><LookAt><longitude>-80.8715478</longitude><latitude>28.3708478</latitude><altitude>0</altitude><range>800</range><tilt>0</tilt><heading>0</heading></LookAt></Placemark><Placemark id="9166D088446A1B90"><name>M: M 1235985556</name><Point><coordinates>-80.7241144,28.3569410,0</coordinates></Point><LookAt><longitude>-80.7241144</longitude><latitude>28.3569410</latitude><altitude>0</altitude><range>800</range><tilt>0</tilt><heading>0</heading></LookAt></Placemark><Placemark id="865F477EAFE56F64"><name>M: M 1235985557</name><Point><coordinates>-80.6627385,28.2086066,0</coordinates></Point><LookAt><longitude>-80.6627385</longitude><latitude>28.2086066</latitude><altitude>0</altitude><range>800</range><tilt>0</tilt><heading>0</heading></LookAt></Placemark><Placemark id="CD399D07FC9163E4"><name>M: M 1235985558</name><Point><coordinates>-80.6495549,28.1783197,0</coordinates></Point><LookAt><longitude>-80.6495549</longitude><latitude>28.1783197</latitude><altitude>0</altitude><range>800</range><tilt>0</tilt><heading>0</heading></LookAt></Placemark><Placemark id="F5547ABA18E8483B"><name>M: M 1235985559</name><Point><coordinates>-80.6024141,28.1506280,0</coordinates></Point><LookAt><longitude>-80.6024141</longitude><latitude>28.1506280</latitude><altitude>0</altitude><range>800</range><tilt>0</tilt><heading>0</heading></LookAt></Placemark><Placemark id="A69E77C002B33D19"><name>M: M 1235985560</name><Point><coordinates>-80.6035386,28.1496084,0</coordinates></Point><LookAt><longitude>-80.6035386</longitude><latitude>28.1496084</latitude><altitude>0</altitude><range>800</range><tilt>0</tilt><heading>0</heading></LookAt></Placemark><Placemark id="51AF104CACB0D0B0"><name>M: M 1235985561</name><Point><coordinates>-80.7326141,28.1477570,0</coordinates></Point><LookAt><longitude>-80.7326141</longitude><latitude>28.1477570</latitude><altitude>0</altitude><range>800</range><tilt>0</tilt><heading>0</heading></LookAt></Placemark><Placemark id="3BB70000815A9CDD"><name>M: M 1235985562</name><Point><coordinates>-80.6012294,28.1446254,0</coordinates></Point><LookAt><longitude>-80.6012294</longitude><latitude>28.1446254</latitude><altitude>0</altitude><range>800</range><tilt>0</tilt><heading>0</heading></LookAt></Placemark><Placemark id="1457F89C0C1B1A16"><name>M: M 1235985563</name><Point><coordinates>-80.6007911,28.1387736,0</coordinates></Point><LookAt><longitude>-80.6007911</longitude><latitude>28.1387736</latitude><altitude>0</altitude><range>800</range><tilt>0</tilt><heading>0</heading></LookAt></Placemark><Placemark id="8923A3461E4D1020"><name>M: M 1235985565</name><Point><coordinates>-80.7530190,28.0852396,0</coordinates></Point><LookAt><longitude>-80.7530190</longitude><latitude>28.0852396</latitude><altitude>0</altitude><range>800</range><tilt>0</tilt><heading>0</heading></LookAt></Placemark><Placemark id="993B84F4C195C11D"><name>M: M 1235985566</name><Point><coordinates>-80.6004873,28.0776546,0</coordinates></Point><LookAt><longitude>-80.6004873</longitude><latitude>28.0776546</latitude><altitude>0</altitude><range>800</range><tilt>0</tilt><heading>0</heading></LookAt></Placemark><Placemark id="E5DE7E30C61F602B"><name>M: M 1235985568</name><Point><coordinates>-80.5792016,28.0323390,0</coordinates></Point><LookAt><longitude>-80.5792016</longitude><latitude>28.0323390</latitude><altitude>0</altitude><range>800</range><tilt>0</tilt><heading>0</heading></LookAt></Placemark><Placemark id="D4E45E3B6FBB6578"><name>M: M 1235985569</name><Point><coordinates>-80.5679819,28.0165786,0</coordinates></Point><LookAt><longitude>-80.5679819</longitude><latitude>28.0165786</latitude><altitude>0</altitude><range>800</range><tilt>0</tilt><heading>0</heading></LookAt></Placemark><Placemark id="C60AACEE1065BB68"><name>M: M 1235985571</name><Point><coordinates>-80.5038717,27.9345351,0</coordinates></Point><LookAt><longitude>-80.5038717</longitude><latitude>27.9345351</latitude><altitude>0</altitude><range>800</range><tilt>0</tilt><heading>0</heading></LookAt></Placemark></Document></kml>