<?xml version='1.0' encoding='utf-8'?>
<kml xmlns="http://www.opengis.net/kml/2.2"><Document><name>Candidates FL_se_atlantic p0</name><Placemark id="FCB7BFFC638257F0"><name>M: Air Boat</name><Point><coordinates>-80.4479860,26.1769345,0</coordinates></Point><LookAt><longitude>-80.4479860</longitude><latitude>26.1769345</latitude><altitude>0</altitude><range>800</range><tilt>0</tilt><heading>0</heading></LookAt></Placemark><Placemark id="06852B9A56524889"><name>M: Bahia Mar Resort and Yachting Center</name><Point><coordinates>-80.1076002,26.1117440,0</coordinates></Point><LookAt><longitude>-80.1076002</longitude><latitude>26.1117440</latitude><altitude>0</altitude><range>800</range><tilt>0</tilt><heading>0</heading></LookAt></Placemark><Placemark id="5E494A99B872065D"><name>M: Bahia Mar Resort and Yachting Center</name><Point><coordinates>-80.1072276,26.1132195,0</coordinates></Point><LookAt><longitude>-80.1072276</longitude><latitude>26.1132195</latitude><altitude>0</altitude><range>800</range><tilt>0</tilt><heading>0</heading></LookAt></Placemark><Placemark id="BE0001D6A0A8F2E9"><name>M: Bill Bird Marina</name><Point><coordinates>-80.1250312,25.9059239,0</coordinates></Point><LookAt><longitude>-80.1250312</longitude><latitude>25.9059239</latitude><altitude>0</altitude><range>800</range><tilt>0</tilt><heading>0</heading></LookAt></Placemark><Placemark id="DCA8E4D187775155"><name>M: Biscayne Bay Yacht Club</name><Point><coordinates>-80.2316454,25.7319626,0</coordinates></Point><LookAt><longitude>-80.2316454</longitude><latitude>25.7319626</latitude><altitude>0</altitude><range>800</range><tilt>0</tilt><heading>0</heading></LookAt></Placemark><Placemark id="E1F5D15F2ADBC4CB"><name>M: Black Point Marina</name><Point><coordinates>-80.3295087,25.5402288,0</coordinates></Point><LookAt><longitude>-80.3295087</longitude><latitude>25.5402288</latitude><altitude>0</altitude><range>800</range><tilt>0</tilt><heading>0</heading></LookAt></Placemark><Placemark id="A950EE6B1A52731C"><name>M: Boynton Harbor Marina</name><Point><coordinates>-80.0545611,26.5285021,0</coordinates></Point><LookAt><longitude>-80.0545611</longitude><latitude>26.5285021</latitude><altitude>0</altitude><range>800</range><tilt>0</tilt><heading>0</heading></LookAt></Placemark><Placemark id="ABF6D8C972DC7C9C"><name>M: Buccaneer Marina</name><Point><coordinates>-80.0395187,26.7787482,0</coordinates></Point><LookAt><longitude>-80.0395187</longitude><latitude>26.7787482</latitude><altitude>0</altitude><range>800</range><tilt>0</tilt><heading>0</heading></LookAt></Placemark><Placemark id="CD2CEDC947FAC914"><name>M: Cannonsport Marina</name><Point><coordinates>-80.0395145,26.7806813,0</coordinates></Point><LookAt><longitude>-80.0395145</longitude><latitude>26.7806813</latitude><altitude>0</altitude><range>800</range><tilt>0</tilt><heading>0</heading></LookAt></Placemark><Placemark id="9B0F17EA876E6FA2"><name>M: Castaways Marina</name><Point><coordinates>-80.0811267,26.9459544,0</coordinates></Point><LookAt><longitude>-80.0811267</longitude><latitude>26.9459544</latitude><altitude>0</altitude><range>800</range><tilt>0</tilt><heading>0</heading></LookAt></Placemark><Placemark id="2C9571D8E41ADE9C"><name>M: Central Marine Marina</name><Point><coordinates>-80.2557770,27.2159832,0</coordinates></Point><LookAt><longitude>-80.2557770</longitude><latitude>27.2159832</latitude><altitude>0</altitude><range>800</range><tilt>0</tilt><heading>0</heading></LookAt></Placemark><Placemark id="18DE0CEACA137F44"><name>M: Coast Guard Basin</name><Point><coordinates>-80.1129775,26.0893154,0</coordinates></Point><LookAt><longitude>-80.1129775</longitude><latitude>26.0893154</latitude><altitude>0</altitude><range>800</range><tilt>0</tilt><heading>0</heading></LookAt></Placemark><Placemark id="736EFBA4A08E873D"><name>M: Cocoplum Yacht Club</name><Point><coordinates>-80.2515035,25.7039120,0</coordinates></Point><LookAt><longitude>-80.2515035</longitude><latitude>25.7039120</latitude><altitude>0</altitude><range>800</range><tilt>0</tilt><heading>0</heading></LookAt></Placemark><Placemark id="EE9AE3D41C74B6FC"><name>M: Coral Ridge Yacht Club</name><Point><coordinates>-80.1085755,26.1407843,0</coordinates></Point><LookAt><longitude>-80.1085755</longitude><latitude>26.1407843</latitude><altitude>0</altitude><range>800</range><tilt>0</tilt><heading>0</heading></LookAt></Placemark><Placemark id="AF59ED1BB81E40C9"><name>M: Crandon Marina</name><Point><coordinates>-80.1561191,25.7257062,0</coordinates></Point><LookAt><longitude>-80.1561191</longitude><latitude>25.7257062</latitude><altitude>0</altitude><range>800</range><tilt>0</tilt><heading>0</heading></LookAt></Placemark><Placemark id="14C3A16FB7BBCCFC"><name>M: Delray Harbor Club Marina</name><Point><coordinates>-80.0660381,26.4457248,0</coordinates></Point><LookAt><longitude>-80.0660381</longitude><latitude>26.4457248</latitude><altitude>0</altitude><range>800</range><tilt>0</tilt><heading>0</heading></LookAt></Placemark><Placemark id="FD13425318DD0C87"><name>M: Dinner Key Marina</name><Point><coordinates>-80.2336758,25.7264258,0</coordinates></Point><LookAt><longitude>-80.2336758</longitude><latitude>25.7264258</latitude><altitude>0</altitude><range>800</range><tilt>0</tilt><heading>0</heading></LookAt></Placemark><Placemark id="663E0B62F8BF25E9"><name>M: Dockside Marina and Resort</name><Point><coordinates>-80.3021478,27.4669519,0</coordinates></Point><LookAt><longitude>-80.3021478</longitude><latitude>27.4669519</latitude><altitude>0</altitude><range>800</range><tilt>0</tilt><heading>0</heading></LookAt></Placemark><Placemark id="19DF0991C3A50BD1"><name>M: Fort Pierce City Marina</name><Point><coordinates>-80.3216010,27.4505802,0</coordinates></Point><LookAt><longitude>-80.3216010</longitude><latitude>27.4505802</latitude><altitude>0</altitude><range>800</range><tilt>0</tilt><heading>0</heading></LookAt></Placemark><Placemark id="17E965A3993AEF37"><name>M: Fort Pierce Inlet Marina</name><Point><coordinates>-80.3044920,27.4636713,0</coordinates></Point><LookAt><longitude>-80.3044920</longitude><latitude>27.4636713</latitude><altitude>0</altitude><range>800</range><tilt>0</tilt><heading>0</heading></LookAt></Placemark><Placemark id="F927AC527968A750"><name>M: Grand Marina</name><Point><coordinates>-80.2921344,25.6340230,0</coordinates></Point><LookAt><longitude>-80.2921344</longitude><latitude>25.6340230</latitude><altitude>0</altitude><range>800</range><tilt>0</tilt><heading>0</heading></LookAt></Placemark><Placemark id="C0900092D69CC151"><name>M: Grandview Palace Marina</name><Point><coordinates>-80.1446672,25.8482607,0</coordinates></Point><LookAt><longitude>-80.1446672</longitude><latitude>25.8482607</latitude><altitude>0</altitude><range>800</range><tilt>0</tilt><heading>0</heading></LookAt></Placemark><Placemark id="F0101BE5E6B3FAC1"><name>M: Grove Harbour Marina</name><Point><coordinates>-80.2343017,25.7301931,0</coordinates></Point><LookAt><longitude>-80.2343017</longitude><latitude>25.7301931</latitude><altitude>0</altitude><range>800</range><tilt>0</tilt><heading>0</heading></LookAt></Placemark><Placemark id="28F3004F25B687AB"><name>M: Hilton Fort Lauderdale Marina</name><Point><coordinates>-80.1211721,26.1020077,0</coordinates></Point><LookAt><longitude>-80.1211721</longitude><latitude>26.1020077</latitude><altitude>0</altitude><range>800</range><tilt>0</tilt><heading>0</heading></LookAt></Placemark><Placemark id="F95C0080810C3A31"><name>M: Hollywood City Marina</name><Point><coordinates>-80.1187227,26.0146717,0</coordinates></Point><LookAt><longitude>-80.1187227</longitude><latitude>26.0146717</latitude><altitude>0</altitude><range>800</range><tilt>0</tilt><heading>0</heading></LookAt></Placemark><Placemark id="79082B21C0870471"><name>M: Jensen Beach Boat Rentals</name><Point><coordinates>-80.2246341,27.2456441,0</coordinates></Point><LookAt><longitude>-80.2246341</longitude><latitude>27.2456441</latitude><altitude>0</altitude><range>800</range><tilt>0</tilt><heading>0</heading></LookAt></Placemark><Placemark id="6387D7CFB39D5B01"><name>M: Jensen Beach Mooring Field</name><Point><coordinates>-80.2235522,27.2515981,0</coordinates></Point><LookAt><longitude>-80.2235522</longitude><latitude>27.2515981</latitude><altitude>0</altitude><range>800</range><tilt>0</tilt><heading>0</heading></LookAt></Placemark><Placemark id="0DFBB6EA3CD60AD6"><name>M: Key Biscayne Yacht Club</name><Point><coordinates>-80.1699291,25.6998206,0</coordinates></Point><LookAt><longitude>-80.1699291</longitude><latitude>25.6998206</latitude><altitude>0</altitude><range>800</range><tilt>0</tilt><heading>0</heading></LookAt></Placemark><Placemark id="544564CA9840EEE8"><name>M: Lagoon Marina</name><Point><coordinates>-80.2888720,25.6376543,0</coordinates></Point><LookAt><longitude>-80.2888720</longitude><latitude>25.6376543</latitude><altitude>0</altitude><range>800</range><tilt>0</tilt><heading>0</heading></LookAt></Placemark><Placemark id="0BC713E3CF3BAE01"><name>M: Lauderdale Marina</name><Point><coordinates>-80.1201260,26.1034640,0</coordinates></Point><LookAt><longitude>-80.1201260</longitude><latitude>26.1034640</latitude><altitude>0</altitude><range>800</range><tilt>0</tilt><heading>0</heading></LookAt></Placemark><Placemark id="90139D7C09CF0B39"><name>M: Lighthouse Point Marina</name><Point><coordinates>-80.0837168,26.2664883,0</coordinates></Point><LookAt><longitude>-80.0837168</longitude><latitude>26.2664883</latitude><altitude>0</altitude><range>800</range><tilt>0</tilt><heading>0</heading></LookAt></Placemark><Placemark id="B406ACD4B36500B9"><name>M: Loggerhead Marina Aventura</name><Point><coordinates>-80.1295751,25.9697342,0</coordinates></Point><LookAt><longitude>-80.1295751</longitude><latitude>25.9697342</latitude><altitude>0</altitude><range>800</range><tilt>0</tilt><heading>0</heading></LookAt></Placemark><Placemark id="7891340666436C9C"><name>M: Loggerhead Marina Jupiter</name><Point><coordinates>-80.0808727,26.9178733,0</coordinates></Point><LookAt><longitude>-80.0808727</longitude><latitude>26.9178733</latitude><altitude>0</altitude><range>800</range><tilt>0</tilt><heading>0</heading></LookAt></Placemark><Placemark id="4662C04C3DEDC61B"><name>M: Loggerhead Marina Lantana</name><Point><coordinates>-80.0489856,26.5925788,0</coordinates></Point><LookAt><longitude>-80.0489856</longitude><latitude>26.5925788</latitude><altitude>0</altitude><range>800</range><tilt>0</tilt><heading>0</heading></LookAt></Placemark><Placemark id="9A52265E02976C38"><name>M: Loggerhead Marina Palm Beach Gardens</name><Point><coordinates>-80.0732342,26.8805420,0</coordinates></Point><LookAt><longitude>-80.0732342</longitude><latitude>26.8805420</latitude><altitude>0</altitude><range>800</range><tilt>0</tilt><heading>0</heading></LookAt></Placemark><Placemark id="1D5028010EEAC3D5"><name>M: Loggerhead Marina Riviera Beach</name><Point><coordinates>-80.0495559,26.7845343,0</coordinates></Point><LookAt><longitude>-80.0495559</longitude><latitude>26.7845343</latitude><altitude>0</altitude><range>800</range><tilt>0</tilt><heading>0</heading></LookAt></Placemark><Placemark id="805CB08D1717B9F9"><name>M: Loggerhead Marina South Lantana</name><Point><coordinates>-80.0489320,26.5907176,0</coordinates></Point><LookAt><longitude>-80.0489320</longitude><latitude>26.5907176</latitude><altitude>0</altitude><range>800</range><tilt>0</tilt><heading>0</heading></LookAt></Placemark><Placemark id="D9D02B044D263FDF"><name>M: Loggerhead Marina South Miami</name><Point><coordinates>-80.3278747,25.5376430,0</coordinates></Point><LookAt><longitude>-80.3278747</longitude><latitude>25.5376430</latitude><altitude>0</altitude><range>800</range><tilt>0</tilt><heading>0</heading></LookAt></Placemark><Placemark id="A72602D85F003CBE"><name>M: Loggerhead Marina Stuart</name><Point><coordinates>-80.2577503,27.2146146,0</coordinates></Point><LookAt><longitude>-80.2577503</longitude><latitude>27.2146146</latitude><altitude>0</altitude><range>800</range><tilt>0</tilt><heading>0</heading></LookAt></Placemark><Placemark id="7BD36B97AAE0D11E"><name>M: M 117906008</name><Point><coordinates>-80.1411844,25.7562784,0</coordinates></Point><LookAt><longitude>-80.1411844</longitude><latitude>25.7562784</latitude><altitude>0</altitude><range>800</range><tilt>0</tilt><heading>0</heading></LookAt></Placemark><Placemark id="C1D3F03C7E8B5348"><name>M: M 117906013</name><Point><coordinates>-80.1438265,25.7609301,0</coordinates></Point><LookAt><longitude>-80.1438265</longitude><latitude>25.7609301</latitude><altitude>0</altitude><range>800</range><tilt>0</tilt><heading>0</heading></LookAt></Placemark><Placemark id="A1EE06FDD42F0916"><name>M: M 1233381194</name><Point><coordinates>-80.2708933,27.1834863,0</coordinates></Point><LookAt><longitude>-80.2708933</longitude><latitude>27.1834863</latitude><altitude>0</altitude><range>800</range><tilt>0</tilt><heading>0</heading></LookAt></Placemark><Placemark id="981C67E66A755625"><name>M: M 1233381195</name><Point><coordinates>-80.2582667,27.1761915,0</coordinates></Point><LookAt><longitude>-80.2582667</longitude><latitude>27.1761915</latitude><altitude>0</altitude><range>800</range><tilt>0</tilt><heading>0</heading></LookAt></Placemark><Placemark id="08E6ED833FD4B330"><name>M: M 1233381196</name><Point><coordinates>-80.2565863,27.1748372,0</coordinates></Point><LookAt><longitude>-80.2565863</longitude><latitude>27.1748372</latitude><altitude>0</altitude><range>800</range><tilt>0</tilt><heading>0</heading></LookAt></Placemark><Placemark id="F449E6DE8CB4647B"><name>M: M 1233381197</name><Point><coordinates>-80.2045269,27.1733043,0</coordinates></Point><LookAt><longitude>-80.2045269</longitude><latitude>27.1733043</latitude><altitude>0</altitude><range>800</range><tilt>0</tilt><heading>0</heading></LookAt></Placemark><Placemark id="4DBE086205451052"><name>M: M 1233381198</name><Point><coordinates>-80.1964354,27.1609401,0</coordinates></Point><LookAt><longitude>-80.1964354</longitude><latitude>27.1609401</latitude><altitude>0</altitude><range>800</range><tilt>0</tilt><heading>0</heading></LookAt></Placemark><Placemark id="603299C0CAFF83A7"><name>M: M 1233381199</name><Point><coordinates>-80.1908987,27.1498391,0</coordinates></Point><LookAt><longitude>-80.1908987</longitude><latitude>27.1498391</latitude><altitude>0</altitude><range>800</range><tilt>0</tilt><heading>0</heading></LookAt></Placemark><Placemark id="E9B73FBD7963113E"><name>M: M 1233381201</name><Point><coordinates>-80.2175637,27.2313216,0</coordinates></Point><LookAt><longitude>-80.2175637</longitude><latitude>27.2313216</latitude><altitude>0</altitude><range>800</range><tilt>0</tilt><heading>0</heading></LookAt></Placemark><Placemark id="9FCFAB07146266D4"><name>M: M 1233381202</name><Point><coordinates>-80.2384839,27.2179391,0</coordinates></Point><LookAt><longitude>-80.2384839</longitude><latitude>27.2179391</latitude><altitude>0</altitude><range>800</range><tilt>0</tilt><heading>0</heading></LookAt></Placemark><Placemark id="A8E7982C312E650A"><name>M: M 1233381203</name><Point><coordinates>-80.2363619,27.2169070,0</coordinates></Point><LookAt><longitude>-80.2363619</longitude><latitude>27.2169070</latitude><altitude>0</altitude><range>800</range><tilt>0</tilt><heading>0</heading></LookAt></Placemark><Placemark id="89022A2DBC85FA02"><name>M: M 1233381205</name><Point><coordinates>-80.2619287,27.2060461,0</coordinates></Point><LookAt><longitude>-80.2619287</longitude><latitude>27.2060461</latitude><altitude>0</altitude><range>800</range><tilt>0</tilt><heading>0</heading></LookAt></Placemark><Placemark id="F3BDDEEAC274D7D8"><name>M: M 1233381206</name><Point><coordinates>-80.2004322,27.1509322,0</coordinates></Point><LookAt><longitude>-80.2004322</longitude><latitude>27.1509322</latitude><altitude>0</altitude><range>800</range><tilt>0</tilt><heading>0</heading></LookAt></Placemark><Placemark id="51187603A39A0527"><name>M: M 1233381207</name><Point><coordinates>-80.1958211,27.1499496,0</coordinates></Point><LookAt><longitude>-80.1958211</longitude><latitude>27.1499496</latitude><altitude>0</altitude><range>800</range><tilt>0</tilt><heading>0</heading></LookAt></Placemark><Placemark id="E450C7A296CDC199"><name>M: M 1233381208</name><Point><coordinates>-80.1970292,27.1466027,0</coordinates></Point><LookAt><longitude>-80.1970292</longitude><latitude>27.1466027</latitude><altitude>0</altitude><range>800</range><tilt>0</tilt><heading>0</heading></LookAt></Placemark><Placemark id="D1BE7B65B61E6EB7"><name>M: M 1233381209</name><Point><coordinates>-80.1955959,27.1450055,0</coordinates></Point><LookAt><longitude>-80.1955959</longitude><latitude>27.1450055</latitude><altitude>0</altitude><range>800</range><tilt>0</tilt><heading>0</heading></LookAt></Placemark><Placemark id="15EB8B6CDA2A452B"><name>M: M 1233381210</name><Point><coordinates>-80.2591824,27.1200905,0</coordinates></Point><LookAt><longitude>-80.2591824</longitude><latitude>27.1200905</latitude><altitude>0</altitude><range>800</range><tilt>0</tilt><heading>0</heading></LookAt></Placemark><Placemark id="FDDA0478E91D0DC7"><name>M: M 1233381211</name><Point><coordinates>-80.2719590,27.1166453,0</coordinates></Point><LookAt><longitude>-80.2719590</longitude><latitude>27.1166453</latitude><altitude>0</altitude><range>800</range><tilt>0</tilt><heading>0</heading></LookAt></Placemark><Placemark id="A8EBF97130F9C561"><name>M: M 1233381214</name><Point><coordinates>-80.4684741,27.0098397,0</coordinates></Point><LookAt><longitude>-80.4684741</longitude><latitude>27.0098397</latitude><altitude>0</altitude><range>800</range><tilt>0</tilt><heading>0</heading></LookAt></Placemark><Placemark id="5E2AD0FB6C41E810"><name>M: M 1233381215</name><Point><coordinates>-80.0881726,26.9774744,0</coordinates></Point><LookAt><longitude>-80.0881726</longitude><latitude>26.9774744</latitude><altitude>0</altitude><range>800</range><tilt>0</tilt><heading>0</heading></LookAt></Placemark><Placemark id="659A7996E3C7B0FF"><name>M: M 1234825481</name><Point><coordinates>-80.3341774,27.4794018,0</coordinates></Point><LookAt><longitude>-80.3341774</longitude><latitude>27.4794018</latitude><altitude>0</altitude><range>800</range><tilt>0</tilt><heading>0</heading></LookAt></Placemark><Placemark id="31C1D5245297DFCE"><name>M: M 1234825482</name><Point><coordinates>-80.3300107,27.4709155,0</coordinates></Point><LookAt><longitude>-80.3300107</longitude><latitude>27.4709155</latitude><altitude>0</altitude><range>800</range><tilt>0</tilt><heading>0</heading></LookAt></Placemark><Placemark id="CDDF28174FF39E09"><name>M: M 1234825483</name><Point><coordinates>-80.3296562,27.4685331,0</coordinates></Point><LookAt><longitude>-80.3296562</longitude><latitude>27.4685331</latitude><altitude>0</altitude><range>800</range><tilt>0</tilt><heading>0</heading></LookAt></Placemark><Placemark id="B1A646FC4D038E09"><name>M: M 1234825484</name><Point><coordinates>-80.3281115,27.4651734,0</coordinates></Point><LookAt><longitude>-80.3281115</longitude><latitude>27.4651734</latitude><altitude>0</altitude><range>800</range><tilt>0</tilt><heading>0</heading></LookAt></Placemark><Placemark id="FCDB1A9E2478A737"><name>M: M 1234825486</name><Point><coordinates>-80.3224593,27.4488103,0</coordinates></Point><LookAt><longitude>-80.3224593</longitude><latitude>27.4488103</latitude><altitude>0</altitude><range>800</range><tilt>0</tilt><heading>0</heading></LookAt></Placemark><Placemark id="ED55DF1263F7A19F"><name>M: M 1536710726</name><Point><coordinates>-80.1286556,25.8946354,0</coordinates></Point><LookAt><longitude>-80.1286556</longitude><latitude>25.8946354</latitude><altitude>0</altitude><range>800</range><tilt>0</tilt><heading>0</heading></LookAt></Placemark><Placemark id="3C9C297CCB4F0364"><name>M: M 16861235</name><Point><coordinates>-80.2954047,27.0948988,0</coordinates></Point><LookAt><longitude>-80.2954047</longitude><latitude>27.0948988</latitude><altitude>0</altitude><range>800</range><tilt>0</tilt><heading>0</heading></LookAt></Placemark><Placemark id="B184D1D7D19DA78B"><name>M: M 243018792</name><Point><coordinates>-80.1247018,25.9563573,0</coordinates></Point><LookAt><longitude>-80.1247018</longitude><latitude>25.9563573</latitude><altitude>0</altitude><range>800</range><tilt>0</tilt><heading>0</heading></LookAt></Placemark><Placemark id="33F57D28625EB707"><name>M: M 259182700</name><Point><coordinates>-80.1450493,25.7936834,0</coordinates></Point><LookAt><longitude>-80.1450493</longitude><latitude>25.7936834</latitude><altitude>0</altitude><range>800</range><tilt>0</tilt><heading>0</heading></LookAt></Placemark><Placemark id="4691C2518DC915A3"><name>M: M 2614693878</name><Point><coordinates>-80.0808667,26.9384960,0</coordinates></Point><LookAt><longitude>-80.0808667</longitude><latitude>26.9384960</latitude><altitude>0</altitude><range>800</range><tilt>0</tilt><heading>0</heading></LookAt></Placemark><Placemark id="4700B206A40E551A"><name>M: M 332532734</name><Point><coordinates>-80.1694446,26.0671069,0</coordinates></Point><LookAt><longitude>-80.1694446</longitude><latitude>26.0671069</latitude><altitude>0</altitude><range>800</range><tilt>0</tilt><heading>0</heading></LookAt></Placemark><Placemark id="0159AA72C319FE53"><name>M: M 381959313</name><Point><coordinates>-80.0805722,26.3157822,0</coordinates></Point><LookAt><longitude>-80.0805722</longitude><latitude>26.3157822</latitude><altitude>0</altitude><range>800</range><tilt>0</tilt><heading>0</heading></LookAt></Placemark><Placemark id="E6D0ADC7F17178E4"><name>M: M 381959491</name><Point><coordinates>-80.0816507,26.3132687,0</coordinates></Point><LookAt><longitude>-80.0816507</longitude><latitude>26.3132687</latitude><altitude>0</altitude><range>800</range><tilt>0</tilt><heading>0</heading></LookAt></Placemark><Placemark id="F3AAD288A06B6155"><name>M: M 471837041</name><Point><coordinates>-80.2940220,27.0985423,0</coordinates></Point><LookAt><longitude>-80.2940220</longitude><latitude>27.0985423</latitude><altitude>0</altitude><range>800</range><tilt>0</tilt><heading>0</heading></LookAt></Placemark><Placemark id="A521727FFFA5E7EB"><name>M: M 512365175</name><Point><coordinates>-80.1668159,26.0979453,0</coordinates></Point><LookAt><longitude>-80.1668159</longitude><latitude>26.0979453</latitude><altitude>0</altitude><range>800</range><tilt>0</tilt><heading>0</heading></LookAt></Placemark><Placemark id="6DD9EF66788B93C9"><name>M: M 588193013</name><Point><coordinates>-80.1644194,26.0690823,0</coordinates></Point><LookAt><longitude>-80.1644194</longitude><latitude>26.0690823</latitude><altitude>0</altitude><range>800</range><tilt>0</tilt><heading>0</heading></LookAt></Placemark><Placemark id="1D2C8F80D94865DF"><name>M: M 6039910083</name><Point><coordinates>-80.2772617,26.0680713,0</coordinates></Point><LookAt><longitude>-80.2772617</longitude><latitude>26.0680713</latitude><altitude>0</altitude><range>800</range><tilt>0</tilt><heading>0</heading></LookAt></Placemark><Placemark id="6A6D640C3961D9FA"><name>M: M 97447990</name><Point><coordinates>-80.0831338,26.3167489,0</coordinates></Point><LookAt><longitude>-80.0831338</longitude><latitude>26.3167489</latitude><altitude>0</altitude><range>800</range><tilt>0</tilt><heading>0</heading></LookAt></Placemark><Placemark id="F5F5E6AD3C48F97B"><name>M: M 9853990</name><Point><coordinates>-80.2800706,25.6670365,0</coordinates></Point><LookAt><longitude>-80.2800706</longitude><latitude>25.6670365</latitude><altitude>0</altitude><range>800</range><tilt>0</tilt><heading>0</heading></LookAt></Placemark><Placemark id="3EFBBA5B49230D45"><name>M: Main Marina</name><Point><coordinates>-80.2939343,25.6353573,0</coordinates></Point><LookAt><longitude>-80.2939343</longitude><latitude>25.6353573</latitude><altitude>0</altitude><range>800</range><tilt>0</tilt><heading>0</heading></LookAt></Placemark><Placemark id="AAC56F36312F772C"><name>M: Marina Palms Yacht Club &amp; Residences</name><Point><coordinates>-80.1503448,25.9349878,0</coordinates></Point><LookAt><longitude>-80.1503448</longitude><latitude>25.9349878</latitude><altitude>0</altitude><range>800</range><tilt>0</tilt><heading>0</heading></LookAt></Placemark><Placemark id="1F2BA673AE209C1D"><name>M: Mariner Cay Marina</name><Point><coordinates>-80.1958080,27.1580449,0</coordinates></Point><LookAt><longitude>-80.1958080</longitude><latitude>27.1580449</latitude><altitude>0</altitude><range>800</range><tilt>0</tilt><heading>0</heading></LookAt></Placemark><Placemark id="31BC9A83520D1C46"><name>M: Miamarina</name><Point><coordinates>-80.1846810,25.7786362,0</coordinates></Point><LookAt><longitude>-80.1846810</longitude><latitude>25.7786362</latitude><altitude>0</altitude><range>800</range><tilt>0</tilt><heading>0</heading></LookAt></Placemark><Placemark id="F0355DF22E70BDDE"><name>M: Miami Beach Marina</name><Point><coordinates>-80.1403574,25.7706586,0</coordinates></Point><LookAt><longitude>-80.1403574</longitude><latitude>25.7706586</latitude><altitude>0</altitude><range>800</range><tilt>0</tilt><heading>0</heading></LookAt></Placemark><Placemark id="2A468ABB8E557088"><name>M: Miami Outboard Club</name><Point><coordinates>-80.1724559,25.7820804,0</coordinates></Point><LookAt><longitude>-80.1724559</longitude><latitude>25.7820804</latitude><altitude>0</altitude><range>800</range><tilt>0</tilt><heading>0</heading></LookAt></Placemark><Placemark id="48D06742B8B1D4B8"><name>M: Miami Yacht Club</name><Point><coordinates>-80.1732764,25.7861028,0</coordinates></Point><LookAt><longitude>-80.1732764</longitude><latitude>25.7861028</latitude><altitude>0</altitude><range>800</range><tilt>0</tilt><heading>0</heading></LookAt></Placemark><Placemark id="EF358CB64DF626FA"><name>M: NSU Vessel Basin</name><Point><coordinates>-80.1118729,26.0910176,0</coordinates></Point><LookAt><longitude>-80.1118729</longitude><latitude>26.0910176</latitude><altitude>0</altitude><range>800</range><tilt>0</tilt><heading>0</heading></LookAt></Placemark><Placemark id="07F6750246508FA9"><name>M: Outrigger Harbour</name><Point><coordinates>-80.2112934,27.2226315,0</coordinates></Point><LookAt><longitude>-80.2112934</longitude><latitude>27.2226315</latitude><altitude>0</altitude><range>800</range><tilt>0</tilt><heading>0</heading></LookAt></Placemark><Placemark id="180B573EB361A186"><name>M: Palm Bay Club</name><Point><coordinates>-80.1799021,25.8379117,0</coordinates></Point><LookAt><longitude>-80.1799021</longitude><latitude>25.8379117</latitude><altitude>0</altitude><range>800</range><tilt>0</tilt><heading>0</heading></LookAt></Placemark><Placemark id="AC930FB2241E69AB"><name>M: Palm Beach Marina</name><Point><coordinates>-80.0456735,26.7038173,0</coordinates></Point><LookAt><longitude>-80.0456735</longitude><latitude>26.7038173</latitude><altitude>0</altitude><range>800</range><tilt>0</tilt><heading>0</heading></LookAt></Placemark><Placemark id="C3BA01A8611CF688"><name>M: Palm Beach Yacht Club &amp; Marina</name><Point><coordinates>-80.0482399,26.7205703,0</coordinates></Point><LookAt><longitude>-80.0482399</longitude><latitude>26.7205703</latitude><altitude>0</altitude><range>800</range><tilt>0</tilt><heading>0</heading></LookAt></Placemark><Placemark id="B1D17FDF95662B9A"><name>M: Palm Harbor Marina</name><Point><coordinates>-80.0501796,26.7164365,0</coordinates></Point><LookAt><longitude>-80.0501796</longitude><latitude>26.7164365</latitude><altitude>0</altitude><range>800</range><tilt>0</tilt><heading>0</heading></LookAt></Placemark><Placemark id="60976AA01453D960"><name>M: Pelican Harbor Marina</name><Point><coordinates>-80.1662865,25.8496317,0</coordinates></Point><LookAt><longitude>-80.1662865</longitude><latitude>25.8496317</latitude><altitude>0</altitude><range>800</range><tilt>0</tilt><heading>0</heading></LookAt></Placemark><Placemark id="0D2F8F6C4238175A"><name>M: Pelican Yacht Club</name><Point><coordinates>-80.3033873,27.4646281,0</coordinates></Point><LookAt><longitude>-80.3033873</longitude><latitude>27.4646281</latitude><altitude>0</altitude><range>800</range><tilt>0</tilt><heading>0</heading></LookAt></Placemark><Placemark id="BB85DBE350C66578"><name>M: Pier 66 Marina</name><Point><coordinates>-80.1171495,26.1018398,0</coordinates></Point><LookAt><longitude>-80.1171495</longitude><latitude>26.1018398</latitude><altitude>0</altitude><range>800</range><tilt>0</tilt><heading>0</heading></LookAt></Placemark><Placemark id="7FCBD8D9E7E8F923"><name>M: Port of Miami Cruise Terminals</name><Point><coordinates>-80.1731625,25.7777808,0</coordinates></Point><LookAt><longitude>-80.1731625</longitude><latitude>25.7777808</latitude><altitude>0</altitude><range>800</range><tilt>0</tilt><heading>0</heading></LookAt></Placemark><Placemark id="7ED5B59FD40B474C"><name>M: Port Royale Marina</name><Point><coordinates>-80.1003932,26.2106316,0</coordinates></Point><LookAt><longitude>-80.1003932</longitude><latitude>26.2106316</latitude><altitude>0</altitude><range>800</range><tilt>0</tilt><heading>0</heading></LookAt></Placemark><Placemark id="1BA17E72C171C3D4"><name>M: Rickenbacker Marina</name><Point><coordinates>-80.1741583,25.7455662,0</coordinates></Point><LookAt><longitude>-80.1741583</longitude><latitude>25.7455662</latitude><altitude>0</altitude><range>800</range><tilt>0</tilt><heading>0</heading></LookAt></Placemark><Placemark id="72C734127404A210"><name>M: Riviera Beach Marina</name><Point><coordinates>-80.0510589,26.7735863,0</coordinates></Point><LookAt><longitude>-80.0510589</longitude><latitude>26.7735863</latitude><altitude>0</altitude><range>800</range><tilt>0</tilt><heading>0</heading></LookAt></Placemark><Placemark id="82F5FBA069BA7AC3"><name>M: Rybovich Super Yacht Marina</name><Point><coordinates>-80.0513601,26.7489209,0</coordinates></Point><LookAt><longitude>-80.0513601</longitude><latitude>26.7489209</latitude><altitude>0</altitude><range>800</range><tilt>0</tilt><heading>0</heading></LookAt></Placemark><Placemark id="B884C7E6E14CD7FE"><name>M: Safe Harbor North Palm Beach</name><Point><coordinates>-80.0589148,26.8286031,0</coordinates></Point><LookAt><longitude>-80.0589148</longitude><latitude>26.8286031</latitude><altitude>0</altitude><range>800</range><tilt>0</tilt><heading>0</heading></LookAt></Placemark><Placemark id="5AAA70A7BA43FBCD"><name>M: Safe Harbor Old Port Cove</name><Point><coordinates>-80.0548107,26.8311997,0</coordinates></Point><LookAt><longitude>-80.0548107</longitude><latitude>26.8311997</latitude><altitude>0</altitude><range>800</range><tilt>0</tilt><heading>0</heading></LookAt></Placemark><Placemark id="AA0DFF9CCC1DA434"><name>M: Sailfish Marina Resort</name><Point><coordinates>-80.0402735,26.7772466,0</coordinates></Point><LookAt><longitude>-80.0402735</longitude><latitude>26.7772466</latitude><altitude>0</altitude><range>800</range><tilt>0</tilt><heading>0</heading></LookAt></Placemark><Placemark id="93414AA7AD35C358"><name>M: Sands Harbor Resort &amp; Marina</name><Point><coordinates>-80.0931312,26.2329333,0</coordinates></Point><LookAt><longitude>-80.0931312</longitude><latitude>26.2329333</latitude><altitude>0</altitude><range>800</range><tilt>0</tilt><heading>0</heading></LookAt></Placemark><Placemark id="CA81A3A1C394B69B"><name>M: Sea Isle Marina</name><Point><coordinates>-80.1846704,25.7908827,0</coordinates></Point><LookAt><longitude>-80.1846704</longitude><latitude>25.7908827</latitude><altitude>0</altitude><range>800</range><tilt>0</tilt><heading>0</heading></LookAt></Placemark><Placemark id="CB6A78F099126054"><name>M: Seahaven Marina</name><Point><coordinates>-80.1362759,26.0585252,0</coordinates></Point><LookAt><longitude>-80.1362759</longitude><latitude>26.0585252</latitude><altitude>0</altitude><range>800</range><tilt>0</tilt><heading>0</heading></LookAt></Placemark><Placemark id="397A06ACEB4C91D8"><name>M: Seminole Marine</name><Point><coordinates>-80.0695576,26.8460311,0</coordinates></Point><LookAt><longitude>-80.0695576</longitude><latitude>26.8460311</latitude><altitude>0</altitude><range>800</range><tilt>0</tilt><heading>0</heading></LookAt></Placemark><Placemark id="1DEF4379EDB99965"><name>M: Sunrise Marina</name><Point><coordinates>-80.1096238,26.1389638,0</coordinates></Point><LookAt><longitude>-80.1096238</longitude><latitude>26.1389638</latitude><altitude>0</altitude><range>800</range><tilt>0</tilt><heading>0</heading></LookAt></Placemark><Placemark id="521AC98EE7B2DCDE"><name>M: Sunset Bay Marina &amp; Anchorage</name><Point><coordinates>-80.2596495,27.2009484,0</coordinates></Point><LookAt><longitude>-80.2596495</longitude><latitude>27.2009484</latitude><altitude>0</altitude><range>800</range><tilt>0</tilt><heading>0</heading></LookAt></Placemark><Placemark id="F353768E3DB62154"><name>M: Sunset Harbour Yacht Club</name><Point><coordinates>-80.1457665,25.7950566,0</coordinates></Point><LookAt><longitude>-80.1457665</longitude><latitude>25.7950566</latitude><altitude>0</altitude><range>800</range><tilt>0</tilt><heading>0</heading></LookAt></Placemark><Placemark id="4C6E73174F11DDDD"><name>M: Suntex Marina at Hollywood</name><Point><coordinates>-80.1214968,26.0013619,0</coordinates></Point><LookAt><longitude>-80.1214968</longitude><latitude>26.0013619</latitude><altitude>0</altitude><range>800</range><tilt>0</tilt><heading>0</heading></LookAt></Placemark><Placemark id="CE46B89895A43640"><name>M: Watson Island Marina</name><Point><coordinates>-80.1723293,25.7837217,0</coordinates></Point><LookAt><longitude>-80.1723293</longitude><latitude>25.7837217</latitude><altitude>0</altitude><range>800</range><tilt>0</tilt><heading>0</heading></LookAt></Placemark><Placemark id="7312E4C08B791F6A"><name>MO: Anchorage A</name><Point><coordinates>-80.0225080,26.8125008,0</coordinates></Point><LookAt><longitude>-80.0225080</longitude><latitude>26.8125008</latitude><altitude>0</altitude><range>800</range><tilt>0</tilt><heading>0</heading></LookAt></Placemark><Placemark id="FCA83D93572EA94F"><name>MO: Anchorage A</name><Point><coordinates>-80.0922666,25.7873560,0</coordinates></Point><LookAt><longitude>-80.0922666</longitude><latitude>25.7873560</latitude><altitude>0</altitude><range>800</range><tilt>0</tilt><heading>0</heading></LookAt></Placemark><Placemark id="76D85BB0AC187523"><name>MO: Anchorage B</name><Point><coordinates>-80.0241457,26.7408406,0</coordinates></Point><LookAt><longitude>-80.0241457</longitude><latitude>26.7408406</latitude><altitude>0</altitude><range>800</range><tilt>0</tilt><heading>0</heading></LookAt></Placemark><Placemark id="786F08BE44FE98FC"><name>MO: Anchorage B</name><Point><coordinates>-80.0771845,25.7908453,0</coordinates></Point><LookAt><longitude>-80.0771845</longitude><latitude>25.7908453</latitude><altitude>0</altitude><range>800</range><tilt>0</tilt><heading>0</heading></LookAt></Placemark><Placemark id="F1BC20BA87F98207"><name>MO: MO 10294140566</name><Point><coordinates>-80.0912639,25.5914192,0</coordinates></Point><LookAt><longitude>-80.0912639</longitude><latitude>25.5914192</latitude><altitude>0</altitude><range>800</range><tilt>0</tilt><heading>0</heading></LookAt></Placemark><Placemark id="FF57EFD834B207CC"><name>MO: MO 11842915451</name><Point><coordinates>-80.1430084,27.1157122,0</coordinates></Point><LookAt><longitude>-80.1430084</longitude><latitude>27.1157122</latitude><altitude>0</altitude><range>800</range><tilt>0</tilt><heading>0</heading></LookAt></Placemark><Placemark id="A55039E605336F9E"><name>MO: MO 13706421767</name><Point><coordinates>-80.1469665,25.7711580,0</coordinates></Point><LookAt><longitude>-80.1469665</longitude><latitude>25.7711580</latitude><altitude>0</altitude><range>800</range><tilt>0</tilt><heading>0</heading></LookAt></Placemark><Placemark id="3DFE0C030B5B41E5"><name>MO: MO 271366817</name><Point><coordinates>-80.1956001,27.1482927,0</coordinates></Point><LookAt><longitude>-80.1956001</longitude><latitude>27.1482927</latitude><altitude>0</altitude><range>800</range><tilt>0</tilt><heading>0</heading></LookAt></Placemark><Placemark id="92B233D745043DAA"><name>MO: MO 271366825</name><Point><coordinates>-80.1966154,27.1520918,0</coordinates></Point><LookAt><longitude>-80.1966154</longitude><latitude>27.1520918</latitude><altitude>0</altitude><range>800</range><tilt>0</tilt><heading>0</heading></LookAt></Placemark><Placemark id="277097F5E8788A78"><name>MO: MO 3433831912</name><Point><coordinates>-80.1775522,25.7471454,0</coordinates></Point><LookAt><longitude>-80.1775522</longitude><latitude>25.7471454</latitude><altitude>0</altitude><range>800</range><tilt>0</tilt><heading>0</heading></LookAt></Placemark><Placemark id="20CF1CE28FBF1A50"><name>MO: MO 3433831924</name><Point><coordinates>-80.1763713,25.7481491,0</coordinates></Point><LookAt><longitude>-80.1763713</longitude><latitude>25.7481491</latitude><altitude>0</altitude><range>800</range><tilt>0</tilt><heading>0</heading></LookAt></Placemark><Placemark id="3222B67A00EB5FD8"><name>MO: MO 480049853</name><Point><coordinates>-80.1212977,26.0036147,0</coordinates></Point><LookAt><longitude>-80.1212977</longitude><latitude>26.0036147</latitude><altitude>0</altitude><range>800</range><tilt>0</tilt><heading>0</heading></LookAt></Placemark><Placemark id="02C03AE66094A36A"><name>MO: MO 480234099</name><Point><coordinates>-80.1203904,26.0146913,0</coordinates></Point><LookAt><longitude>-80.1203904</longitude><latitude>26.0146913</latitude><altitude>0</altitude><range>800</range><tilt>0</tilt><heading>0</heading></LookAt></Placemark><Placemark id="38DA6AAE63759C09"><name>MO: MO 487531051</name><Point><coordinates>-80.1294175,26.0307813,0</coordinates></Point><LookAt><longitude>-80.1294175</longitude><latitude>26.0307813</latitude><altitude>0</altitude><range>800</range><tilt>0</tilt><heading>0</heading></LookAt></Placemark><Placemark id="7C3FF7F131C98E3E"><name>MO: MO 547227585</name><Point><coordinates>-80.2903242,25.6301532,0</coordinates></Point><LookAt><longitude>-80.2903242</longitude><latitude>25.6301532</latitude><altitude>0</altitude><range>800</range><tilt>0</tilt><heading>0</heading></LookAt></Placemark><Placemark id="2026D630BC391AE4"><name>MO: MO 584271969</name><Point><coordinates>-80.1792587,25.7846841,0</coordinates></Point><LookAt><longitude>-80.1792587</longitude><latitude>25.7846841</latitude><altitude>0</altitude><range>800</range><tilt>0</tilt><heading>0</heading></LookAt></Placemark><Placemark id="489FBDBE164859FC"><name>MO: MO 584271970</name><Point><coordinates>-80.1795510,25.7860478,0</coordinates></Point><LookAt><longitude>-80.1795510</longitude><latitude>25.7860478</latitude><altitude>0</altitude><range>800</range><tilt>0</tilt><heading>0</heading></LookAt></Placemark><Placemark id="240B260763FBC5BB"><name>MO: MO 876011211</name><Point><coordinates>-80.0689344,26.3889176,0</coordinates></Point><LookAt><longitude>-80.0689344</longitude><latitude>26.3889176</latitude><altitude>0</altitude><range>800</range><tilt>0</tilt><heading>0</heading></LookAt></Placemark><Placemark id="929A89393F1E9120"><name>MO: MO 891176231</name><Point><coordinates>-80.0772988,26.3416697,0</coordinates></Point><LookAt><longitude>-80.0772988</longitude><latitude>26.3416697</latitude><altitude>0</altitude><range>800</range><tilt>0</tilt><heading>0</heading></LookAt></Placemark><Placemark id="C5FA1D85502D289E"><name>MO: MO 913321587</name><Point><coordinates>-80.2884480,25.6301846,0</coordinates></Point><LookAt><longitude>-80.2884480</longitude><latitude>25.6301846</latitude><altitude>0</altitude><range>800</range><tilt>0</tilt><heading>0</heading></LookAt></Placemark><Placemark id="06670B927227067D"><name>MO: Okeechobee Waterway</name><Point><coordinates>-80.2612465,27.1983744,0</coordinates></Point><LookAt><longitude>-80.2612465</longitude><latitude>27.1983744</latitude><altitude>0</altitude><range>800</range><tilt>0</tilt><heading>0</heading></LookAt></Placemark><Placemark id="708A9901B1D89DC8"><name>MO: Port Everglades</name><Point><coordinates>-80.0631143,26.1268784,0</coordinates></Point><LookAt><longitude>-80.0631143</longitude><latitude>26.1268784</latitude><altitude>0</altitude><range>800</range><tilt>0</tilt><heading>0</heading></LookAt></Placemark></Document></kml>