<?xml version='1.0' encoding='utf-8'?>
<kml xmlns="http://www.opengis.net/kml/2.2"><Document><name>Candidates FL_keys p0</name><Placemark id="5C6CED8078EB21B7"><name>M: 15th Street Marina Marathon (at Boot Key Harbor)</name><Point><coordinates>-81.1082023,24.7062565,0</coordinates></Point><LookAt><longitude>-81.1082023</longitude><latitude>24.7062565</latitude><altitude>0</altitude><range>800</range><tilt>0</tilt><heading>0</heading></LookAt></Placemark><Placemark id="C486D4E6AED103D8"><name>M: A &amp; B Marina</name><Point><coordinates>-81.8029104,24.5618016,0</coordinates></Point><LookAt><longitude>-81.8029104</longitude><latitude>24.5618016</latitude><altitude>0</altitude><range>800</range><tilt>0</tilt><heading>0</heading></LookAt></Placemark><Placemark id="79E45C9BAEE3082E"><name>M: Bahia Honda Marina</name><Point><coordinates>-81.2783212,24.6570071,0</coordinates></Point><LookAt><longitude>-81.2783212</longitude><latitude>24.6570071</latitude><altitude>0</altitude><range>800</range><tilt>0</tilt><heading>0</heading></LookAt></Placemark><Placemark id="49D173859385DA6B"><name>M: Banana Bay Resort &amp; Marina</name><Point><coordinates>-81.0845031,24.7169478,0</coordinates></Point><LookAt><longitude>-81.0845031</longitude><latitude>24.7169478</latitude><altitude>0</altitude><range>800</range><tilt>0</tilt><heading>0</heading></LookAt></Placemark><Placemark id="41E383D1BE0BFFF9"><name>M: Bayside Marina</name><Point><coordinates>-80.6401628,24.9155738,0</coordinates></Point><LookAt><longitude>-80.6401628</longitude><latitude>24.9155738</latitude><altitude>0</altitude><range>800</range><tilt>0</tilt><heading>0</heading></LookAt></Placemark><Placemark id="E1F5D15F2ADBC4CB"><name>M: Black Point Marina</name><Point><coordinates>-80.3295087,25.5402288,0</coordinates></Point><LookAt><longitude>-80.3295087</longitude><latitude>25.5402288</latitude><altitude>0</altitude><range>800</range><tilt>0</tilt><heading>0</heading></LookAt></Placemark><Placemark id="F5985EF5D92C045C"><name>M: Blackfin Resort and Marina</name><Point><coordinates>-81.0829727,24.7169137,0</coordinates></Point><LookAt><longitude>-81.0829727</longitude><latitude>24.7169137</latitude><altitude>0</altitude><range>800</range><tilt>0</tilt><heading>0</heading></LookAt></Placemark><Placemark id="0662A1344BEB3F6E"><name>M: Boot Key Harbor Marathon City Marina</name><Point><coordinates>-81.0914190,24.7097864,0</coordinates></Point><LookAt><longitude>-81.0914190</longitude><latitude>24.7097864</latitude><altitude>0</altitude><range>800</range><tilt>0</tilt><heading>0</heading></LookAt></Placemark><Placemark id="E324CF7B8177C694"><name>M: Bud n'Mary's Marina</name><Point><coordinates>-80.6576988,24.8976360,0</coordinates></Point><LookAt><longitude>-80.6576988</longitude><latitude>24.8976360</latitude><altitude>0</altitude><range>800</range><tilt>0</tilt><heading>0</heading></LookAt></Placemark><Placemark id="E9ECD0EC9365D4AF"><name>M: Caloosa Cove Resort &amp; Marina</name><Point><coordinates>-80.7377951,24.8491927,0</coordinates></Point><LookAt><longitude>-80.7377951</longitude><latitude>24.8491927</latitude><altitude>0</altitude><range>800</range><tilt>0</tilt><heading>0</heading></LookAt></Placemark><Placemark id="A89FFD6B2A49A89E"><name>M: Captain Hook's Marina &amp; Dive Center</name><Point><coordinates>-81.0304125,24.7299949,0</coordinates></Point><LookAt><longitude>-81.0304125</longitude><latitude>24.7299949</latitude><altitude>0</altitude><range>800</range><tilt>0</tilt><heading>0</heading></LookAt></Placemark><Placemark id="7DD38D8B652BC188"><name>M: Caribee Boat Sales &amp; Marina</name><Point><coordinates>-80.6366620,24.9183449,0</coordinates></Point><LookAt><longitude>-80.6366620</longitude><latitude>24.9183449</latitude><altitude>0</altitude><range>800</range><tilt>0</tilt><heading>0</heading></LookAt></Placemark><Placemark id="7EBEFE75B0BB2200"><name>M: Coast Guard Basin</name><Point><coordinates>-81.1063322,24.7102583,0</coordinates></Point><LookAt><longitude>-81.1063322</longitude><latitude>24.7102583</latitude><altitude>0</altitude><range>800</range><tilt>0</tilt><heading>0</heading></LookAt></Placemark><Placemark id="0E052952EBA7C923"><name>M: Conch Harbor Marina</name><Point><coordinates>-81.8001401,24.5628708,0</coordinates></Point><LookAt><longitude>-81.8001401</longitude><latitude>24.5628708</latitude><altitude>0</altitude><range>800</range><tilt>0</tilt><heading>0</heading></LookAt></Placemark><Placemark id="EABB7FF060303AB8"><name>M: Coral Bay Marina</name><Point><coordinates>-80.6356235,24.9198675,0</coordinates></Point><LookAt><longitude>-80.6356235</longitude><latitude>24.9198675</latitude><altitude>0</altitude><range>800</range><tilt>0</tilt><heading>0</heading></LookAt></Placemark><Placemark id="4FD436A90310C9F9"><name>M: Cudjoe Gardens Marina And Dive Center</name><Point><coordinates>-81.5056317,24.6580266,0</coordinates></Point><LookAt><longitude>-81.5056317</longitude><latitude>24.6580266</latitude><altitude>0</altitude><range>800</range><tilt>0</tilt><heading>0</heading></LookAt></Placemark><Placemark id="A6CF2E278E1B19D1"><name>M: Driftwood Marina &amp; Storage</name><Point><coordinates>-81.0121951,24.7343614,0</coordinates></Point><LookAt><longitude>-81.0121951</longitude><latitude>24.7343614</latitude><altitude>0</altitude><range>800</range><tilt>0</tilt><heading>0</heading></LookAt></Placemark><Placemark id="CDFA054986D4E41C"><name>M: Duck Key Marina</name><Point><coordinates>-80.9158341,24.7747609,0</coordinates></Point><LookAt><longitude>-80.9158341</longitude><latitude>24.7747609</latitude><altitude>0</altitude><range>800</range><tilt>0</tilt><heading>0</heading></LookAt></Placemark><Placemark id="F10DC8F2DE266DB5"><name>M: Faro Blanco Resort &amp; Yacht Club</name><Point><coordinates>-81.1049165,24.7107710,0</coordinates></Point><LookAt><longitude>-81.1049165</longitude><latitude>24.7107710</latitude><altitude>0</altitude><range>800</range><tilt>0</tilt><heading>0</heading></LookAt></Placemark><Placemark id="764EA773053742B4"><name>M: Flamingo Marina</name><Point><coordinates>-80.9227960,25.1435513,0</coordinates></Point><LookAt><longitude>-80.9227960</longitude><latitude>25.1435513</latitude><altitude>0</altitude><range>800</range><tilt>0</tilt><heading>0</heading></LookAt></Placemark><Placemark id="FBCD0C457253604B"><name>M: Florida Bay Marina</name><Point><coordinates>-80.9227962,25.1418941,0</coordinates></Point><LookAt><longitude>-80.9227962</longitude><latitude>25.1418941</latitude><altitude>0</altitude><range>800</range><tilt>0</tilt><heading>0</heading></LookAt></Placemark><Placemark id="303D491C46814717"><name>M: Grassy Key Marina</name><Point><coordinates>-80.9443875,24.7684309,0</coordinates></Point><LookAt><longitude>-80.9443875</longitude><latitude>24.7684309</latitude><altitude>0</altitude><range>800</range><tilt>0</tilt><heading>0</heading></LookAt></Placemark><Placemark id="599F16D3F0BBA6A8"><name>M: Hawks Cay Resort Marina</name><Point><coordinates>-80.9131337,24.7779182,0</coordinates></Point><LookAt><longitude>-80.9131337</longitude><latitude>24.7779182</latitude><altitude>0</altitude><range>800</range><tilt>0</tilt><heading>0</heading></LookAt></Placemark><Placemark id="8772DE3166B565A0"><name>M: Hurricane Hole Marina</name><Point><coordinates>-81.7473010,24.5709967,0</coordinates></Point><LookAt><longitude>-81.7473010</longitude><latitude>24.5709967</latitude><altitude>0</altitude><range>800</range><tilt>0</tilt><heading>0</heading></LookAt></Placemark><Placemark id="38F175AFA67DD9C0"><name>M: IslaMarina</name><Point><coordinates>-80.5855417,24.9535923,0</coordinates></Point><LookAt><longitude>-80.5855417</longitude><latitude>24.9535923</latitude><altitude>0</altitude><range>800</range><tilt>0</tilt><heading>0</heading></LookAt></Placemark><Placemark id="410708A2F9125C8C"><name>M: Key Largo Anglers Club</name><Point><coordinates>-80.2979385,25.3109527,0</coordinates></Point><LookAt><longitude>-80.2979385</longitude><latitude>25.3109527</latitude><altitude>0</altitude><range>800</range><tilt>0</tilt><heading>0</heading></LookAt></Placemark><Placemark id="D9D02B044D263FDF"><name>M: Loggerhead Marina South Miami</name><Point><coordinates>-80.3278747,25.5376430,0</coordinates></Point><LookAt><longitude>-80.3278747</longitude><latitude>25.5376430</latitude><altitude>0</altitude><range>800</range><tilt>0</tilt><heading>0</heading></LookAt></Placemark><Placemark id="A523CEBD1C39F397"><name>M: M 330810740</name><Point><coordinates>-80.2720515,25.3315069,0</coordinates></Point><LookAt><longitude>-80.2720515</longitude><latitude>25.3315069</latitude><altitude>0</altitude><range>800</range><tilt>0</tilt><heading>0</heading></LookAt></Placemark><Placemark id="C9ECCED8F2680E9D"><name>M: M 362793643</name><Point><coordinates>-80.2832139,25.3112882,0</coordinates></Point><LookAt><longitude>-80.2832139</longitude><latitude>25.3112882</latitude><altitude>0</altitude><range>800</range><tilt>0</tilt><heading>0</heading></LookAt></Placemark><Placemark id="DC3CD2A05157C221"><name>M: M 958732139</name><Point><coordinates>-81.4623467,24.6619844,0</coordinates></Point><LookAt><longitude>-81.4623467</longitude><latitude>24.6619844</latitude><altitude>0</altitude><range>800</range><tilt>0</tilt><heading>0</heading></LookAt></Placemark><Placemark id="1A33BA7FCFAC967C"><name>M: M 982164889</name><Point><coordinates>-80.6211211,24.9336506,0</coordinates></Point><LookAt><longitude>-80.6211211</longitude><latitude>24.9336506</latitude><altitude>0</altitude><range>800</range><tilt>0</tilt><heading>0</heading></LookAt></Placemark><Placemark id="93D0FF5E90B45F98"><name>M: Mangrove Marina</name><Point><coordinates>-80.5198429,25.0108477,0</coordinates></Point><LookAt><longitude>-80.5198429</longitude><latitude>25.0108477</latitude><altitude>0</altitude><range>800</range><tilt>0</tilt><heading>0</heading></LookAt></Placemark><Placemark id="08EA06B8F5CF0C15"><name>M: Marathon Marina &amp; Boat Yard</name><Point><coordinates>-81.1121887,24.7046204,0</coordinates></Point><LookAt><longitude>-81.1121887</longitude><latitude>24.7046204</latitude><altitude>0</altitude><range>800</range><tilt>0</tilt><heading>0</heading></LookAt></Placemark><Placemark id="78EADF50ED2BA93D"><name>M: Marina Club Key Largo at Blackwater Sound</name><Point><coordinates>-80.3986962,25.1429684,0</coordinates></Point><LookAt><longitude>-80.3986962</longitude><latitude>25.1429684</latitude><altitude>0</altitude><range>800</range><tilt>0</tilt><heading>0</heading></LookAt></Placemark><Placemark id="C239C821C2E220E6"><name>M: Mariner's Club Key Largo Marina</name><Point><coordinates>-80.4618800,25.0725016,0</coordinates></Point><LookAt><longitude>-80.4618800</longitude><latitude>25.0725016</latitude><altitude>0</altitude><range>800</range><tilt>0</tilt><heading>0</heading></LookAt></Placemark><Placemark id="492DEAEFA9DA6F00"><name>M: Marlin Bay Resort &amp; Marina</name><Point><coordinates>-81.0908627,24.7159004,0</coordinates></Point><LookAt><longitude>-81.0908627</longitude><latitude>24.7159004</latitude><altitude>0</altitude><range>800</range><tilt>0</tilt><heading>0</heading></LookAt></Placemark><Placemark id="DD34987E8D95F378"><name>M: Murray Marine</name><Point><coordinates>-81.7355179,24.5743233,0</coordinates></Point><LookAt><longitude>-81.7355179</longitude><latitude>24.5743233</latitude><altitude>0</altitude><range>800</range><tilt>0</tilt><heading>0</heading></LookAt></Placemark><Placemark id="A87A024446EB5AAF"><name>M: Oasis Marina</name><Point><coordinates>-81.7375146,24.5643553,0</coordinates></Point><LookAt><longitude>-81.7375146</longitude><latitude>24.5643553</latitude><altitude>0</altitude><range>800</range><tilt>0</tilt><heading>0</heading></LookAt></Placemark><Placemark id="0D550CF1C6F50E77"><name>M: Ocean Reef Club Marina</name><Point><coordinates>-80.2798302,25.3128851,0</coordinates></Point><LookAt><longitude>-80.2798302</longitude><latitude>25.3128851</latitude><altitude>0</altitude><range>800</range><tilt>0</tilt><heading>0</heading></LookAt></Placemark><Placemark id="603BF0FB4AB8A0D8"><name>M: Oceans Edge Resort &amp; Marina Key West</name><Point><coordinates>-81.7298505,24.5631903,0</coordinates></Point><LookAt><longitude>-81.7298505</longitude><latitude>24.5631903</latitude><altitude>0</altitude><range>800</range><tilt>0</tilt><heading>0</heading></LookAt></Placemark><Placemark id="445880EECA3477D9"><name>M: Old Wooden Bridge Guest Cottages &amp; Marina LLC</name><Point><coordinates>-81.3482461,24.6971725,0</coordinates></Point><LookAt><longitude>-81.3482461</longitude><latitude>24.6971725</latitude><altitude>0</altitude><range>800</range><tilt>0</tilt><heading>0</heading></LookAt></Placemark><Placemark id="40BC7BAE5029A9A6"><name>M: Pilot House Marina</name><Point><coordinates>-80.4406857,25.0876661,0</coordinates></Point><LookAt><longitude>-80.4406857</longitude><latitude>25.0876661</latitude><altitude>0</altitude><range>800</range><tilt>0</tilt><heading>0</heading></LookAt></Placemark><Placemark id="B3766F623784E4D2"><name>M: Plantation Yacht Harbor Marina</name><Point><coordinates>-80.5687332,24.9648616,0</coordinates></Point><LookAt><longitude>-80.5687332</longitude><latitude>24.9648616</latitude><altitude>0</altitude><range>800</range><tilt>0</tilt><heading>0</heading></LookAt></Placemark><Placemark id="21D1EB0F07FCE41A"><name>M: Robbie's</name><Point><coordinates>-80.6907395,24.8827405,0</coordinates></Point><LookAt><longitude>-80.6907395</longitude><latitude>24.8827405</latitude><altitude>0</altitude><range>800</range><tilt>0</tilt><heading>0</heading></LookAt></Placemark><Placemark id="530057AC25E0E274"><name>M: Scouts BSA Florida Sea Base</name><Point><coordinates>-80.7377656,24.8513324,0</coordinates></Point><LookAt><longitude>-80.7377656</longitude><latitude>24.8513324</latitude><altitude>0</altitude><range>800</range><tilt>0</tilt><heading>0</heading></LookAt></Placemark><Placemark id="56938C9836B6D2AB"><name>M: Sea Bird Marina</name><Point><coordinates>-80.7988319,24.8378436,0</coordinates></Point><LookAt><longitude>-80.7988319</longitude><latitude>24.8378436</latitude><altitude>0</altitude><range>800</range><tilt>0</tilt><heading>0</heading></LookAt></Placemark><Placemark id="F8F46234D7A555CB"><name>M: Sea Dog Charters Marina</name><Point><coordinates>-81.1117446,24.7091585,0</coordinates></Point><LookAt><longitude>-81.1117446</longitude><latitude>24.7091585</latitude><altitude>0</altitude><range>800</range><tilt>0</tilt><heading>0</heading></LookAt></Placemark><Placemark id="DF35E09A3FAE4B52"><name>M: Snake Creek Marina</name><Point><coordinates>-80.5912068,24.9504129,0</coordinates></Point><LookAt><longitude>-80.5912068</longitude><latitude>24.9504129</latitude><altitude>0</altitude><range>800</range><tilt>0</tilt><heading>0</heading></LookAt></Placemark><Placemark id="DBD514565D5AC428"><name>M: Spirit Snorkeling</name><Point><coordinates>-81.1103322,24.7085536,0</coordinates></Point><LookAt><longitude>-81.1103322</longitude><latitude>24.7085536</latitude><altitude>0</altitude><range>800</range><tilt>0</tilt><heading>0</heading></LookAt></Placemark><Placemark id="D8E183C72E972872"><name>M: Stock Island Yacht Club &amp; Marina</name><Point><coordinates>-81.7256669,24.5627573,0</coordinates></Point><LookAt><longitude>-81.7256669</longitude><latitude>24.5627573</latitude><altitude>0</altitude><range>800</range><tilt>0</tilt><heading>0</heading></LookAt></Placemark><Placemark id="EF9387C796B5FBB9"><name>M: Stock Island Yacht Club &amp; Marina - Key West Harbour</name><Point><coordinates>-81.7270610,24.5639781,0</coordinates></Point><LookAt><longitude>-81.7270610</longitude><latitude>24.5639781</latitude><altitude>0</altitude><range>800</range><tilt>0</tilt><heading>0</heading></LookAt></Placemark><Placemark id="0484BED86332626C"><name>M: Sunset Marina</name><Point><coordinates>-81.7504577,24.5788844,0</coordinates></Point><LookAt><longitude>-81.7504577</longitude><latitude>24.5788844</latitude><altitude>0</altitude><range>800</range><tilt>0</tilt><heading>0</heading></LookAt></Placemark><Placemark id="34402BFFEE3DAD42"><name>M: Sunshine Key Marina</name><Point><coordinates>-81.2484539,24.6726077,0</coordinates></Point><LookAt><longitude>-81.2484539</longitude><latitude>24.6726077</latitude><altitude>0</altitude><range>800</range><tilt>0</tilt><heading>0</heading></LookAt></Placemark><Placemark id="9D9A961367FA3F44"><name>M: Tavernier Creek Marina</name><Point><coordinates>-80.5306218,25.0034770,0</coordinates></Point><LookAt><longitude>-80.5306218</longitude><latitude>25.0034770</latitude><altitude>0</altitude><range>800</range><tilt>0</tilt><heading>0</heading></LookAt></Placemark><Placemark id="F8EA93DC086C6255"><name>M: Whale Harbor Marina</name><Point><coordinates>-80.6121534,24.9364501,0</coordinates></Point><LookAt><longitude>-80.6121534</longitude><latitude>24.9364501</latitude><altitude>0</altitude><range>800</range><tilt>0</tilt><heading>0</heading></LookAt></Placemark><Placemark id="4E6B376793D08BEE"><name>MO: Key West Harbor</name><Point><coordinates>-81.8421111,24.5140556,0</coordinates></Point><LookAt><longitude>-81.8421111</longitude><latitude>24.5140556</latitude><altitude>0</altitude><range>800</range><tilt>0</tilt><heading>0</heading></LookAt></Placemark><Placemark id="F1BC20BA87F98207"><name>MO: MO 10294140566</name><Point><coordinates>-80.0912639,25.5914192,0</coordinates></Point><LookAt><longitude>-80.0912639</longitude><latitude>25.5914192</latitude><altitude>0</altitude><range>800</range><tilt>0</tilt><heading>0</heading></LookAt></Placemark><Placemark id="5369823B7680C8C9"><name>MO: MO 10776460827</name><Point><coordinates>-81.8091888,24.5569113,0</coordinates></Point><LookAt><longitude>-81.8091888</longitude><latitude>24.5569113</latitude><altitude>0</altitude><range>800</range><tilt>0</tilt><heading>0</heading></LookAt></Placemark><Placemark id="C507080D5CF866EB"><name>MO: MO 10776460838</name><Point><coordinates>-81.8086623,24.5582297,0</coordinates></Point><LookAt><longitude>-81.8086623</longitude><latitude>24.5582297</latitude><altitude>0</altitude><range>800</range><tilt>0</tilt><heading>0</heading></LookAt></Placemark><Placemark id="52397B78472C3D14"><name>MO: MO 10776460844</name><Point><coordinates>-81.8080614,24.5598252,0</coordinates></Point><LookAt><longitude>-81.8080614</longitude><latitude>24.5598252</latitude><altitude>0</altitude><range>800</range><tilt>0</tilt><heading>0</heading></LookAt></Placemark><Placemark id="C86F9F7E1FDADC8D"><name>MO: MO 10776605048</name><Point><coordinates>-81.8006887,24.5658764,0</coordinates></Point><LookAt><longitude>-81.8006887</longitude><latitude>24.5658764</latitude><altitude>0</altitude><range>800</range><tilt>0</tilt><heading>0</heading></LookAt></Placemark><Placemark id="E43043F6DAB6B873"><name>MO: MO 414840975</name><Point><coordinates>-80.8502857,25.2145200,0</coordinates></Point><LookAt><longitude>-80.8502857</longitude><latitude>25.2145200</latitude><altitude>0</altitude><range>800</range><tilt>0</tilt><heading>0</heading></LookAt></Placemark></Document></kml>