<?xml version='1.0' encoding='utf-8'?>
<kml xmlns="http://www.opengis.net/kml/2.2"><Document><name>Candidates bbox</name><Placemark id="4029DAA2408839DC"><name>M: Bourne Marina</name><Point><coordinates>-70.6186476,41.7449512,0</coordinates></Point><LookAt><longitude>-70.6186476</longitude><latitude>41.7449512</latitude><altitude>0</altitude><range>800</range><tilt>0</tilt><heading>0</heading></LookAt></Placemark><Placemark id="F00E9E9DCD33B972"><name>M: Cape Cod Canal Access</name><Point><coordinates>-70.6151644,41.7440486,0</coordinates></Point><LookAt><longitude>-70.6151644</longitude><latitude>41.7440486</latitude><altitude>0</altitude><range>800</range><tilt>0</tilt><heading>0</heading></LookAt></Placemark><Placemark id="B2B2C49FE5F81A6A"><name>M: Chatham Yacht Basin</name><Point><coordinates>-69.9826519,41.6765993,0</coordinates></Point><LookAt><longitude>-69.9826519</longitude><latitude>41.6765993</latitude><altitude>0</altitude><range>800</range><tilt>0</tilt><heading>0</heading></LookAt></Placemark><Placemark id="37B6814E3122EAEB"><name>M: Fiddler's Cove Marina</name><Point><coordinates>-70.6353629,41.6469314,0</coordinates></Point><LookAt><longitude>-70.6353629</longitude><latitude>41.6469314</latitude><altitude>0</altitude><range>800</range><tilt>0</tilt><heading>0</heading></LookAt></Placemark><Placemark id="62EC46547DACE987"><name>M: Hyannis Marina</name><Point><coordinates>-70.2743075,41.6500291,0</coordinates></Point><LookAt><longitude>-70.2743075</longitude><latitude>41.6500291</latitude><altitude>0</altitude><range>800</range><tilt>0</tilt><heading>0</heading></LookAt></Placemark><Placemark id="B234CD1BA1650857"><name>M: Hyannis Port Yacht Club</name><Point><coordinates>-70.2993577,41.6315016,0</coordinates></Point><LookAt><longitude>-70.2993577</longitude><latitude>41.6315016</latitude><altitude>0</altitude><range>800</range><tilt>0</tilt><heading>0</heading></LookAt></Placemark><Placemark id="F40E55E3EC342ADD"><name>M: Hyannis Yacht Club Mooring Field</name><Point><coordinates>-70.2736274,41.6394201,0</coordinates></Point><LookAt><longitude>-70.2736274</longitude><latitude>41.6394201</latitude><altitude>0</altitude><range>800</range><tilt>0</tilt><heading>0</heading></LookAt></Placemark><Placemark id="E81C4B0A780A457E"><name>M: Kingman Marine</name><Point><coordinates>-70.6153737,41.6774154,0</coordinates></Point><LookAt><longitude>-70.6153737</longitude><latitude>41.6774154</latitude><altitude>0</altitude><range>800</range><tilt>0</tilt><heading>0</heading></LookAt></Placemark><Placemark id="7BA88F43ACE9EAEE"><name>M: M 11207169</name><Point><coordinates>-70.6494050,42.0851034,0</coordinates></Point><LookAt><longitude>-70.6494050</longitude><latitude>42.0851034</latitude><altitude>0</altitude><range>800</range><tilt>0</tilt><heading>0</heading></LookAt></Placemark><Placemark id="E1557E1BB506706E"><name>M: M 1187628990</name><Point><coordinates>-69.9851206,41.6782524,0</coordinates></Point><LookAt><longitude>-69.9851206</longitude><latitude>41.6782524</latitude><altitude>0</altitude><range>800</range><tilt>0</tilt><heading>0</heading></LookAt></Placemark><Placemark id="9C8E78AB84C80030"><name>M: M 502993016</name><Point><coordinates>-70.2221632,41.6482504,0</coordinates></Point><LookAt><longitude>-70.2221632</longitude><latitude>41.6482504</latitude><altitude>0</altitude><range>800</range><tilt>0</tilt><heading>0</heading></LookAt></Placemark><Placemark id="1B909F0D691FE4FA"><name>M: M 684221998</name><Point><coordinates>-70.6596038,41.9567908,0</coordinates></Point><LookAt><longitude>-70.6596038</longitude><latitude>41.9567908</latitude><altitude>0</altitude><range>800</range><tilt>0</tilt><heading>0</heading></LookAt></Placemark><Placemark id="C01F135AE4ACA87E"><name>M: Mashpee Neck Marina</name><Point><coordinates>-70.4652240,41.6026053,0</coordinates></Point><LookAt><longitude>-70.4652240</longitude><latitude>41.6026053</latitude><altitude>0</altitude><range>800</range><tilt>0</tilt><heading>0</heading></LookAt></Placemark><Placemark id="F1F6DE36A34DB3F9"><name>M: Megansett Yacht Club</name><Point><coordinates>-70.6230891,41.6560864,0</coordinates></Point><LookAt><longitude>-70.6230891</longitude><latitude>41.6560864</latitude><altitude>0</altitude><range>800</range><tilt>0</tilt><heading>0</heading></LookAt></Placemark><Placemark id="6584EEE4315E160A"><name>M: New Seabury Marina</name><Point><coordinates>-70.4642480,41.5865647,0</coordinates></Point><LookAt><longitude>-70.4642480</longitude><latitude>41.5865647</latitude><altitude>0</altitude><range>800</range><tilt>0</tilt><heading>0</heading></LookAt></Placemark><Placemark id="572B4E672D51D356"><name>M: Outermost Harbor Marine</name><Point><coordinates>-69.9557087,41.6650491,0</coordinates></Point><LookAt><longitude>-69.9557087</longitude><latitude>41.6650491</latitude><altitude>0</altitude><range>800</range><tilt>0</tilt><heading>0</heading></LookAt></Placemark><Placemark id="98852C29FB58628E"><name>M: Oyster River Boatyard</name><Point><coordinates>-69.9848956,41.6751649,0</coordinates></Point><LookAt><longitude>-69.9848956</longitude><latitude>41.6751649</latitude><altitude>0</altitude><range>800</range><tilt>0</tilt><heading>0</heading></LookAt></Placemark><Placemark id="1509BC0C15B0875C"><name>M: Parker's Boat Yard</name><Point><coordinates>-70.6139052,41.6743924,0</coordinates></Point><LookAt><longitude>-70.6139052</longitude><latitude>41.6743924</latitude><altitude>0</altitude><range>800</range><tilt>0</tilt><heading>0</heading></LookAt></Placemark><Placemark id="8A71C710234C6412"><name>M: Provincetown Marina</name><Point><coordinates>-70.1833721,42.0484890,0</coordinates></Point><LookAt><longitude>-70.1833721</longitude><latitude>42.0484890</latitude><altitude>0</altitude><range>800</range><tilt>0</tilt><heading>0</heading></LookAt></Placemark><Placemark id="2DF9BC6F48707C7F"><name>M: Quissett Harbor Boatyard</name><Point><coordinates>-70.6532198,41.5441141,0</coordinates></Point><LookAt><longitude>-70.6532198</longitude><latitude>41.5441141</latitude><altitude>0</altitude><range>800</range><tilt>0</tilt><heading>0</heading></LookAt></Placemark><Placemark id="C0E32D9FF50279DF"><name>M: Quissett Yacht Club</name><Point><coordinates>-70.6555151,41.5443802,0</coordinates></Point><LookAt><longitude>-70.6555151</longitude><latitude>41.5443802</latitude><altitude>0</altitude><range>800</range><tilt>0</tilt><heading>0</heading></LookAt></Placemark><Placemark id="D26E25F0F6354210"><name>M: Ryder's Cove Boat Yard</name><Point><coordinates>-69.9774597,41.7042340,0</coordinates></Point><LookAt><longitude>-69.9774597</longitude><latitude>41.7042340</latitude><altitude>0</altitude><range>800</range><tilt>0</tilt><heading>0</heading></LookAt></Placemark><Placemark id="2C9F0CF40DDD6F03"><name>M: Sandwich Marina</name><Point><coordinates>-70.5035910,41.7707415,0</coordinates></Point><LookAt><longitude>-70.5035910</longitude><latitude>41.7707415</latitude><altitude>0</altitude><range>800</range><tilt>0</tilt><heading>0</heading></LookAt></Placemark><Placemark id="3B56FC21DE5CD5FA"><name>M: Saquatucket Municipal Marina</name><Point><coordinates>-70.0590005,41.6684005,0</coordinates></Point><LookAt><longitude>-70.0590005</longitude><latitude>41.6684005</latitude><altitude>0</altitude><range>800</range><tilt>0</tilt><heading>0</heading></LookAt></Placemark><Placemark id="CDDC94EEC1DB4984"><name>M: Stage Harbor Marine</name><Point><coordinates>-69.9623214,41.6691180,0</coordinates></Point><LookAt><longitude>-69.9623214</longitude><latitude>41.6691180</latitude><altitude>0</altitude><range>800</range><tilt>0</tilt><heading>0</heading></LookAt></Placemark><Placemark id="7A1C1E12EF441744"><name>M: Town Landing</name><Point><coordinates>-70.4662680,41.6002338,0</coordinates></Point><LookAt><longitude>-70.4662680</longitude><latitude>41.6002338</latitude><altitude>0</altitude><range>800</range><tilt>0</tilt><heading>0</heading></LookAt></Placemark><Placemark id="9131419575B997AE"><name>M: Woods Hole Marine</name><Point><coordinates>-70.6701341,41.5260769,0</coordinates></Point><LookAt><longitude>-70.6701341</longitude><latitude>41.5260769</latitude><altitude>0</altitude><range>800</range><tilt>0</tilt><heading>0</heading></LookAt></Placemark><Placemark id="5CFE3EDB05BE95FC"><name>M: Woods Hole Yacht Club</name><Point><coordinates>-70.6758909,41.5272293,0</coordinates></Point><LookAt><longitude>-70.6758909</longitude><latitude>41.5272293</latitude><altitude>0</altitude><range>800</range><tilt>0</tilt><heading>0</heading></LookAt></Placemark><Placemark id="7A83EBF53B1B128F"><name>MO: Cape Cod Canal Anchorage C</name><Point><coordinates>-70.6947666,41.6690432,0</coordinates></Point><LookAt><longitude>-70.6947666</longitude><latitude>41.6690432</latitude><altitude>0</altitude><range>800</range><tilt>0</tilt><heading>0</heading></LookAt></Placemark><Placemark id="200C0DCEB6924D71"><name>MO: Cape Cod Canal Anchorage D</name><Point><coordinates>-70.6768031,41.6639449,0</coordinates></Point><LookAt><longitude>-70.6768031</longitude><latitude>41.6639449</latitude><altitude>0</altitude><range>800</range><tilt>0</tilt><heading>0</heading></LookAt></Placemark><Placemark id="287FB30D4F46153E"><name>MO: Cape Cod Canal Anchorage M</name><Point><coordinates>-70.7722022,41.5882994,0</coordinates></Point><LookAt><longitude>-70.7722022</longitude><latitude>41.5882994</latitude><altitude>0</altitude><range>800</range><tilt>0</tilt><heading>0</heading></LookAt></Placemark><Placemark id="0FDDB909C7CD1BC9"><name>MO: MacMillan Wharf</name><Point><coordinates>-70.1833745,42.0503691,0</coordinates></Point><LookAt><longitude>-70.1833745</longitude><latitude>42.0503691</latitude><altitude>0</altitude><range>800</range><tilt>0</tilt><heading>0</heading></LookAt></Placemark><Placemark id="964F958BAB24DF3E"><name>MO: MO 11292043313</name><Point><coordinates>-70.6708024,41.5224819,0</coordinates></Point><LookAt><longitude>-70.6708024</longitude><latitude>41.5224819</latitude><altitude>0</altitude><range>800</range><tilt>0</tilt><heading>0</heading></LookAt></Placemark><Placemark id="20EC110EC9DA866D"><name>MO: MO 289074422</name><Point><coordinates>-70.1815510,42.0498144,0</coordinates></Point><LookAt><longitude>-70.1815510</longitude><latitude>42.0498144</latitude><altitude>0</altitude><range>800</range><tilt>0</tilt><heading>0</heading></LookAt></Placemark><Placemark id="FD51446EA18C39E9"><name>MO: MO 648501224</name><Point><coordinates>-69.9710628,41.7736476,0</coordinates></Point><LookAt><longitude>-69.9710628</longitude><latitude>41.7736476</latitude><altitude>0</altitude><range>800</range><tilt>0</tilt><heading>0</heading></LookAt></Placemark><Placemark id="05A48CA2E53B3A01"><name>MO: MO 648501231</name><Point><coordinates>-69.9767913,41.7713375,0</coordinates></Point><LookAt><longitude>-69.9767913</longitude><latitude>41.7713375</latitude><altitude>0</altitude><range>800</range><tilt>0</tilt><heading>0</heading></LookAt></Placemark><Placemark id="C5A57AD8A7277DE1"><name>MO: MO 648501232</name><Point><coordinates>-69.9761527,41.7690599,0</coordinates></Point><LookAt><longitude>-69.9761527</longitude><latitude>41.7690599</latitude><altitude>0</altitude><range>800</range><tilt>0</tilt><heading>0</heading></LookAt></Placemark><Placemark id="69D09B2C529912CA"><name>MO: MO 648501238</name><Point><coordinates>-69.9779856,41.7698218,0</coordinates></Point><LookAt><longitude>-69.9779856</longitude><latitude>41.7698218</latitude><altitude>0</altitude><range>800</range><tilt>0</tilt><heading>0</heading></LookAt></Placemark><Placemark id="8516839109F02024"><name>MO: MO 648737455</name><Point><coordinates>-69.9842030,41.7605065,0</coordinates></Point><LookAt><longitude>-69.9842030</longitude><latitude>41.7605065</latitude><altitude>0</altitude><range>800</range><tilt>0</tilt><heading>0</heading></LookAt></Placemark><Placemark id="E2FEDF59040112EE"><name>MO: MO 648737456</name><Point><coordinates>-69.9829067,41.7593313,0</coordinates></Point><LookAt><longitude>-69.9829067</longitude><latitude>41.7593313</latitude><altitude>0</altitude><range>800</range><tilt>0</tilt><heading>0</heading></LookAt></Placemark><Placemark id="33C63AB94A12335E"><name>MO: MO 648737458</name><Point><coordinates>-69.9811715,41.7611267,0</coordinates></Point><LookAt><longitude>-69.9811715</longitude><latitude>41.7611267</latitude><altitude>0</altitude><range>800</range><tilt>0</tilt><heading>0</heading></LookAt></Placemark><Placemark id="636BB5E6E1885F77"><name>MO: MO 648766309</name><Point><coordinates>-69.9747034,41.7586919,0</coordinates></Point><LookAt><longitude>-69.9747034</longitude><latitude>41.7586919</latitude><altitude>0</altitude><range>800</range><tilt>0</tilt><heading>0</heading></LookAt></Placemark><Placemark id="4E564DA2538B2565"><name>MO: MO 648868970</name><Point><coordinates>-69.9786448,41.7393843,0</coordinates></Point><LookAt><longitude>-69.9786448</longitude><latitude>41.7393843</latitude><altitude>0</altitude><range>800</range><tilt>0</tilt><heading>0</heading></LookAt></Placemark><Placemark id="6B4B64FB20358A3C"><name>MO: MO 649544160</name><Point><coordinates>-69.9651380,41.7826335,0</coordinates></Point><LookAt><longitude>-69.9651380</longitude><latitude>41.7826335</latitude><altitude>0</altitude><range>800</range><tilt>0</tilt><heading>0</heading></LookAt></Placemark><Placemark id="A992A0AE0A47D9D5"><name>MO: MO 9818705553</name><Point><coordinates>-70.6241939,41.7379465,0</coordinates></Point><LookAt><longitude>-70.6241939</longitude><latitude>41.7379465</latitude><altitude>0</altitude><range>800</range><tilt>0</tilt><heading>0</heading></LookAt></Placemark><Placemark id="BE7703EFABE0745D"><name>MO: MO 9818705574</name><Point><coordinates>-70.6260575,41.7383207,0</coordinates></Point><LookAt><longitude>-70.6260575</longitude><latitude>41.7383207</latitude><altitude>0</altitude><range>800</range><tilt>0</tilt><heading>0</heading></LookAt></Placemark><Placemark id="BF540CB46936F29E"><name>MO: Onset Bay</name><Point><coordinates>-70.6486320,41.7382570,0</coordinates></Point><LookAt><longitude>-70.6486320</longitude><latitude>41.7382570</latitude><altitude>0</altitude><range>800</range><tilt>0</tilt><heading>0</heading></LookAt></Placemark><Placemark id="941EA3B78A22CBCF"><name>MO: Sesuit Harbor</name><Point><coordinates>-70.1545317,41.7536663,0</coordinates></Point><LookAt><longitude>-70.1545317</longitude><latitude>41.7536663</latitude><altitude>0</altitude><range>800</range><tilt>0</tilt><heading>0</heading></LookAt></Placemark><Placemark id="365E0B5942B9EDC1"><name>MO: Silver Beach Harbor</name><Point><coordinates>-70.6443826,41.6414271,0</coordinates></Point><LookAt><longitude>-70.6443826</longitude><latitude>41.6414271</latitude><altitude>0</altitude><range>800</range><tilt>0</tilt><heading>0</heading></LookAt></Placemark><Placemark id="DD579D12FDA4D9AA"><name>MO: Vineyard and Nantucket Sounds Anchorage F</name><Point><coordinates>-70.7956858,41.4497811,0</coordinates></Point><LookAt><longitude>-70.7956858</longitude><latitude>41.4497811</latitude><altitude>0</altitude><range>800</range><tilt>0</tilt><heading>0</heading></LookAt></Placemark><Placemark id="55AB8EAE75B00F2F"><name>MO: Vineyard and Nantucket Sounds Anchorage I</name><Point><coordinates>-70.2639194,41.5558233,0</coordinates></Point><LookAt><longitude>-70.2639194</longitude><latitude>41.5558233</latitude><altitude>0</altitude><range>800</range><tilt>0</tilt><heading>0</heading></LookAt></Placemark><Placemark id="510FCE91252391CF"><name>MO: Vineyard and Nantucket Sounds Anchorage J</name><Point><coordinates>-69.8718409,41.4889538,0</coordinates></Point><LookAt><longitude>-69.8718409</longitude><latitude>41.4889538</latitude><altitude>0</altitude><range>800</range><tilt>0</tilt><heading>0</heading></LookAt></Placemark><Placemark id="741B8D81A56CBF4A"><name>MO: Vineyard and Nantucket Sounds Anchorage K</name><Point><coordinates>-69.9426152,41.6192160,0</coordinates></Point><LookAt><longitude>-69.9426152</longitude><latitude>41.6192160</latitude><altitude>0</altitude><range>800</range><tilt>0</tilt><heading>0</heading></LookAt></Placemark></Document></kml>