<?xml version='1.0' encoding='utf-8'?>
<kml xmlns="http://www.opengis.net/kml/2.2"><Document><name>Candidates FL_big_bend p0</name><Placemark id="C3A4565A08919EF9"><name>M: Alligator Point Marina</name><Point><coordinates>-84.4175587,29.9044526,0</coordinates></Point><LookAt><longitude>-84.4175587</longitude><latitude>29.9044526</latitude><altitude>0</altitude><range>800</range><tilt>0</tilt><heading>0</heading></LookAt></Placemark><Placemark id="C8CAB9E370EDEEF1"><name>M: Battery Park Marina</name><Point><coordinates>-84.9823741,29.7230508,0</coordinates></Point><LookAt><longitude>-84.9823741</longitude><latitude>29.7230508</latitude><altitude>0</altitude><range>800</range><tilt>0</tilt><heading>0</heading></LookAt></Placemark><Placemark id="AB0452B5FAE6A125"><name>M: Bayside Marina</name><Point><coordinates>-84.4093235,29.9854639,0</coordinates></Point><LookAt><longitude>-84.4093235</longitude><latitude>29.9854639</latitude><altitude>0</altitude><range>800</range><tilt>0</tilt><heading>0</heading></LookAt></Placemark><Placemark id="48709AE49A61D6AB"><name>M: Carrabelle Marina</name><Point><coordinates>-84.6711681,29.8526476,0</coordinates></Point><LookAt><longitude>-84.6711681</longitude><latitude>29.8526476</latitude><altitude>0</altitude><range>800</range><tilt>0</tilt><heading>0</heading></LookAt></Placemark><Placemark id="DEA575D5A2AE476A"><name>M: M 1091986928</name><Point><coordinates>-83.3999243,29.6752204,0</coordinates></Point><LookAt><longitude>-83.3999243</longitude><latitude>29.6752204</latitude><altitude>0</altitude><range>800</range><tilt>0</tilt><heading>0</heading></LookAt></Placemark><Placemark id="1E4C6410D478709B"><name>M: M 1093602712</name><Point><coordinates>-83.3756792,29.6678210,0</coordinates></Point><LookAt><longitude>-83.3756792</longitude><latitude>29.6678210</latitude><altitude>0</altitude><range>800</range><tilt>0</tilt><heading>0</heading></LookAt></Placemark><Placemark id="89766C539CF6A14D"><name>M: M 1093602958</name><Point><coordinates>-83.3885974,29.6712131,0</coordinates></Point><LookAt><longitude>-83.3885974</longitude><latitude>29.6712131</latitude><altitude>0</altitude><range>800</range><tilt>0</tilt><heading>0</heading></LookAt></Placemark><Placemark id="DFCE499FCD4D9A11"><name>M: M 1096424259</name><Point><coordinates>-83.6704974,29.9204262,0</coordinates></Point><LookAt><longitude>-83.6704974</longitude><latitude>29.9204262</latitude><altitude>0</altitude><range>800</range><tilt>0</tilt><heading>0</heading></LookAt></Placemark><Placemark id="9CB9E167461FFBB9"><name>M: M 1112361821</name><Point><coordinates>-83.3695455,29.6653420,0</coordinates></Point><LookAt><longitude>-83.3695455</longitude><latitude>29.6653420</latitude><altitude>0</altitude><range>800</range><tilt>0</tilt><heading>0</heading></LookAt></Placemark><Placemark id="599AD5AF3F7F396D"><name>M: M 1112362744</name><Point><coordinates>-83.3884076,29.6686088,0</coordinates></Point><LookAt><longitude>-83.3884076</longitude><latitude>29.6686088</latitude><altitude>0</altitude><range>800</range><tilt>0</tilt><heading>0</heading></LookAt></Placemark><Placemark id="0F72D3BBD74CA177"><name>M: M 1112372487</name><Point><coordinates>-83.1441205,29.3290611,0</coordinates></Point><LookAt><longitude>-83.1441205</longitude><latitude>29.3290611</latitude><altitude>0</altitude><range>800</range><tilt>0</tilt><heading>0</heading></LookAt></Placemark><Placemark id="E4C769C7A55F81C1"><name>M: M 1112373733</name><Point><coordinates>-83.1397232,29.3329845,0</coordinates></Point><LookAt><longitude>-83.1397232</longitude><latitude>29.3329845</latitude><altitude>0</altitude><range>800</range><tilt>0</tilt><heading>0</heading></LookAt></Placemark><Placemark id="54B56DCF1CE4746F"><name>M: M 1112374181</name><Point><coordinates>-83.1404563,29.3273461,0</coordinates></Point><LookAt><longitude>-83.1404563</longitude><latitude>29.3273461</latitude><altitude>0</altitude><range>800</range><tilt>0</tilt><heading>0</heading></LookAt></Placemark><Placemark id="AA817DDA2CFB484D"><name>M: M 1112374566</name><Point><coordinates>-83.2885921,29.4389809,0</coordinates></Point><LookAt><longitude>-83.2885921</longitude><latitude>29.4389809</latitude><altitude>0</altitude><range>800</range><tilt>0</tilt><heading>0</heading></LookAt></Placemark><Placemark id="CBEF74B4C1B95DFF"><name>M: M 1112374767</name><Point><coordinates>-83.1443534,29.3261840,0</coordinates></Point><LookAt><longitude>-83.1443534</longitude><latitude>29.3261840</latitude><altitude>0</altitude><range>800</range><tilt>0</tilt><heading>0</heading></LookAt></Placemark><Placemark id="33FF3039D080AE96"><name>M: M 1118263402</name><Point><coordinates>-84.2036465,30.1543809,0</coordinates></Point><LookAt><longitude>-84.2036465</longitude><latitude>30.1543809</latitude><altitude>0</altitude><range>800</range><tilt>0</tilt><heading>0</heading></LookAt></Placemark><Placemark id="C28D178F2D36E528"><name>M: M 1118263403</name><Point><coordinates>-84.2911569,30.0649799,0</coordinates></Point><LookAt><longitude>-84.2911569</longitude><latitude>30.0649799</latitude><altitude>0</altitude><range>800</range><tilt>0</tilt><heading>0</heading></LookAt></Placemark><Placemark id="BBF7CEE79BC7BD3C"><name>M: M 1118263404</name><Point><coordinates>-84.3868080,30.0214278,0</coordinates></Point><LookAt><longitude>-84.3868080</longitude><latitude>30.0214278</latitude><altitude>0</altitude><range>800</range><tilt>0</tilt><heading>0</heading></LookAt></Placemark><Placemark id="CD382B2E2D4F7E83"><name>M: M 1120902782</name><Point><coordinates>-84.5795285,30.4425400,0</coordinates></Point><LookAt><longitude>-84.5795285</longitude><latitude>30.4425400</latitude><altitude>0</altitude><range>800</range><tilt>0</tilt><heading>0</heading></LookAt></Placemark><Placemark id="820E1142ADB52022"><name>M: M 1120902783</name><Point><coordinates>-84.5804331,30.4347541,0</coordinates></Point><LookAt><longitude>-84.5804331</longitude><latitude>30.4347541</latitude><altitude>0</altitude><range>800</range><tilt>0</tilt><heading>0</heading></LookAt></Placemark><Placemark id="4F54B05E0FA9A58F"><name>M: M 1120902784</name><Point><coordinates>-84.6251323,30.4218989,0</coordinates></Point><LookAt><longitude>-84.6251323</longitude><latitude>30.4218989</latitude><altitude>0</altitude><range>800</range><tilt>0</tilt><heading>0</heading></LookAt></Placemark><Placemark id="187F13B3BCC7CE8F"><name>M: M 1121108612</name><Point><coordinates>-84.9903386,29.7322043,0</coordinates></Point><LookAt><longitude>-84.9903386</longitude><latitude>29.7322043</latitude><altitude>0</altitude><range>800</range><tilt>0</tilt><heading>0</heading></LookAt></Placemark><Placemark id="0985BC4BDB7E7FA2"><name>M: M 1121108614</name><Point><coordinates>-84.6737894,29.8523699,0</coordinates></Point><LookAt><longitude>-84.6737894</longitude><latitude>29.8523699</latitude><altitude>0</altitude><range>800</range><tilt>0</tilt><heading>0</heading></LookAt></Placemark><Placemark id="8DE4E4BDCF39BB01"><name>M: M 1121108618</name><Point><coordinates>-84.6677296,29.8479027,0</coordinates></Point><LookAt><longitude>-84.6677296</longitude><latitude>29.8479027</latitude><altitude>0</altitude><range>800</range><tilt>0</tilt><heading>0</heading></LookAt></Placemark><Placemark id="22748DFA95D1914F"><name>M: M 1121108619</name><Point><coordinates>-84.6783143,29.8432837,0</coordinates></Point><LookAt><longitude>-84.6783143</longitude><latitude>29.8432837</latitude><altitude>0</altitude><range>800</range><tilt>0</tilt><heading>0</heading></LookAt></Placemark><Placemark id="6A37C542873240D5"><name>M: M 1121108621</name><Point><coordinates>-84.5843194,29.8090964,0</coordinates></Point><LookAt><longitude>-84.5843194</longitude><latitude>29.8090964</latitude><altitude>0</altitude><range>800</range><tilt>0</tilt><heading>0</heading></LookAt></Placemark><Placemark id="A45715AD120C25A5"><name>M: M 1167283125</name><Point><coordinates>-82.7625594,29.2154472,0</coordinates></Point><LookAt><longitude>-82.7625594</longitude><latitude>29.2154472</latitude><altitude>0</altitude><range>800</range><tilt>0</tilt><heading>0</heading></LookAt></Placemark><Placemark id="9D5600047AEC95E8"><name>M: M 1167283126</name><Point><coordinates>-83.0354088,29.1424825,0</coordinates></Point><LookAt><longitude>-83.0354088</longitude><latitude>29.1424825</latitude><altitude>0</altitude><range>800</range><tilt>0</tilt><heading>0</heading></LookAt></Placemark><Placemark id="680CDE814D54FA60"><name>M: Shell Island Fish Camp</name><Point><coordinates>-84.2165954,30.1599836,0</coordinates></Point><LookAt><longitude>-84.2165954</longitude><latitude>30.1599836</latitude><altitude>0</altitude><range>800</range><tilt>0</tilt><heading>0</heading></LookAt></Placemark><Placemark id="93E5E90367FCDD42"><name>M: Shields Marina</name><Point><coordinates>-84.2012028,30.1557661,0</coordinates></Point><LookAt><longitude>-84.2012028</longitude><latitude>30.1557661</latitude><altitude>0</altitude><range>800</range><tilt>0</tilt><heading>0</heading></LookAt></Placemark><Placemark id="352084D2294DEC52"><name>MO: City pier</name><Point><coordinates>-84.6643049,29.8470133,0</coordinates></Point><LookAt><longitude>-84.6643049</longitude><latitude>29.8470133</latitude><altitude>0</altitude><range>800</range><tilt>0</tilt><heading>0</heading></LookAt></Placemark><Placemark id="560F3C1873F7A458"><name>MO: MO 1455361170</name><Point><coordinates>-83.0291013,29.1358559,0</coordinates></Point><LookAt><longitude>-83.0291013</longitude><latitude>29.1358559</latitude><altitude>0</altitude><range>800</range><tilt>0</tilt><heading>0</heading></LookAt></Placemark><Placemark id="EA4D664E140B5CCA"><name>MO: MO 4748622653</name><Point><coordinates>-84.4301440,29.9002770,0</coordinates></Point><LookAt><longitude>-84.4301440</longitude><latitude>29.9002770</latitude><altitude>0</altitude><range>800</range><tilt>0</tilt><heading>0</heading></LookAt></Placemark><Placemark id="8E67B11185459C40"><name>MO: MO 7123778606</name><Point><coordinates>-84.1865089,30.4390458,0</coordinates></Point><LookAt><longitude>-84.1865089</longitude><latitude>30.4390458</latitude><altitude>0</altitude><range>800</range><tilt>0</tilt><heading>0</heading></LookAt></Placemark><Placemark id="ACAEBE77D5EAC557"><name>MO: MO 7123778620</name><Point><coordinates>-84.1790064,30.4367904,0</coordinates></Point><LookAt><longitude>-84.1790064</longitude><latitude>30.4367904</latitude><altitude>0</altitude><range>800</range><tilt>0</tilt><heading>0</heading></LookAt></Placemark></Document></kml>