<?xml version='1.0' encoding='utf-8'?>
<kml xmlns="http://www.opengis.net/kml/2.2"><Document><name>Candidates FL_panhandle p0</name><Placemark id="AD7F754E2EA77BF8"><name>M: Barber Marina</name><Point><coordinates>-87.5708580,30.3140043,0</coordinates></Point><LookAt><longitude>-87.5708580</longitude><latitude>30.3140043</latitude><altitude>0</altitude><range>800</range><tilt>0</tilt><heading>0</heading></LookAt></Placemark><Placemark id="F91E831DB7866590"><name>M: Bay Point Marina</name><Point><coordinates>-85.7284499,30.1445219,0</coordinates></Point><LookAt><longitude>-85.7284499</longitude><latitude>30.1445219</latitude><altitude>0</altitude><range>800</range><tilt>0</tilt><heading>0</heading></LookAt></Placemark><Placemark id="FB625CB05A8461C5"><name>M: Baytowne Marina</name><Point><coordinates>-86.3271770,30.3884410,0</coordinates></Point><LookAt><longitude>-86.3271770</longitude><latitude>30.3884410</latitude><altitude>0</altitude><range>800</range><tilt>0</tilt><heading>0</heading></LookAt></Placemark><Placemark id="3EC513EED6B6BC4C"><name>M: Bear Point Harbor</name><Point><coordinates>-87.5257892,30.3092419,0</coordinates></Point><LookAt><longitude>-87.5257892</longitude><latitude>30.3092419</latitude><altitude>0</altitude><range>800</range><tilt>0</tilt><heading>0</heading></LookAt></Placemark><Placemark id="1748CBD6DBD356AF"><name>M: Bluewater Bay Sailing Club</name><Point><coordinates>-86.4460302,30.4951319,0</coordinates></Point><LookAt><longitude>-86.4460302</longitude><latitude>30.4951319</latitude><altitude>0</altitude><range>800</range><tilt>0</tilt><heading>0</heading></LookAt></Placemark><Placemark id="CBC8F3913D90F4B8"><name>M: Brooks Bridge Marina</name><Point><coordinates>-86.5990337,30.4001106,0</coordinates></Point><LookAt><longitude>-86.5990337</longitude><latitude>30.4001106</latitude><altitude>0</altitude><range>800</range><tilt>0</tilt><heading>0</heading></LookAt></Placemark><Placemark id="FED2FA24A82C3346"><name>M: Capt. Anderson's Marina</name><Point><coordinates>-85.7466799,30.1484972,0</coordinates></Point><LookAt><longitude>-85.7466799</longitude><latitude>30.1484972</latitude><altitude>0</altitude><range>800</range><tilt>0</tilt><heading>0</heading></LookAt></Placemark><Placemark id="F2A910EFAD0BB210"><name>M: Caribe Marina</name><Point><coordinates>-87.5487478,30.2785439,0</coordinates></Point><LookAt><longitude>-87.5487478</longitude><latitude>30.2785439</latitude><altitude>0</altitude><range>800</range><tilt>0</tilt><heading>0</heading></LookAt></Placemark><Placemark id="C76E46955F8DF098"><name>M: Coast Guard Basin</name><Point><coordinates>-87.2899730,30.3442561,0</coordinates></Point><LookAt><longitude>-87.2899730</longitude><latitude>30.3442561</latitude><altitude>0</altitude><range>800</range><tilt>0</tilt><heading>0</heading></LookAt></Placemark><Placemark id="0B1071BC77AD16E5"><name>M: Day Break Marina</name><Point><coordinates>-87.2465878,30.4024064,0</coordinates></Point><LookAt><longitude>-87.2465878</longitude><latitude>30.4024064</latitude><altitude>0</altitude><range>800</range><tilt>0</tilt><heading>0</heading></LookAt></Placemark><Placemark id="71D2BC6DEC0035B1"><name>M: Emerald Coast Marina</name><Point><coordinates>-86.4944494,30.5209301,0</coordinates></Point><LookAt><longitude>-86.4944494</longitude><latitude>30.5209301</latitude><altitude>0</altitude><range>800</range><tilt>0</tilt><heading>0</heading></LookAt></Placemark><Placemark id="36E96460603AA96E"><name>M: Emerald Harbor Marina</name><Point><coordinates>-85.6371884,30.1544103,0</coordinates></Point><LookAt><longitude>-85.6371884</longitude><latitude>30.1544103</latitude><altitude>0</altitude><range>800</range><tilt>0</tilt><heading>0</heading></LookAt></Placemark><Placemark id="4CC55DE2901EC5A1"><name>M: Historic Saint Andrews Marina</name><Point><coordinates>-85.7037610,30.1683434,0</coordinates></Point><LookAt><longitude>-85.7037610</longitude><latitude>30.1683434</latitude><altitude>0</altitude><range>800</range><tilt>0</tilt><heading>0</heading></LookAt></Placemark><Placemark id="14D2EA02839C33FC"><name>M: Holiday Harbor Marina</name><Point><coordinates>-87.4390945,30.3109150,0</coordinates></Point><LookAt><longitude>-87.4390945</longitude><latitude>30.3109150</latitude><altitude>0</altitude><range>800</range><tilt>0</tilt><heading>0</heading></LookAt></Placemark><Placemark id="CEE6691BC5C330BF"><name>M: Lagoon Pontoons</name><Point><coordinates>-85.7435148,30.1471844,0</coordinates></Point><LookAt><longitude>-85.7435148</longitude><latitude>30.1471844</latitude><altitude>0</altitude><range>800</range><tilt>0</tilt><heading>0</heading></LookAt></Placemark><Placemark id="5CB4DA454C85A483"><name>M: Lost Key Marina &amp; Yacht Club</name><Point><coordinates>-87.3564838,30.3278597,0</coordinates></Point><LookAt><longitude>-87.3564838</longitude><latitude>30.3278597</latitude><altitude>0</altitude><range>800</range><tilt>0</tilt><heading>0</heading></LookAt></Placemark><Placemark id="E844A67640014BF4"><name>M: M 1121108622</name><Point><coordinates>-85.0208663,29.7562728,0</coordinates></Point><LookAt><longitude>-85.0208663</longitude><latitude>29.7562728</latitude><altitude>0</altitude><range>800</range><tilt>0</tilt><heading>0</heading></LookAt></Placemark><Placemark id="E750F1F3CA4B46A2"><name>M: M 1132110326</name><Point><coordinates>-85.3090363,29.8149323,0</coordinates></Point><LookAt><longitude>-85.3090363</longitude><latitude>29.8149323</latitude><altitude>0</altitude><range>800</range><tilt>0</tilt><heading>0</heading></LookAt></Placemark><Placemark id="88AA5E7DDEC15917"><name>M: M 1136084257</name><Point><coordinates>-85.7537928,30.1822856,0</coordinates></Point><LookAt><longitude>-85.7537928</longitude><latitude>30.1822856</latitude><altitude>0</altitude><range>800</range><tilt>0</tilt><heading>0</heading></LookAt></Placemark><Placemark id="074E7393826E0F87"><name>M: M 1136084266</name><Point><coordinates>-85.6304834,30.1479515,0</coordinates></Point><LookAt><longitude>-85.6304834</longitude><latitude>30.1479515</latitude><altitude>0</altitude><range>800</range><tilt>0</tilt><heading>0</heading></LookAt></Placemark><Placemark id="AC7EBEC94A811756"><name>M: M 1136084267</name><Point><coordinates>-85.7469114,30.1452346,0</coordinates></Point><LookAt><longitude>-85.7469114</longitude><latitude>30.1452346</latitude><altitude>0</altitude><range>800</range><tilt>0</tilt><heading>0</heading></LookAt></Placemark><Placemark id="CDDD4B0586D495A5"><name>M: M 1136084269</name><Point><coordinates>-85.6281210,30.1462880,0</coordinates></Point><LookAt><longitude>-85.6281210</longitude><latitude>30.1462880</latitude><altitude>0</altitude><range>800</range><tilt>0</tilt><heading>0</heading></LookAt></Placemark><Placemark id="1DDFB7C009A79380"><name>M: M 1136084270</name><Point><coordinates>-85.6487334,30.1425840,0</coordinates></Point><LookAt><longitude>-85.6487334</longitude><latitude>30.1425840</latitude><altitude>0</altitude><range>800</range><tilt>0</tilt><heading>0</heading></LookAt></Placemark><Placemark id="EDA6E0BF9B22F8D2"><name>M: M 1136084271</name><Point><coordinates>-85.6473933,30.0928634,0</coordinates></Point><LookAt><longitude>-85.6473933</longitude><latitude>30.0928634</latitude><altitude>0</altitude><range>800</range><tilt>0</tilt><heading>0</heading></LookAt></Placemark><Placemark id="D4B2BBDCC678041D"><name>M: M 1136084272</name><Point><coordinates>-85.4243465,29.9521419,0</coordinates></Point><LookAt><longitude>-85.4243465</longitude><latitude>29.9521419</latitude><altitude>0</altitude><range>800</range><tilt>0</tilt><heading>0</heading></LookAt></Placemark><Placemark id="5656B17F6E18F957"><name>M: M 1136084299</name><Point><coordinates>-85.5878080,30.3201252,0</coordinates></Point><LookAt><longitude>-85.5878080</longitude><latitude>30.3201252</latitude><altitude>0</altitude><range>800</range><tilt>0</tilt><heading>0</heading></LookAt></Placemark><Placemark id="896FF3B97E8E7451"><name>M: M 1136084300</name><Point><coordinates>-85.6391392,30.2830782,0</coordinates></Point><LookAt><longitude>-85.6391392</longitude><latitude>30.2830782</latitude><altitude>0</altitude><range>800</range><tilt>0</tilt><heading>0</heading></LookAt></Placemark><Placemark id="E090C838C2E1638B"><name>M: M 1136084301</name><Point><coordinates>-85.6384094,30.2804668,0</coordinates></Point><LookAt><longitude>-85.6384094</longitude><latitude>30.2804668</latitude><altitude>0</altitude><range>800</range><tilt>0</tilt><heading>0</heading></LookAt></Placemark><Placemark id="521D9FB43EB89CFC"><name>M: M 1136084302</name><Point><coordinates>-85.7506498,30.2011785,0</coordinates></Point><LookAt><longitude>-85.7506498</longitude><latitude>30.2011785</latitude><altitude>0</altitude><range>800</range><tilt>0</tilt><heading>0</heading></LookAt></Placemark><Placemark id="9E8E9C0DAF2615D4"><name>M: M 1136084304</name><Point><coordinates>-85.7322446,30.1843616,0</coordinates></Point><LookAt><longitude>-85.7322446</longitude><latitude>30.1843616</latitude><altitude>0</altitude><range>800</range><tilt>0</tilt><heading>0</heading></LookAt></Placemark><Placemark id="9BE904F52B74ECB8"><name>M: M 1138222633</name><Point><coordinates>-86.1405916,30.4731989,0</coordinates></Point><LookAt><longitude>-86.1405916</longitude><latitude>30.4731989</latitude><altitude>0</altitude><range>800</range><tilt>0</tilt><heading>0</heading></LookAt></Placemark><Placemark id="CAFADB5738420509"><name>M: M 1140741046</name><Point><coordinates>-86.4834467,30.5140253,0</coordinates></Point><LookAt><longitude>-86.4834467</longitude><latitude>30.5140253</latitude><altitude>0</altitude><range>800</range><tilt>0</tilt><heading>0</heading></LookAt></Placemark><Placemark id="E264A55EF0F470A2"><name>M: M 1140741047</name><Point><coordinates>-86.4814536,30.5131698,0</coordinates></Point><LookAt><longitude>-86.4814536</longitude><latitude>30.5131698</latitude><altitude>0</altitude><range>800</range><tilt>0</tilt><heading>0</heading></LookAt></Placemark><Placemark id="75258D9FBEBCD03A"><name>M: M 1140741050</name><Point><coordinates>-86.4433543,30.4946763,0</coordinates></Point><LookAt><longitude>-86.4433543</longitude><latitude>30.4946763</latitude><altitude>0</altitude><range>800</range><tilt>0</tilt><heading>0</heading></LookAt></Placemark><Placemark id="DBD8E019CDEAEFE9"><name>M: M 1140741051</name><Point><coordinates>-86.4818929,30.4829149,0</coordinates></Point><LookAt><longitude>-86.4818929</longitude><latitude>30.4829149</latitude><altitude>0</altitude><range>800</range><tilt>0</tilt><heading>0</heading></LookAt></Placemark><Placemark id="9D58CFA23226B133"><name>M: M 1140741058</name><Point><coordinates>-86.5304607,30.4568944,0</coordinates></Point><LookAt><longitude>-86.5304607</longitude><latitude>30.4568944</latitude><altitude>0</altitude><range>800</range><tilt>0</tilt><heading>0</heading></LookAt></Placemark><Placemark id="A10D575733EEFD1E"><name>M: M 1140741059</name><Point><coordinates>-86.5452439,30.4552108,0</coordinates></Point><LookAt><longitude>-86.5452439</longitude><latitude>30.4552108</latitude><altitude>0</altitude><range>800</range><tilt>0</tilt><heading>0</heading></LookAt></Placemark><Placemark id="1F6218E83AC07A9A"><name>M: M 1140741060</name><Point><coordinates>-86.5436354,30.4525469,0</coordinates></Point><LookAt><longitude>-86.5436354</longitude><latitude>30.4525469</latitude><altitude>0</altitude><range>800</range><tilt>0</tilt><heading>0</heading></LookAt></Placemark><Placemark id="5EFFA1E9E07D5523"><name>M: M 1140741062</name><Point><coordinates>-86.5424074,30.4515545,0</coordinates></Point><LookAt><longitude>-86.5424074</longitude><latitude>30.4515545</latitude><altitude>0</altitude><range>800</range><tilt>0</tilt><heading>0</heading></LookAt></Placemark><Placemark id="352FB16D2912E547"><name>M: M 1140741064</name><Point><coordinates>-86.5847510,30.4357785,0</coordinates></Point><LookAt><longitude>-86.5847510</longitude><latitude>30.4357785</latitude><altitude>0</altitude><range>800</range><tilt>0</tilt><heading>0</heading></LookAt></Placemark><Placemark id="BAF88E88DB3C5B84"><name>M: M 1140741065</name><Point><coordinates>-86.5917596,30.4263262,0</coordinates></Point><LookAt><longitude>-86.5917596</longitude><latitude>30.4263262</latitude><altitude>0</altitude><range>800</range><tilt>0</tilt><heading>0</heading></LookAt></Placemark><Placemark id="695F9F9EAB7471C1"><name>M: M 1140741066</name><Point><coordinates>-86.7088028,30.4097091,0</coordinates></Point><LookAt><longitude>-86.7088028</longitude><latitude>30.4097091</latitude><altitude>0</altitude><range>800</range><tilt>0</tilt><heading>0</heading></LookAt></Placemark><Placemark id="548E99F37D6ABB21"><name>M: M 1140741071</name><Point><coordinates>-86.6186430,30.4040915,0</coordinates></Point><LookAt><longitude>-86.6186430</longitude><latitude>30.4040915</latitude><altitude>0</altitude><range>800</range><tilt>0</tilt><heading>0</heading></LookAt></Placemark><Placemark id="322C2BA1CBFC4255"><name>M: M 1140741072</name><Point><coordinates>-86.6157520,30.4038378,0</coordinates></Point><LookAt><longitude>-86.6157520</longitude><latitude>30.4038378</latitude><altitude>0</altitude><range>800</range><tilt>0</tilt><heading>0</heading></LookAt></Placemark><Placemark id="E1BC69EDEF176EED"><name>M: M 1140748458</name><Point><coordinates>-86.4997566,30.4103939,0</coordinates></Point><LookAt><longitude>-86.4997566</longitude><latitude>30.4103939</latitude><altitude>0</altitude><range>800</range><tilt>0</tilt><heading>0</heading></LookAt></Placemark><Placemark id="AC0AA03D786B42A8"><name>M: M 1140748459</name><Point><coordinates>-86.5146246,30.3964251,0</coordinates></Point><LookAt><longitude>-86.5146246</longitude><latitude>30.3964251</latitude><altitude>0</altitude><range>800</range><tilt>0</tilt><heading>0</heading></LookAt></Placemark><Placemark id="AE022882E04CC0C8"><name>M: M 1140748460</name><Point><coordinates>-86.4921794,30.3909648,0</coordinates></Point><LookAt><longitude>-86.4921794</longitude><latitude>30.3909648</latitude><altitude>0</altitude><range>800</range><tilt>0</tilt><heading>0</heading></LookAt></Placemark><Placemark id="D1607EFEF0FDADA2"><name>M: M 1151306647</name><Point><coordinates>-87.0352533,30.6300637,0</coordinates></Point><LookAt><longitude>-87.0352533</longitude><latitude>30.6300637</latitude><altitude>0</altitude><range>800</range><tilt>0</tilt><heading>0</heading></LookAt></Placemark><Placemark id="76C6CBA3C9B5772F"><name>M: M 1151306648</name><Point><coordinates>-87.1835957,30.5747699,0</coordinates></Point><LookAt><longitude>-87.1835957</longitude><latitude>30.5747699</latitude><altitude>0</altitude><range>800</range><tilt>0</tilt><heading>0</heading></LookAt></Placemark><Placemark id="51B54CDD1F54C848"><name>M: M 1151306649</name><Point><coordinates>-87.0115559,30.5637100,0</coordinates></Point><LookAt><longitude>-87.0115559</longitude><latitude>30.5637100</latitude><altitude>0</altitude><range>800</range><tilt>0</tilt><heading>0</heading></LookAt></Placemark><Placemark id="86A96B100E724E6A"><name>M: M 1151306650</name><Point><coordinates>-87.1261469,30.5498252,0</coordinates></Point><LookAt><longitude>-87.1261469</longitude><latitude>30.5498252</latitude><altitude>0</altitude><range>800</range><tilt>0</tilt><heading>0</heading></LookAt></Placemark><Placemark id="A7FB0AA3598903B3"><name>M: M 1151306658</name><Point><coordinates>-87.1568242,30.3535073,0</coordinates></Point><LookAt><longitude>-87.1568242</longitude><latitude>30.3535073</latitude><altitude>0</altitude><range>800</range><tilt>0</tilt><heading>0</heading></LookAt></Placemark><Placemark id="DAEE3A7620FBE00F"><name>M: M 1157325035</name><Point><coordinates>-87.1944630,30.5463168,0</coordinates></Point><LookAt><longitude>-87.1944630</longitude><latitude>30.5463168</latitude><altitude>0</altitude><range>800</range><tilt>0</tilt><heading>0</heading></LookAt></Placemark><Placemark id="A3AB51B4DE6DC5D1"><name>M: M 1157325036</name><Point><coordinates>-87.4429734,30.5237111,0</coordinates></Point><LookAt><longitude>-87.4429734</longitude><latitude>30.5237111</latitude><altitude>0</altitude><range>800</range><tilt>0</tilt><heading>0</heading></LookAt></Placemark><Placemark id="730CC882B1EBB6D4"><name>M: M 1157325043</name><Point><coordinates>-87.1864614,30.4272205,0</coordinates></Point><LookAt><longitude>-87.1864614</longitude><latitude>30.4272205</latitude><altitude>0</altitude><range>800</range><tilt>0</tilt><heading>0</heading></LookAt></Placemark><Placemark id="92DC8ABD232EE5AB"><name>M: M 1157325045</name><Point><coordinates>-87.2544477,30.4071111,0</coordinates></Point><LookAt><longitude>-87.2544477</longitude><latitude>30.4071111</latitude><altitude>0</altitude><range>800</range><tilt>0</tilt><heading>0</heading></LookAt></Placemark><Placemark id="9BD432EA29684049"><name>M: M 1157325046</name><Point><coordinates>-87.2103783,30.4069184,0</coordinates></Point><LookAt><longitude>-87.2103783</longitude><latitude>30.4069184</latitude><altitude>0</altitude><range>800</range><tilt>0</tilt><heading>0</heading></LookAt></Placemark><Placemark id="B539164E2C182606"><name>M: M 1157325048</name><Point><coordinates>-87.2562637,30.4031640,0</coordinates></Point><LookAt><longitude>-87.2562637</longitude><latitude>30.4031640</latitude><altitude>0</altitude><range>800</range><tilt>0</tilt><heading>0</heading></LookAt></Placemark><Placemark id="1B97C968110FB663"><name>M: M 1157325050</name><Point><coordinates>-87.2413786,30.4013710,0</coordinates></Point><LookAt><longitude>-87.2413786</longitude><latitude>30.4013710</latitude><altitude>0</altitude><range>800</range><tilt>0</tilt><heading>0</heading></LookAt></Placemark><Placemark id="206F88AB6E5A8D52"><name>M: M 1157325051</name><Point><coordinates>-87.2500902,30.4010984,0</coordinates></Point><LookAt><longitude>-87.2500902</longitude><latitude>30.4010984</latitude><altitude>0</altitude><range>800</range><tilt>0</tilt><heading>0</heading></LookAt></Placemark><Placemark id="7B375DDC00834444"><name>M: M 1157325052</name><Point><coordinates>-87.2543876,30.4006997,0</coordinates></Point><LookAt><longitude>-87.2543876</longitude><latitude>30.4006997</latitude><altitude>0</altitude><range>800</range><tilt>0</tilt><heading>0</heading></LookAt></Placemark><Placemark id="45338271CE685764"><name>M: M 1157325053</name><Point><coordinates>-87.2485782,30.3998086,0</coordinates></Point><LookAt><longitude>-87.2485782</longitude><latitude>30.3998086</latitude><altitude>0</altitude><range>800</range><tilt>0</tilt><heading>0</heading></LookAt></Placemark><Placemark id="051C18BBD6CC630C"><name>M: M 1157325054</name><Point><coordinates>-87.2523079,30.4008973,0</coordinates></Point><LookAt><longitude>-87.2523079</longitude><latitude>30.4008973</latitude><altitude>0</altitude><range>800</range><tilt>0</tilt><heading>0</heading></LookAt></Placemark><Placemark id="D0C1CECA5CC596F9"><name>M: M 1157325055</name><Point><coordinates>-87.2472197,30.3987831,0</coordinates></Point><LookAt><longitude>-87.2472197</longitude><latitude>30.3987831</latitude><altitude>0</altitude><range>800</range><tilt>0</tilt><heading>0</heading></LookAt></Placemark><Placemark id="820DE184F4243A55"><name>M: M 1157325056</name><Point><coordinates>-87.2428731,30.3985370,0</coordinates></Point><LookAt><longitude>-87.2428731</longitude><latitude>30.3985370</latitude><altitude>0</altitude><range>800</range><tilt>0</tilt><heading>0</heading></LookAt></Placemark><Placemark id="7D22477E7B660934"><name>M: M 1157325057</name><Point><coordinates>-87.3185053,30.3718559,0</coordinates></Point><LookAt><longitude>-87.3185053</longitude><latitude>30.3718559</latitude><altitude>0</altitude><range>800</range><tilt>0</tilt><heading>0</heading></LookAt></Placemark><Placemark id="6291283C06FF36FE"><name>M: M 1157325058</name><Point><coordinates>-87.1449434,30.3365704,0</coordinates></Point><LookAt><longitude>-87.1449434</longitude><latitude>30.3365704</latitude><altitude>0</altitude><range>800</range><tilt>0</tilt><heading>0</heading></LookAt></Placemark><Placemark id="FA4EFDE3E66E393D"><name>M: M 1157325059</name><Point><coordinates>-87.1437562,30.3350475,0</coordinates></Point><LookAt><longitude>-87.1437562</longitude><latitude>30.3350475</latitude><altitude>0</altitude><range>800</range><tilt>0</tilt><heading>0</heading></LookAt></Placemark><Placemark id="A6CA53C09AEA17BD"><name>M: M 1157336882</name><Point><coordinates>-87.3551215,30.3285303,0</coordinates></Point><LookAt><longitude>-87.3551215</longitude><latitude>30.3285303</latitude><altitude>0</altitude><range>800</range><tilt>0</tilt><heading>0</heading></LookAt></Placemark><Placemark id="64A7C09A707852CF"><name>M: M 1157336885</name><Point><coordinates>-87.3578243,30.3270577,0</coordinates></Point><LookAt><longitude>-87.3578243</longitude><latitude>30.3270577</latitude><altitude>0</altitude><range>800</range><tilt>0</tilt><heading>0</heading></LookAt></Placemark><Placemark id="D672C751D41DFB42"><name>M: M 1157336887</name><Point><coordinates>-87.4252544,30.3110925,0</coordinates></Point><LookAt><longitude>-87.4252544</longitude><latitude>30.3110925</latitude><altitude>0</altitude><range>800</range><tilt>0</tilt><heading>0</heading></LookAt></Placemark><Placemark id="8AE639523068B3A7"><name>M: M 13505918024</name><Point><coordinates>-87.4928208,30.2885169,0</coordinates></Point><LookAt><longitude>-87.4928208</longitude><latitude>30.2885169</latitude><altitude>0</altitude><range>800</range><tilt>0</tilt><heading>0</heading></LookAt></Placemark><Placemark id="E2E082F648213708"><name>M: M 1382153045</name><Point><coordinates>-86.6277894,30.4037525,0</coordinates></Point><LookAt><longitude>-86.6277894</longitude><latitude>30.4037525</latitude><altitude>0</altitude><range>800</range><tilt>0</tilt><heading>0</heading></LookAt></Placemark><Placemark id="FA92C5E5F3DDB744"><name>M: M 15404970</name><Point><coordinates>-85.6656082,30.1509504,0</coordinates></Point><LookAt><longitude>-85.6656082</longitude><latitude>30.1509504</latitude><altitude>0</altitude><range>800</range><tilt>0</tilt><heading>0</heading></LookAt></Placemark><Placemark id="D6508D100AD26C91"><name>M: M 15646310</name><Point><coordinates>-87.3686284,30.3266367,0</coordinates></Point><LookAt><longitude>-87.3686284</longitude><latitude>30.3266367</latitude><altitude>0</altitude><range>800</range><tilt>0</tilt><heading>0</heading></LookAt></Placemark><Placemark id="63240F193AA35B07"><name>M: M 234852835</name><Point><coordinates>-87.2461958,30.4000557,0</coordinates></Point><LookAt><longitude>-87.2461958</longitude><latitude>30.4000557</latitude><altitude>0</altitude><range>800</range><tilt>0</tilt><heading>0</heading></LookAt></Placemark><Placemark id="1D418F0C48984420"><name>M: M 338561850</name><Point><coordinates>-85.3039706,29.7478029,0</coordinates></Point><LookAt><longitude>-85.3039706</longitude><latitude>29.7478029</latitude><altitude>0</altitude><range>800</range><tilt>0</tilt><heading>0</heading></LookAt></Placemark><Placemark id="25567DBE876D7910"><name>M: M 626849718</name><Point><coordinates>-87.5637390,30.2828954,0</coordinates></Point><LookAt><longitude>-87.5637390</longitude><latitude>30.2828954</latitude><altitude>0</altitude><range>800</range><tilt>0</tilt><heading>0</heading></LookAt></Placemark><Placemark id="1F3C241757D68FA5"><name>M: M 626849723</name><Point><coordinates>-87.5632841,30.2842679,0</coordinates></Point><LookAt><longitude>-87.5632841</longitude><latitude>30.2842679</latitude><altitude>0</altitude><range>800</range><tilt>0</tilt><heading>0</heading></LookAt></Placemark><Placemark id="07AE38B69948961A"><name>M: M 755544388</name><Point><coordinates>-85.6468314,30.2645948,0</coordinates></Point><LookAt><longitude>-85.6468314</longitude><latitude>30.2645948</latitude><altitude>0</altitude><range>800</range><tilt>0</tilt><heading>0</heading></LookAt></Placemark><Placemark id="4735663C6619CE3C"><name>M: M 7742552643</name><Point><coordinates>-87.5388177,30.3187890,0</coordinates></Point><LookAt><longitude>-87.5388177</longitude><latitude>30.3187890</latitude><altitude>0</altitude><range>800</range><tilt>0</tilt><heading>0</heading></LookAt></Placemark><Placemark id="916166AC46C329FE"><name>M: Marina</name><Point><coordinates>-85.4022291,29.7640511,0</coordinates></Point><LookAt><longitude>-85.4022291</longitude><latitude>29.7640511</latitude><altitude>0</altitude><range>800</range><tilt>0</tilt><heading>0</heading></LookAt></Placemark><Placemark id="71EBA8B4A655881C"><name>M: Marina Landing Marina</name><Point><coordinates>-85.7526803,30.1894552,0</coordinates></Point><LookAt><longitude>-85.7526803</longitude><latitude>30.1894552</latitude><altitude>0</altitude><range>800</range><tilt>0</tilt><heading>0</heading></LookAt></Placemark><Placemark id="378E5C54EC98FA9A"><name>M: Palafox Pier</name><Point><coordinates>-87.2142425,30.4040374,0</coordinates></Point><LookAt><longitude>-87.2142425</longitude><latitude>30.4040374</latitude><altitude>0</altitude><range>800</range><tilt>0</tilt><heading>0</heading></LookAt></Placemark><Placemark id="2754EC98CA53F045"><name>M: Panama City Marina</name><Point><coordinates>-85.6646368,30.1498060,0</coordinates></Point><LookAt><longitude>-85.6646368</longitude><latitude>30.1498060</latitude><altitude>0</altitude><range>800</range><tilt>0</tilt><heading>0</heading></LookAt></Placemark><Placemark id="72576A5D11D110A3"><name>M: Romar Marina</name><Point><coordinates>-87.5748520,30.2773930,0</coordinates></Point><LookAt><longitude>-87.5748520</longitude><latitude>30.2773930</latitude><altitude>0</altitude><range>800</range><tilt>0</tilt><heading>0</heading></LookAt></Placemark><Placemark id="10B4363F76BB5C7E"><name>M: Sportsman Marina</name><Point><coordinates>-87.5500403,30.2941408,0</coordinates></Point><LookAt><longitude>-87.5500403</longitude><latitude>30.2941408</latitude><altitude>0</altitude><range>800</range><tilt>0</tilt><heading>0</heading></LookAt></Placemark><Placemark id="580C75A6DFF58E12"><name>M: Swamp House RV Park &amp; Marina</name><Point><coordinates>-87.1967963,30.5463532,0</coordinates></Point><LookAt><longitude>-87.1967963</longitude><latitude>30.5463532</latitude><altitude>0</altitude><range>800</range><tilt>0</tilt><heading>0</heading></LookAt></Placemark><Placemark id="C4F46644EA61EF4C"><name>M: Watson Landings Marina</name><Point><coordinates>-85.6388907,30.1559418,0</coordinates></Point><LookAt><longitude>-85.6388907</longitude><latitude>30.1559418</latitude><altitude>0</altitude><range>800</range><tilt>0</tilt><heading>0</heading></LookAt></Placemark><Placemark id="89EA39FBD9A31FF7"><name>MO: Anchorage 1</name><Point><coordinates>-85.3394912,29.8354955,0</coordinates></Point><LookAt><longitude>-85.3394912</longitude><latitude>29.8354955</latitude><altitude>0</altitude><range>800</range><tilt>0</tilt><heading>0</heading></LookAt></Placemark><Placemark id="E46A0CA06DA814E6"><name>MO: Anchorage 2</name><Point><coordinates>-85.3583376,29.7916722,0</coordinates></Point><LookAt><longitude>-85.3583376</longitude><latitude>29.7916722</latitude><altitude>0</altitude><range>800</range><tilt>0</tilt><heading>0</heading></LookAt></Placemark><Placemark id="F2AFF4A6FCC463C3"><name>MO: MO 1484044182</name><Point><coordinates>-85.6415416,30.1565995,0</coordinates></Point><LookAt><longitude>-85.6415416</longitude><latitude>30.1565995</latitude><altitude>0</altitude><range>800</range><tilt>0</tilt><heading>0</heading></LookAt></Placemark><Placemark id="FC6C0DEF8B76BD99"><name>MO: MO 4748302681</name><Point><coordinates>-85.0983490,29.6316780,0</coordinates></Point><LookAt><longitude>-85.0983490</longitude><latitude>29.6316780</latitude><altitude>0</altitude><range>800</range><tilt>0</tilt><heading>0</heading></LookAt></Placemark><Placemark id="13CCEEC18AB1A925"><name>MO: Panama City</name><Point><coordinates>-85.7308748,29.8911685,0</coordinates></Point><LookAt><longitude>-85.7308748</longitude><latitude>29.8911685</latitude><altitude>0</altitude><range>800</range><tilt>0</tilt><heading>0</heading></LookAt></Placemark><Placemark id="A8F27AFB55FEFCAC"><name>MO: Pensacola</name><Point><coordinates>-87.3390326,30.1822278,0</coordinates></Point><LookAt><longitude>-87.3390326</longitude><latitude>30.1822278</latitude><altitude>0</altitude><range>800</range><tilt>0</tilt><heading>0</heading></LookAt></Placemark><Placemark id="66FF0517DCE22B21"><name>MO: Pensacola</name><Point><coordinates>-87.2349099,30.2647133,0</coordinates></Point><LookAt><longitude>-87.2349099</longitude><latitude>30.2647133</latitude><altitude>0</altitude><range>800</range><tilt>0</tilt><heading>0</heading></LookAt></Placemark><Placemark id="348E6656937FBA3E"><name>MO: Port Saint Joe Lighted Mooring Buoy</name><Point><coordinates>-85.5062060,29.8090500,0</coordinates></Point><LookAt><longitude>-85.5062060</longitude><latitude>29.8090500</latitude><altitude>0</altitude><range>800</range><tilt>0</tilt><heading>0</heading></LookAt></Placemark><Placemark id="346E1526ADF777E1"><name>MO: Port St. Joe</name><Point><coordinates>-85.5108377,29.8390796,0</coordinates></Point><LookAt><longitude>-85.5108377</longitude><latitude>29.8390796</latitude><altitude>0</altitude><range>800</range><tilt>0</tilt><heading>0</heading></LookAt></Placemark></Document></kml>