<?xml version='1.0' encoding='utf-8'?>
<kml xmlns="http://www.opengis.net/kml/2.2"><Document><name>Candidates FL_ne_atlantic p1</name><Placemark id="98686428761CFA48"><name>M: M 1235985572</name><Point><coordinates>-80.5282300,27.9342834,0</coordinates></Point><LookAt><longitude>-80.5282300</longitude><latitude>27.9342834</latitude><altitude>0</altitude><range>800</range><tilt>0</tilt><heading>0</heading></LookAt></Placemark><Placemark id="4738B12C00BB5C63"><name>M: M 1235985573</name><Point><coordinates>-80.4722933,27.8996510,0</coordinates></Point><LookAt><longitude>-80.4722933</longitude><latitude>27.8996510</latitude><altitude>0</altitude><range>800</range><tilt>0</tilt><heading>0</heading></LookAt></Placemark><Placemark id="6A759B62263334B9"><name>M: M 1235985574</name><Point><coordinates>-80.4581218,27.8752930,0</coordinates></Point><LookAt><longitude>-80.4581218</longitude><latitude>27.8752930</latitude><altitude>0</altitude><range>800</range><tilt>0</tilt><heading>0</heading></LookAt></Placemark><Placemark id="37A6BE13F300C327"><name>M: M 1235985575</name><Point><coordinates>-80.4966874,27.8727514,0</coordinates></Point><LookAt><longitude>-80.4966874</longitude><latitude>27.8727514</latitude><altitude>0</altitude><range>800</range><tilt>0</tilt><heading>0</heading></LookAt></Placemark><Placemark id="D64C5D74A35133AA"><name>M: M 1235985576</name><Point><coordinates>-80.4950905,27.8697534,0</coordinates></Point><LookAt><longitude>-80.4950905</longitude><latitude>27.8697534</latitude><altitude>0</altitude><range>800</range><tilt>0</tilt><heading>0</heading></LookAt></Placemark><Placemark id="243C0BDE8A496246"><name>M: M 1235985577</name><Point><coordinates>-80.4936666,27.8552492,0</coordinates></Point><LookAt><longitude>-80.4936666</longitude><latitude>27.8552492</latitude><altitude>0</altitude><range>800</range><tilt>0</tilt><heading>0</heading></LookAt></Placemark><Placemark id="962BEA22B45EB57F"><name>M: M 1236396011</name><Point><coordinates>-81.3823354,28.2610991,0</coordinates></Point><LookAt><longitude>-81.3823354</longitude><latitude>28.2610991</latitude><altitude>0</altitude><range>800</range><tilt>0</tilt><heading>0</heading></LookAt></Placemark><Placemark id="85DBC33869F9D90F"><name>M: M 1236396012</name><Point><coordinates>-81.3818784,28.2635989,0</coordinates></Point><LookAt><longitude>-81.3818784</longitude><latitude>28.2635989</latitude><altitude>0</altitude><range>800</range><tilt>0</tilt><heading>0</heading></LookAt></Placemark><Placemark id="587811A477A4343C"><name>M: M 1236823347</name><Point><coordinates>-81.3729187,27.8945324,0</coordinates></Point><LookAt><longitude>-81.3729187</longitude><latitude>27.8945324</latitude><altitude>0</altitude><range>800</range><tilt>0</tilt><heading>0</heading></LookAt></Placemark><Placemark id="C0E1606ECF2715EA"><name>M: M 1237060710</name><Point><coordinates>-81.3280492,28.8349091,0</coordinates></Point><LookAt><longitude>-81.3280492</longitude><latitude>28.8349091</latitude><altitude>0</altitude><range>800</range><tilt>0</tilt><heading>0</heading></LookAt></Placemark><Placemark id="10929C1A91059580"><name>M: M 1237060713</name><Point><coordinates>-81.2126929,28.8028478,0</coordinates></Point><LookAt><longitude>-81.2126929</longitude><latitude>28.8028478</latitude><altitude>0</altitude><range>800</range><tilt>0</tilt><heading>0</heading></LookAt></Placemark><Placemark id="EBA119385DF33BE7"><name>M: M 1237060714</name><Point><coordinates>-81.1816964,28.7866155,0</coordinates></Point><LookAt><longitude>-81.1816964</longitude><latitude>28.7866155</latitude><altitude>0</altitude><range>800</range><tilt>0</tilt><heading>0</heading></LookAt></Placemark><Placemark id="DF3952A317BE77A3"><name>M: M 1237060715</name><Point><coordinates>-81.4445142,28.7132228,0</coordinates></Point><LookAt><longitude>-81.4445142</longitude><latitude>28.7132228</latitude><altitude>0</altitude><range>800</range><tilt>0</tilt><heading>0</heading></LookAt></Placemark><Placemark id="777B646460E1977F"><name>M: M 1237060716</name><Point><coordinates>-81.2068289,28.7053665,0</coordinates></Point><LookAt><longitude>-81.2068289</longitude><latitude>28.7053665</latitude><altitude>0</altitude><range>800</range><tilt>0</tilt><heading>0</heading></LookAt></Placemark><Placemark id="859A86CF3A308F8D"><name>M: M 1382446208</name><Point><coordinates>-81.1365974,29.4797431,0</coordinates></Point><LookAt><longitude>-81.1365974</longitude><latitude>29.4797431</latitude><altitude>0</altitude><range>800</range><tilt>0</tilt><heading>0</heading></LookAt></Placemark><Placemark id="8A5F8C4B46A71081"><name>M: M 155298206</name><Point><coordinates>-80.6128889,28.2138207,0</coordinates></Point><LookAt><longitude>-80.6128889</longitude><latitude>28.2138207</latitude><altitude>0</altitude><range>800</range><tilt>0</tilt><heading>0</heading></LookAt></Placemark><Placemark id="AF99C8EB25A0B288"><name>M: M 16015823</name><Point><coordinates>-81.6727731,29.4660691,0</coordinates></Point><LookAt><longitude>-81.6727731</longitude><latitude>29.4660691</latitude><altitude>0</altitude><range>800</range><tilt>0</tilt><heading>0</heading></LookAt></Placemark><Placemark id="BA654B8851C430DA"><name>M: M 16060620</name><Point><coordinates>-81.2483995,29.7525806,0</coordinates></Point><LookAt><longitude>-81.2483995</longitude><latitude>29.7525806</latitude><altitude>0</altitude><range>800</range><tilt>0</tilt><heading>0</heading></LookAt></Placemark><Placemark id="B28BEB563D08BA9D"><name>M: M 16841078</name><Point><coordinates>-81.5095184,29.1211353,0</coordinates></Point><LookAt><longitude>-81.5095184</longitude><latitude>29.1211353</latitude><altitude>0</altitude><range>800</range><tilt>0</tilt><heading>0</heading></LookAt></Placemark><Placemark id="665A73A099C977DB"><name>M: M 16853519</name><Point><coordinates>-81.3847894,29.0108728,0</coordinates></Point><LookAt><longitude>-81.3847894</longitude><latitude>29.0108728</latitude><altitude>0</altitude><range>800</range><tilt>0</tilt><heading>0</heading></LookAt></Placemark><Placemark id="9E3BB834033C7D0F"><name>M: M 16853522</name><Point><coordinates>-81.5457907,29.3116126,0</coordinates></Point><LookAt><longitude>-81.5457907</longitude><latitude>29.3116126</latitude><altitude>0</altitude><range>800</range><tilt>0</tilt><heading>0</heading></LookAt></Placemark><Placemark id="5317A36EA6FA8DFF"><name>M: M 16853523</name><Point><coordinates>-81.5325852,29.1838148,0</coordinates></Point><LookAt><longitude>-81.5325852</longitude><latitude>29.1838148</latitude><altitude>0</altitude><range>800</range><tilt>0</tilt><heading>0</heading></LookAt></Placemark><Placemark id="8F737E0FAF34975D"><name>M: M 16912949</name><Point><coordinates>-80.8714110,28.3680201,0</coordinates></Point><LookAt><longitude>-80.8714110</longitude><latitude>28.3680201</latitude><altitude>0</altitude><range>800</range><tilt>0</tilt><heading>0</heading></LookAt></Placemark><Placemark id="761FDEE126A07A50"><name>M: M 16940593</name><Point><coordinates>-81.2655299,28.8154885,0</coordinates></Point><LookAt><longitude>-81.2655299</longitude><latitude>28.8154885</latitude><altitude>0</altitude><range>800</range><tilt>0</tilt><heading>0</heading></LookAt></Placemark><Placemark id="DB4DC01B878DEFD3"><name>M: M 293082546</name><Point><coordinates>-81.5363655,28.3863802,0</coordinates></Point><LookAt><longitude>-81.5363655</longitude><latitude>28.3863802</latitude><altitude>0</altitude><range>800</range><tilt>0</tilt><heading>0</heading></LookAt></Placemark><Placemark id="34EC05220CF7C7B8"><name>M: M 326817910</name><Point><coordinates>-81.6412616,30.3197989,0</coordinates></Point><LookAt><longitude>-81.6412616</longitude><latitude>30.3197989</latitude><altitude>0</altitude><range>800</range><tilt>0</tilt><heading>0</heading></LookAt></Placemark><Placemark id="1FC3478E22B99C37"><name>M: M 3303179018</name><Point><coordinates>-81.2636923,28.8146801,0</coordinates></Point><LookAt><longitude>-81.2636923</longitude><latitude>28.8146801</latitude><altitude>0</altitude><range>800</range><tilt>0</tilt><heading>0</heading></LookAt></Placemark><Placemark id="9EF3917459C86C0D"><name>M: M 351672679</name><Point><coordinates>-81.4330184,30.3905425,0</coordinates></Point><LookAt><longitude>-81.4330184</longitude><latitude>30.3905425</latitude><altitude>0</altitude><range>800</range><tilt>0</tilt><heading>0</heading></LookAt></Placemark><Placemark id="7690357B55B90345"><name>M: M 3570489893</name><Point><coordinates>-80.6142544,28.4088512,0</coordinates></Point><LookAt><longitude>-80.6142544</longitude><latitude>28.4088512</latitude><altitude>0</altitude><range>800</range><tilt>0</tilt><heading>0</heading></LookAt></Placemark><Placemark id="6F6062BC85E6F2D6"><name>M: M 375871182</name><Point><coordinates>-81.3171241,29.8802454,0</coordinates></Point><LookAt><longitude>-81.3171241</longitude><latitude>29.8802454</latitude><altitude>0</altitude><range>800</range><tilt>0</tilt><heading>0</heading></LookAt></Placemark><Placemark id="CDF02008457F45FA"><name>M: M 393920873</name><Point><coordinates>-81.2821855,28.2591138,0</coordinates></Point><LookAt><longitude>-81.2821855</longitude><latitude>28.2591138</latitude><altitude>0</altitude><range>800</range><tilt>0</tilt><heading>0</heading></LookAt></Placemark><Placemark id="696153505507C800"><name>M: M 432173711</name><Point><coordinates>-81.4319368,30.2562836,0</coordinates></Point><LookAt><longitude>-81.4319368</longitude><latitude>30.2562836</latitude><altitude>0</altitude><range>800</range><tilt>0</tilt><heading>0</heading></LookAt></Placemark><Placemark id="B8AA90364CC47C75"><name>M: M 459799445</name><Point><coordinates>-81.3842807,27.8125287,0</coordinates></Point><LookAt><longitude>-81.3842807</longitude><latitude>27.8125287</latitude><altitude>0</altitude><range>800</range><tilt>0</tilt><heading>0</heading></LookAt></Placemark><Placemark id="336D095028391420"><name>M: M 560095901</name><Point><coordinates>-81.6473463,28.7978961,0</coordinates></Point><LookAt><longitude>-81.6473463</longitude><latitude>28.7978961</latitude><altitude>0</altitude><range>800</range><tilt>0</tilt><heading>0</heading></LookAt></Placemark><Placemark id="EA27FE5CEB7A7EB9"><name>M: M 664709265</name><Point><coordinates>-81.3053357,29.8922278,0</coordinates></Point><LookAt><longitude>-81.3053357</longitude><latitude>29.8922278</latitude><altitude>0</altitude><range>800</range><tilt>0</tilt><heading>0</heading></LookAt></Placemark><Placemark id="28BE9EFA3CAEF1AC"><name>M: M 6825833819</name><Point><coordinates>-81.6230645,28.4207481,0</coordinates></Point><LookAt><longitude>-81.6230645</longitude><latitude>28.4207481</latitude><altitude>0</altitude><range>800</range><tilt>0</tilt><heading>0</heading></LookAt></Placemark><Placemark id="8316554B44885316"><name>M: M 943384476</name><Point><coordinates>-80.6634076,28.2108039,0</coordinates></Point><LookAt><longitude>-80.6634076</longitude><latitude>28.2108039</latitude><altitude>0</altitude><range>800</range><tilt>0</tilt><heading>0</heading></LookAt></Placemark><Placemark id="D54FBE819C62FC23"><name>M: M 944097528</name><Point><coordinates>-80.6288672,28.4081067,0</coordinates></Point><LookAt><longitude>-80.6288672</longitude><latitude>28.4081067</latitude><altitude>0</altitude><range>800</range><tilt>0</tilt><heading>0</heading></LookAt></Placemark><Placemark id="43E2AE396B3D2AB7"><name>M: M 944305586</name><Point><coordinates>-80.6129564,28.3567356,0</coordinates></Point><LookAt><longitude>-80.6129564</longitude><latitude>28.3567356</latitude><altitude>0</altitude><range>800</range><tilt>0</tilt><heading>0</heading></LookAt></Placemark><Placemark id="181F8C4564CA134E"><name>M: M 948674799</name><Point><coordinates>-80.7093527,28.4063863,0</coordinates></Point><LookAt><longitude>-80.7093527</longitude><latitude>28.4063863</latitude><altitude>0</altitude><range>800</range><tilt>0</tilt><heading>0</heading></LookAt></Placemark><Placemark id="8844557C9E0D38B1"><name>M: M 948733585</name><Point><coordinates>-80.6788292,28.4077680,0</coordinates></Point><LookAt><longitude>-80.6788292</longitude><latitude>28.4077680</latitude><altitude>0</altitude><range>800</range><tilt>0</tilt><heading>0</heading></LookAt></Placemark><Placemark id="365E0858BB6E4B25"><name>M: M 958655696</name><Point><coordinates>-80.6610477,28.3342291,0</coordinates></Point><LookAt><longitude>-80.6610477</longitude><latitude>28.3342291</latitude><altitude>0</altitude><range>800</range><tilt>0</tilt><heading>0</heading></LookAt></Placemark><Placemark id="801F6805724A58B7"><name>M: M 958881190</name><Point><coordinates>-80.6609129,28.3473879,0</coordinates></Point><LookAt><longitude>-80.6609129</longitude><latitude>28.3473879</latitude><altitude>0</altitude><range>800</range><tilt>0</tilt><heading>0</heading></LookAt></Placemark><Placemark id="9255EA15A04214E9"><name>M: Mandarin Holiday Marina</name><Point><coordinates>-81.6318926,30.1330468,0</coordinates></Point><LookAt><longitude>-81.6318926</longitude><latitude>30.1330468</latitude><altitude>0</altitude><range>800</range><tilt>0</tilt><heading>0</heading></LookAt></Placemark><Placemark id="F5742B0D86181F80"><name>M: Marina del Palma</name><Point><coordinates>-81.1500249,29.4974230,0</coordinates></Point><LookAt><longitude>-81.1500249</longitude><latitude>29.4974230</latitude><altitude>0</altitude><range>800</range><tilt>0</tilt><heading>0</heading></LookAt></Placemark><Placemark id="92A9A55C4F55DDDE"><name>M: Marineland Marina</name><Point><coordinates>-81.2150376,29.6691195,0</coordinates></Point><LookAt><longitude>-81.2150376</longitude><latitude>29.6691195</latitude><altitude>0</altitude><range>800</range><tilt>0</tilt><heading>0</heading></LookAt></Placemark><Placemark id="FB6C399202C06CBA"><name>M: Morningstar Marina</name><Point><coordinates>-81.4289945,30.3961599,0</coordinates></Point><LookAt><longitude>-81.4289945</longitude><latitude>30.3961599</latitude><altitude>0</altitude><range>800</range><tilt>0</tilt><heading>0</heading></LookAt></Placemark><Placemark id="5D15E895B8516C78"><name>M: Palm Coast Marina</name><Point><coordinates>-81.1933200,29.5768693,0</coordinates></Point><LookAt><longitude>-81.1933200</longitude><latitude>29.5768693</latitude><altitude>0</altitude><range>800</range><tilt>0</tilt><heading>0</heading></LookAt></Placemark><Placemark id="927DDB32CE09728B"><name>M: Palm Cove Marina</name><Point><coordinates>-81.4314340,30.2896929,0</coordinates></Point><LookAt><longitude>-81.4314340</longitude><latitude>30.2896929</latitude><altitude>0</altitude><range>800</range><tilt>0</tilt><heading>0</heading></LookAt></Placemark><Placemark id="843D187818327045"><name>M: Riviera Resort and Marina</name><Point><coordinates>-81.3673385,28.9950347,0</coordinates></Point><LookAt><longitude>-81.3673385</longitude><latitude>28.9950347</latitude><altitude>0</altitude><range>800</range><tilt>0</tilt><heading>0</heading></LookAt></Placemark><Placemark id="68559F3B7637958D"><name>M: Saint Augustine Marina</name><Point><coordinates>-81.2979499,29.9162162,0</coordinates></Point><LookAt><longitude>-81.2979499</longitude><latitude>29.9162162</latitude><altitude>0</altitude><range>800</range><tilt>0</tilt><heading>0</heading></LookAt></Placemark><Placemark id="DA3DFE18538DF11D"><name>M: Saint Augustine Municipal Marina</name><Point><coordinates>-81.3089973,29.8919566,0</coordinates></Point><LookAt><longitude>-81.3089973</longitude><latitude>29.8919566</latitude><altitude>0</altitude><range>800</range><tilt>0</tilt><heading>0</heading></LookAt></Placemark><Placemark id="16F2482969FE77CD"><name>M: Saint Johns Marina</name><Point><coordinates>-81.6618187,30.3191692,0</coordinates></Point><LookAt><longitude>-81.6618187</longitude><latitude>30.3191692</latitude><altitude>0</altitude><range>800</range><tilt>0</tilt><heading>0</heading></LookAt></Placemark><Placemark id="08C481A399396CFD"><name>M: San Sebastian Marina</name><Point><coordinates>-81.3191755,29.8884858,0</coordinates></Point><LookAt><longitude>-81.3191755</longitude><latitude>29.8884858</latitude><altitude>0</altitude><range>800</range><tilt>0</tilt><heading>0</heading></LookAt></Placemark><Placemark id="8EC027D41758BEE2"><name>M: Sea Love Marina</name><Point><coordinates>-80.9351178,29.0823409,0</coordinates></Point><LookAt><longitude>-80.9351178</longitude><latitude>29.0823409</latitude><altitude>0</altitude><range>800</range><tilt>0</tilt><heading>0</heading></LookAt></Placemark><Placemark id="E80BA930EC437EBF"><name>M: SpaceX Barge Dock</name><Point><coordinates>-80.6239972,28.4170103,0</coordinates></Point><LookAt><longitude>-80.6239972</longitude><latitude>28.4170103</latitude><altitude>0</altitude><range>800</range><tilt>0</tilt><heading>0</heading></LookAt></Placemark><Placemark id="D04BFA49FA1BD267"><name>M: St. Marys Boat Services</name><Point><coordinates>-81.5248979,30.7447150,0</coordinates></Point><LookAt><longitude>-81.5248979</longitude><latitude>30.7447150</latitude><altitude>0</altitude><range>800</range><tilt>0</tilt><heading>0</heading></LookAt></Placemark><Placemark id="99F4E261A881F130"><name>M: The Florida Yacht Club</name><Point><coordinates>-81.6891138,30.2518689,0</coordinates></Point><LookAt><longitude>-81.6891138</longitude><latitude>30.2518689</latitude><altitude>0</altitude><range>800</range><tilt>0</tilt><heading>0</heading></LookAt></Placemark><Placemark id="4876C4870EEB1BF1"><name>M: The Moorings</name><Point><coordinates>-81.4262150,30.2864745,0</coordinates></Point><LookAt><longitude>-81.4262150</longitude><latitude>30.2864745</latitude><altitude>0</altitude><range>800</range><tilt>0</tilt><heading>0</heading></LookAt></Placemark><Placemark id="33D296A04DCF118B"><name>M: Walt Disney World Watercraft Marina &amp; Drydock</name><Point><coordinates>-81.5736382,28.4247020,0</coordinates></Point><LookAt><longitude>-81.5736382</longitude><latitude>28.4247020</latitude><altitude>0</altitude><range>800</range><tilt>0</tilt><heading>0</heading></LookAt></Placemark><Placemark id="0F271BCB8FEC702F"><name>M: Wilderness Lodge Marina</name><Point><coordinates>-81.5702804,28.4093956,0</coordinates></Point><LookAt><longitude>-81.5702804</longitude><latitude>28.4093956</latitude><altitude>0</altitude><range>800</range><tilt>0</tilt><heading>0</heading></LookAt></Placemark><Placemark id="30459C9E4CFF7DB7"><name>M: Yacht Harbor Marina</name><Point><coordinates>-81.1885031,29.5759948,0</coordinates></Point><LookAt><longitude>-81.1885031</longitude><latitude>29.5759948</latitude><altitude>0</altitude><range>800</range><tilt>0</tilt><heading>0</heading></LookAt></Placemark><Placemark id="25DDFF4D92B42EEA"><name>MO: Anchorage 1</name><Point><coordinates>-81.3658365,30.4105614,0</coordinates></Point><LookAt><longitude>-81.3658365</longitude><latitude>30.4105614</latitude><altitude>0</altitude><range>800</range><tilt>0</tilt><heading>0</heading></LookAt></Placemark><Placemark id="BAFA3025E2AE7C76"><name>MO: Anchorage 1</name><Point><coordinates>-81.2874754,30.4468391,0</coordinates></Point><LookAt><longitude>-81.2874754</longitude><latitude>30.4468391</latitude><altitude>0</altitude><range>800</range><tilt>0</tilt><heading>0</heading></LookAt></Placemark><Placemark id="24FB914DF44BDF1A"><name>MO: Anchorage 2</name><Point><coordinates>-81.3661143,30.4158391,0</coordinates></Point><LookAt><longitude>-81.3661143</longitude><latitude>30.4158391</latitude><altitude>0</altitude><range>800</range><tilt>0</tilt><heading>0</heading></LookAt></Placemark><Placemark id="E2AE449A057CEB5D"><name>MO: Anchorage 2</name><Point><coordinates>-81.2918920,30.4390336,0</coordinates></Point><LookAt><longitude>-81.2918920</longitude><latitude>30.4390336</latitude><altitude>0</altitude><range>800</range><tilt>0</tilt><heading>0</heading></LookAt></Placemark><Placemark id="132968010988A6E5"><name>MO: Anchorage 3</name><Point><coordinates>-81.3605587,30.4155614,0</coordinates></Point><LookAt><longitude>-81.3605587</longitude><latitude>30.4155614</latitude><altitude>0</altitude><range>800</range><tilt>0</tilt><heading>0</heading></LookAt></Placemark><Placemark id="9EF18EFD19D26538"><name>MO: Anchorage 3</name><Point><coordinates>-81.2827254,30.4389503,0</coordinates></Point><LookAt><longitude>-81.2827254</longitude><latitude>30.4389503</latitude><altitude>0</altitude><range>800</range><tilt>0</tilt><heading>0</heading></LookAt></Placemark><Placemark id="1893087C546F12A3"><name>MO: Anchorage 4</name><Point><coordinates>-81.3680587,30.4202836,0</coordinates></Point><LookAt><longitude>-81.3680587</longitude><latitude>30.4202836</latitude><altitude>0</altitude><range>800</range><tilt>0</tilt><heading>0</heading></LookAt></Placemark><Placemark id="65C401E8ACCDA923"><name>MO: Anchorage 5</name><Point><coordinates>-81.3619476,30.4202836,0</coordinates></Point><LookAt><longitude>-81.3619476</longitude><latitude>30.4202836</latitude><altitude>0</altitude><range>800</range><tilt>0</tilt><heading>0</heading></LookAt></Placemark><Placemark id="400F5102D67BF6F4"><name>MO: Anchorage 6</name><Point><coordinates>-81.3566698,30.4186169,0</coordinates></Point><LookAt><longitude>-81.3566698</longitude><latitude>30.4186169</latitude><altitude>0</altitude><range>800</range><tilt>0</tilt><heading>0</heading></LookAt></Placemark><Placemark id="E1A4071E7D3011C4"><name>MO: Anchorage A</name><Point><coordinates>-81.3563921,30.4263947,0</coordinates></Point><LookAt><longitude>-81.3563921</longitude><latitude>30.4263947</latitude><altitude>0</altitude><range>800</range><tilt>0</tilt><heading>0</heading></LookAt></Placemark><Placemark id="859142D2C29D5619"><name>MO: Anchorage A</name><Point><coordinates>-81.6269104,30.3138877,0</coordinates></Point><LookAt><longitude>-81.6269104</longitude><latitude>30.3138877</latitude><altitude>0</altitude><range>800</range><tilt>0</tilt><heading>0</heading></LookAt></Placemark><Placemark id="CAF6882CB40CD053"><name>MO: Anchorage B</name><Point><coordinates>-81.3536143,30.4369503,0</coordinates></Point><LookAt><longitude>-81.3536143</longitude><latitude>30.4369503</latitude><altitude>0</altitude><range>800</range><tilt>0</tilt><heading>0</heading></LookAt></Placemark><Placemark id="8D9F5B43806AC206"><name>MO: Anchorage B</name><Point><coordinates>-81.6149819,30.3509188,0</coordinates></Point><LookAt><longitude>-81.6149819</longitude><latitude>30.3509188</latitude><altitude>0</altitude><range>800</range><tilt>0</tilt><heading>0</heading></LookAt></Placemark><Placemark id="CB590706F2A6DB8B"><name>MO: Anchorage C</name><Point><coordinates>-81.3408365,30.4386169,0</coordinates></Point><LookAt><longitude>-81.3408365</longitude><latitude>30.4386169</latitude><altitude>0</altitude><range>800</range><tilt>0</tilt><heading>0</heading></LookAt></Placemark><Placemark id="A8F58418603C40A5"><name>MO: Anchorage D</name><Point><coordinates>-81.3463921,30.4486169,0</coordinates></Point><LookAt><longitude>-81.3463921</longitude><latitude>30.4486169</latitude><altitude>0</altitude><range>800</range><tilt>0</tilt><heading>0</heading></LookAt></Placemark><Placemark id="5873BFD89EAE296A"><name>MO: Area B</name><Point><coordinates>-81.6876069,30.2498777,0</coordinates></Point><LookAt><longitude>-81.6876069</longitude><latitude>30.2498777</latitude><altitude>0</altitude><range>800</range><tilt>0</tilt><heading>0</heading></LookAt></Placemark><Placemark id="1E9A9D7BE565AE7A"><name>MO: Indian River</name><Point><coordinates>-80.4708805,27.8265458,0</coordinates></Point><LookAt><longitude>-80.4708805</longitude><latitude>27.8265458</latitude><altitude>0</altitude><range>800</range><tilt>0</tilt><heading>0</heading></LookAt></Placemark><Placemark id="1E323EFDEA31D0A6"><name>MO: Indian River</name><Point><coordinates>-80.3715832,27.6609569,0</coordinates></Point><LookAt><longitude>-80.3715832</longitude><latitude>27.6609569</latitude><altitude>0</altitude><range>800</range><tilt>0</tilt><heading>0</heading></LookAt></Placemark><Placemark id="2F895FCCD26D65E1"><name>MO: Indian River</name><Point><coordinates>-80.3705295,27.6545361,0</coordinates></Point><LookAt><longitude>-80.3705295</longitude><latitude>27.6545361</latitude><altitude>0</altitude><range>800</range><tilt>0</tilt><heading>0</heading></LookAt></Placemark><Placemark id="F0736A7ACD071929"><name>MO: MO 11926347184</name><Point><coordinates>-80.6347038,28.4096390,0</coordinates></Point><LookAt><longitude>-80.6347038</longitude><latitude>28.4096390</latitude><altitude>0</altitude><range>800</range><tilt>0</tilt><heading>0</heading></LookAt></Placemark><Placemark id="E1C52C29B17384C6"><name>MO: MO 11926347191</name><Point><coordinates>-80.6362438,28.4096388,0</coordinates></Point><LookAt><longitude>-80.6362438</longitude><latitude>28.4096388</latitude><altitude>0</altitude><range>800</range><tilt>0</tilt><heading>0</heading></LookAt></Placemark><Placemark id="596047A7EB84BBD5"><name>MO: MO 11927138387</name><Point><coordinates>-80.5951342,28.4134035,0</coordinates></Point><LookAt><longitude>-80.5951342</longitude><latitude>28.4134035</latitude><altitude>0</altitude><range>800</range><tilt>0</tilt><heading>0</heading></LookAt></Placemark><Placemark id="2C7ABFE708B7F1BD"><name>MO: MO 1444768308</name><Point><coordinates>-80.6247919,28.1323516,0</coordinates></Point><LookAt><longitude>-80.6247919</longitude><latitude>28.1323516</latitude><altitude>0</altitude><range>800</range><tilt>0</tilt><heading>0</heading></LookAt></Placemark><Placemark id="D2F804BD8ED01667"><name>MO: MO 218167348</name><Point><coordinates>-80.7220540,28.3549222,0</coordinates></Point><LookAt><longitude>-80.7220540</longitude><latitude>28.3549222</latitude><altitude>0</altitude><range>800</range><tilt>0</tilt><heading>0</heading></LookAt></Placemark><Placemark id="1C0C8255756245C7"><name>MO: MO 218390748</name><Point><coordinates>-80.6043670,28.4087574,0</coordinates></Point><LookAt><longitude>-80.6043670</longitude><latitude>28.4087574</latitude><altitude>0</altitude><range>800</range><tilt>0</tilt><heading>0</heading></LookAt></Placemark><Placemark id="B64388A46D890B83"><name>MO: MO 226300763</name><Point><coordinates>-81.5526835,30.7185019,0</coordinates></Point><LookAt><longitude>-81.5526835</longitude><latitude>30.7185019</latitude><altitude>0</altitude><range>800</range><tilt>0</tilt><heading>0</heading></LookAt></Placemark><Placemark id="315EE2F37747AEF6"><name>MO: MO 226300764</name><Point><coordinates>-81.5520389,30.7197839,0</coordinates></Point><LookAt><longitude>-81.5520389</longitude><latitude>30.7197839</latitude><altitude>0</altitude><range>800</range><tilt>0</tilt><heading>0</heading></LookAt></Placemark><Placemark id="19973839096A35E2"><name>MO: MO 226300961</name><Point><coordinates>-81.5464678,30.7197275,0</coordinates></Point><LookAt><longitude>-81.5464678</longitude><latitude>30.7197275</latitude><altitude>0</altitude><range>800</range><tilt>0</tilt><heading>0</heading></LookAt></Placemark><Placemark id="EFD43D159400A676"><name>MO: MO 229179298</name><Point><coordinates>-81.4741807,30.7542155,0</coordinates></Point><LookAt><longitude>-81.4741807</longitude><latitude>30.7542155</latitude><altitude>0</altitude><range>800</range><tilt>0</tilt><heading>0</heading></LookAt></Placemark><Placemark id="1819206BA3116D3B"><name>MO: MO 233041494</name><Point><coordinates>-81.4713888,30.7642826,0</coordinates></Point><LookAt><longitude>-81.4713888</longitude><latitude>30.7642826</latitude><altitude>0</altitude><range>800</range><tilt>0</tilt><heading>0</heading></LookAt></Placemark><Placemark id="F0CEBAFD3D91B6B3"><name>MO: MO 233043278</name><Point><coordinates>-81.4694470,30.7705138,0</coordinates></Point><LookAt><longitude>-81.4694470</longitude><latitude>30.7705138</latitude><altitude>0</altitude><range>800</range><tilt>0</tilt><heading>0</heading></LookAt></Placemark><Placemark id="919419A14CF5A4D0"><name>MO: MO 233043279</name><Point><coordinates>-81.4693710,30.7778543,0</coordinates></Point><LookAt><longitude>-81.4693710</longitude><latitude>30.7778543</latitude><altitude>0</altitude><range>800</range><tilt>0</tilt><heading>0</heading></LookAt></Placemark><Placemark id="91581C91B883B258"><name>MO: MO 233043280</name><Point><coordinates>-81.4688646,30.7724294,0</coordinates></Point><LookAt><longitude>-81.4688646</longitude><latitude>30.7724294</latitude><altitude>0</altitude><range>800</range><tilt>0</tilt><heading>0</heading></LookAt></Placemark><Placemark id="16FC10A26CF6EB01"><name>MO: MO 233055809</name><Point><coordinates>-81.4678346,30.6678625,0</coordinates></Point><LookAt><longitude>-81.4678346</longitude><latitude>30.6678625</latitude><altitude>0</altitude><range>800</range><tilt>0</tilt><heading>0</heading></LookAt></Placemark><Placemark id="5464A6F8B7E32070"><name>MO: MO 233055931</name><Point><coordinates>-81.4647694,30.6759240,0</coordinates></Point><LookAt><longitude>-81.4647694</longitude><latitude>30.6759240</latitude><altitude>0</altitude><range>800</range><tilt>0</tilt><heading>0</heading></LookAt></Placemark><Placemark id="0EA34EF497DA15D5"><name>MO: MO 233055932</name><Point><coordinates>-81.4648880,30.6731711,0</coordinates></Point><LookAt><longitude>-81.4648880</longitude><latitude>30.6731711</latitude><altitude>0</altitude><range>800</range><tilt>0</tilt><heading>0</heading></LookAt></Placemark><Placemark id="E22AC818ACDD9869"><name>MO: MO 255939904</name><Point><coordinates>-81.1158102,29.4433887,0</coordinates></Point><LookAt><longitude>-81.1158102</longitude><latitude>29.4433887</latitude><altitude>0</altitude><range>800</range><tilt>0</tilt><heading>0</heading></LookAt></Placemark><Placemark id="B4D701B877B3807A"><name>MO: MO 256987797</name><Point><coordinates>-81.2953973,29.8138417,0</coordinates></Point><LookAt><longitude>-81.2953973</longitude><latitude>29.8138417</latitude><altitude>0</altitude><range>800</range><tilt>0</tilt><heading>0</heading></LookAt></Placemark><Placemark id="F536FEC7A66089DC"><name>MO: MO 460074726</name><Point><coordinates>-80.6006532,28.4085817,0</coordinates></Point><LookAt><longitude>-80.6006532</longitude><latitude>28.4085817</latitude><altitude>0</altitude><range>800</range><tilt>0</tilt><heading>0</heading></LookAt></Placemark><Placemark id="38D4D3824CF8C7B6"><name>MO: MO 488977484</name><Point><coordinates>-80.9483981,29.1041984,0</coordinates></Point><LookAt><longitude>-80.9483981</longitude><latitude>29.1041984</latitude><altitude>0</altitude><range>800</range><tilt>0</tilt><heading>0</heading></LookAt></Placemark><Placemark id="3734C7C8044B739D"><name>MO: MO 550165818</name><Point><coordinates>-81.5483017,30.7199122,0</coordinates></Point><LookAt><longitude>-81.5483017</longitude><latitude>30.7199122</latitude><altitude>0</altitude><range>800</range><tilt>0</tilt><heading>0</heading></LookAt></Placemark><Placemark id="C8935D1280B98C00"><name>MO: MO 805742323</name><Point><coordinates>-80.5260094,27.9307662,0</coordinates></Point><LookAt><longitude>-80.5260094</longitude><latitude>27.9307662</latitude><altitude>0</altitude><range>800</range><tilt>0</tilt><heading>0</heading></LookAt></Placemark><Placemark id="6E92097A5E603100"><name>MO: Talleyrand Docks</name><Point><coordinates>-81.6206934,30.3517283,0</coordinates></Point><LookAt><longitude>-81.6206934</longitude><latitude>30.3517283</latitude><altitude>0</altitude><range>800</range><tilt>0</tilt><heading>0</heading></LookAt></Placemark><Placemark id="AD9CB60EC46626B9"><name>MO: Toyota Berth</name><Point><coordinates>-81.6220829,30.3452439,0</coordinates></Point><LookAt><longitude>-81.6220829</longitude><latitude>30.3452439</latitude><altitude>0</altitude><range>800</range><tilt>0</tilt><heading>0</heading></LookAt></Placemark></Document></kml>