<?xml version='1.0' encoding='utf-8'?>
<kml xmlns="http://www.opengis.net/kml/2.2"><Document><name>Candidates FL_tampa_sw p0</name><Placemark id="255B7980BF7D86ED"><name>M: All Water Excursions Marina</name><Point><coordinates>-81.8022954,26.2829502,0</coordinates></Point><LookAt><longitude>-81.8022954</longitude><latitude>26.2829502</latitude><altitude>0</altitude><range>800</range><tilt>0</tilt><heading>0</heading></LookAt></Placemark><Placemark id="2372577238420478"><name>M: Anclote Village Marina</name><Point><coordinates>-82.7856812,28.1729981,0</coordinates></Point><LookAt><longitude>-82.7856812</longitude><latitude>28.1729981</latitude><altitude>0</altitude><range>800</range><tilt>0</tilt><heading>0</heading></LookAt></Placemark><Placemark id="2BB59F93AAE17F30"><name>M: Bay Pines Marina</name><Point><coordinates>-82.7658320,27.8153949,0</coordinates></Point><LookAt><longitude>-82.7658320</longitude><latitude>27.8153949</latitude><altitude>0</altitude><range>800</range><tilt>0</tilt><heading>0</heading></LookAt></Placemark><Placemark id="D74D50EDBAC905D6"><name>M: Bayfront Marina (Turtle Beach Marina)</name><Point><coordinates>-82.5143547,27.2201456,0</coordinates></Point><LookAt><longitude>-82.5143547</longitude><latitude>27.2201456</latitude><altitude>0</altitude><range>800</range><tilt>0</tilt><heading>0</heading></LookAt></Placemark><Placemark id="7CC9207C791AD736"><name>M: Bayside Marina</name><Point><coordinates>-81.5581119,28.3693258,0</coordinates></Point><LookAt><longitude>-81.5581119</longitude><latitude>28.3693258</latitude><altitude>0</altitude><range>800</range><tilt>0</tilt><heading>0</heading></LookAt></Placemark><Placemark id="F57EC210C11B558E"><name>M: Bonita Bay Marina</name><Point><coordinates>-81.8280455,26.3390025,0</coordinates></Point><LookAt><longitude>-81.8280455</longitude><latitude>26.3390025</latitude><altitude>0</altitude><range>800</range><tilt>0</tilt><heading>0</heading></LookAt></Placemark><Placemark id="FBA005ABC9779C47"><name>M: Bradenton Yacht Club</name><Point><coordinates>-82.6117991,27.5251018,0</coordinates></Point><LookAt><longitude>-82.6117991</longitude><latitude>27.5251018</latitude><altitude>0</altitude><range>800</range><tilt>0</tilt><heading>0</heading></LookAt></Placemark><Placemark id="462A5C6A66B71DCF"><name>M: Brookside Marina</name><Point><coordinates>-81.7794300,26.1395604,0</coordinates></Point><LookAt><longitude>-81.7794300</longitude><latitude>26.1395604</latitude><altitude>0</altitude><range>800</range><tilt>0</tilt><heading>0</heading></LookAt></Placemark><Placemark id="66B2AEBC44C56C0D"><name>M: Burnt Store Marina</name><Point><coordinates>-82.0586868,26.7627883,0</coordinates></Point><LookAt><longitude>-82.0586868</longitude><latitude>26.7627883</latitude><altitude>0</altitude><range>800</range><tilt>0</tilt><heading>0</heading></LookAt></Placemark><Placemark id="99F21724B8F12093"><name>M: Caloosa Yacht &amp; Racquet Club Marina</name><Point><coordinates>-81.9184075,26.5642781,0</coordinates></Point><LookAt><longitude>-81.9184075</longitude><latitude>26.5642781</latitude><altitude>0</altitude><range>800</range><tilt>0</tilt><heading>0</heading></LookAt></Placemark><Placemark id="C0427BEFA818A362"><name>M: Calusa Island Marina &amp; Yacht Club</name><Point><coordinates>-81.6514363,25.9197202,0</coordinates></Point><LookAt><longitude>-81.6514363</longitude><latitude>25.9197202</latitude><altitude>0</altitude><range>800</range><tilt>0</tilt><heading>0</heading></LookAt></Placemark><Placemark id="4C8AC6258B9E3C39"><name>M: Cape Coral Yacht Club</name><Point><coordinates>-81.9514457,26.5428428,0</coordinates></Point><LookAt><longitude>-81.9514457</longitude><latitude>26.5428428</latitude><altitude>0</altitude><range>800</range><tilt>0</tilt><heading>0</heading></LookAt></Placemark><Placemark id="E596F72FB34F1078"><name>M: Captiva Landing Marina</name><Point><coordinates>-82.1896122,26.5277351,0</coordinates></Point><LookAt><longitude>-82.1896122</longitude><latitude>26.5277351</latitude><altitude>0</altitude><range>800</range><tilt>0</tilt><heading>0</heading></LookAt></Placemark><Placemark id="E7E8526134AD9223"><name>M: City of Fort Myers Yacht Basin</name><Point><coordinates>-81.8693038,26.6476634,0</coordinates></Point><LookAt><longitude>-81.8693038</longitude><latitude>26.6476634</latitude><altitude>0</altitude><range>800</range><tilt>0</tilt><heading>0</heading></LookAt></Placemark><Placemark id="ED3839B195F0FBA6"><name>M: Coconut Point Marina</name><Point><coordinates>-81.8421983,26.3987146,0</coordinates></Point><LookAt><longitude>-81.8421983</longitude><latitude>26.3987146</latitude><altitude>0</altitude><range>800</range><tilt>0</tilt><heading>0</heading></LookAt></Placemark><Placemark id="3C5424F0DA21CD1E"><name>M: Davis Islands Yacht Club</name><Point><coordinates>-82.4499825,27.9083573,0</coordinates></Point><LookAt><longitude>-82.4499825</longitude><latitude>27.9083573</latitude><altitude>0</altitude><range>800</range><tilt>0</tilt><heading>0</heading></LookAt></Placemark><Placemark id="A1C4AA30FEA8805C"><name>M: Fisherman's Village Yacht Basin</name><Point><coordinates>-82.0639131,26.9293387,0</coordinates></Point><LookAt><longitude>-82.0639131</longitude><latitude>26.9293387</latitude><altitude>0</altitude><range>800</range><tilt>0</tilt><heading>0</heading></LookAt></Placemark><Placemark id="551B58E5E4F2EA6D"><name>M: Freedom Boat Club</name><Point><coordinates>-82.4611904,27.1054460,0</coordinates></Point><LookAt><longitude>-82.4611904</longitude><latitude>27.1054460</latitude><altitude>0</altitude><range>800</range><tilt>0</tilt><heading>0</heading></LookAt></Placemark><Placemark id="1F3C464E63FF81EF"><name>M: Galati Yacht basin</name><Point><coordinates>-82.7214570,27.5266069,0</coordinates></Point><LookAt><longitude>-82.7214570</longitude><latitude>27.5266069</latitude><altitude>0</altitude><range>800</range><tilt>0</tilt><heading>0</heading></LookAt></Placemark><Placemark id="6015C63F6E83EDAB"><name>M: Gulfport Municipal Marina</name><Point><coordinates>-82.6958172,27.7400103,0</coordinates></Point><LookAt><longitude>-82.6958172</longitude><latitude>27.7400103</latitude><altitude>0</altitude><range>800</range><tilt>0</tilt><heading>0</heading></LookAt></Placemark><Placemark id="806770445733ED31"><name>M: Harbor Marina</name><Point><coordinates>-82.8047447,27.9670792,0</coordinates></Point><LookAt><longitude>-82.8047447</longitude><latitude>27.9670792</latitude><altitude>0</altitude><range>800</range><tilt>0</tilt><heading>0</heading></LookAt></Placemark><Placemark id="038F0E1B4B9EF501"><name>M: Harbor Marina</name><Point><coordinates>-82.8052024,27.9652552,0</coordinates></Point><LookAt><longitude>-82.8052024</longitude><latitude>27.9652552</latitude><altitude>0</altitude><range>800</range><tilt>0</tilt><heading>0</heading></LookAt></Placemark><Placemark id="CF3DDB365B1927B5"><name>M: Harborage Marina</name><Point><coordinates>-82.6353792,27.7598297,0</coordinates></Point><LookAt><longitude>-82.6353792</longitude><latitude>27.7598297</latitude><altitude>0</altitude><range>800</range><tilt>0</tilt><heading>0</heading></LookAt></Placemark><Placemark id="47BD180094E24AF7"><name>M: Home Port Marina</name><Point><coordinates>-82.7768397,28.0596234,0</coordinates></Point><LookAt><longitude>-82.7768397</longitude><latitude>28.0596234</latitude><altitude>0</altitude><range>800</range><tilt>0</tilt><heading>0</heading></LookAt></Placemark><Placemark id="D7BB5B26A8D0DDDE"><name>M: Hubbards Marina</name><Point><coordinates>-82.7823164,27.7846277,0</coordinates></Point><LookAt><longitude>-82.7823164</longitude><latitude>27.7846277</latitude><altitude>0</altitude><range>800</range><tilt>0</tilt><heading>0</heading></LookAt></Placemark><Placemark id="39708890786FB691"><name>M: Inn Marine</name><Point><coordinates>-82.2602885,26.7548844,0</coordinates></Point><LookAt><longitude>-82.2602885</longitude><latitude>26.7548844</latitude><altitude>0</altitude><range>800</range><tilt>0</tilt><heading>0</heading></LookAt></Placemark><Placemark id="FB9F31E00E532B89"><name>M: Isles Yacht Club</name><Point><coordinates>-82.0723239,26.9246379,0</coordinates></Point><LookAt><longitude>-82.0723239</longitude><latitude>26.9246379</latitude><altitude>0</altitude><range>800</range><tilt>0</tilt><heading>0</heading></LookAt></Placemark><Placemark id="605730ACC42FEF16"><name>M: Laishley Marina</name><Point><coordinates>-82.0515501,26.9394607,0</coordinates></Point><LookAt><longitude>-82.0515501</longitude><latitude>26.9394607</latitude><altitude>0</altitude><range>800</range><tilt>0</tilt><heading>0</heading></LookAt></Placemark><Placemark id="589DE4FA0001B43B"><name>M: Lighthouse Point Marina</name><Point><coordinates>-82.7598111,27.8118553,0</coordinates></Point><LookAt><longitude>-82.7598111</longitude><latitude>27.8118553</latitude><altitude>0</altitude><range>800</range><tilt>0</tilt><heading>0</heading></LookAt></Placemark><Placemark id="044DFF8C0B31E7D6"><name>M: Little Harbor Marina</name><Point><coordinates>-82.4698544,27.7252832,0</coordinates></Point><LookAt><longitude>-82.4698544</longitude><latitude>27.7252832</latitude><altitude>0</altitude><range>800</range><tilt>0</tilt><heading>0</heading></LookAt></Placemark><Placemark id="C2A290EAFF72F09D"><name>M: Loggerhead Marina Saint Pete</name><Point><coordinates>-82.6779452,27.7136989,0</coordinates></Point><LookAt><longitude>-82.6779452</longitude><latitude>27.7136989</latitude><altitude>0</altitude><range>800</range><tilt>0</tilt><heading>0</heading></LookAt></Placemark><Placemark id="CED2317445DD7C34"><name>M: M 1133020572</name><Point><coordinates>-82.7109994,27.5056685,0</coordinates></Point><LookAt><longitude>-82.7109994</longitude><latitude>27.5056685</latitude><altitude>0</altitude><range>800</range><tilt>0</tilt><heading>0</heading></LookAt></Placemark><Placemark id="4F69F57D82D18B4C"><name>M: M 11942544569</name><Point><coordinates>-82.7738601,28.1644083,0</coordinates></Point><LookAt><longitude>-82.7738601</longitude><latitude>28.1644083</latitude><altitude>0</altitude><range>800</range><tilt>0</tilt><heading>0</heading></LookAt></Placemark><Placemark id="C39787A6E03CE14B"><name>M: M 1232597369</name><Point><coordinates>-82.3129976,26.8747618,0</coordinates></Point><LookAt><longitude>-82.3129976</longitude><latitude>26.8747618</latitude><altitude>0</altitude><range>800</range><tilt>0</tilt><heading>0</heading></LookAt></Placemark><Placemark id="C40942331545BD77"><name>M: M 1234055620</name><Point><coordinates>-82.1541964,26.6629262,0</coordinates></Point><LookAt><longitude>-82.1541964</longitude><latitude>26.6629262</latitude><altitude>0</altitude><range>800</range><tilt>0</tilt><heading>0</heading></LookAt></Placemark><Placemark id="C5756DEEBB519E0E"><name>M: M 1234055726</name><Point><coordinates>-82.1547276,26.7012635,0</coordinates></Point><LookAt><longitude>-82.1547276</longitude><latitude>26.7012635</latitude><altitude>0</altitude><range>800</range><tilt>0</tilt><heading>0</heading></LookAt></Placemark><Placemark id="7662375B8B756369"><name>M: M 1234065276</name><Point><coordinates>-81.7501763,26.7284383,0</coordinates></Point><LookAt><longitude>-81.7501763</longitude><latitude>26.7284383</latitude><altitude>0</altitude><range>800</range><tilt>0</tilt><heading>0</heading></LookAt></Placemark><Placemark id="AE6E9BF3D736C8E7"><name>M: M 1234065277</name><Point><coordinates>-81.7610700,26.7135427,0</coordinates></Point><LookAt><longitude>-81.7610700</longitude><latitude>26.7135427</latitude><altitude>0</altitude><range>800</range><tilt>0</tilt><heading>0</heading></LookAt></Placemark><Placemark id="40BAEE281CAA1376"><name>M: M 1234065281</name><Point><coordinates>-81.9083339,26.6388404,0</coordinates></Point><LookAt><longitude>-81.9083339</longitude><latitude>26.6388404</latitude><altitude>0</altitude><range>800</range><tilt>0</tilt><heading>0</heading></LookAt></Placemark><Placemark id="6A399773BB47F3EB"><name>M: M 1234065282</name><Point><coordinates>-81.9176608,26.6284868,0</coordinates></Point><LookAt><longitude>-81.9176608</longitude><latitude>26.6284868</latitude><altitude>0</altitude><range>800</range><tilt>0</tilt><heading>0</heading></LookAt></Placemark><Placemark id="91AE38BC1D8AE188"><name>M: M 1234065283</name><Point><coordinates>-81.9219015,26.5381501,0</coordinates></Point><LookAt><longitude>-81.9219015</longitude><latitude>26.5381501</latitude><altitude>0</altitude><range>800</range><tilt>0</tilt><heading>0</heading></LookAt></Placemark><Placemark id="C7F83356D848662C"><name>M: M 1234065284</name><Point><coordinates>-81.9536975,26.5265187,0</coordinates></Point><LookAt><longitude>-81.9536975</longitude><latitude>26.5265187</latitude><altitude>0</altitude><range>800</range><tilt>0</tilt><heading>0</heading></LookAt></Placemark><Placemark id="8BC344ECFE764178"><name>M: M 1234065285</name><Point><coordinates>-81.9893285,26.4903179,0</coordinates></Point><LookAt><longitude>-81.9893285</longitude><latitude>26.4903179</latitude><altitude>0</altitude><range>800</range><tilt>0</tilt><heading>0</heading></LookAt></Placemark><Placemark id="14232ADD6E15FF6A"><name>M: M 1234065286</name><Point><coordinates>-82.0115258,26.4880309,0</coordinates></Point><LookAt><longitude>-82.0115258</longitude><latitude>26.4880309</latitude><altitude>0</altitude><range>800</range><tilt>0</tilt><heading>0</heading></LookAt></Placemark><Placemark id="B6A9FFE9F104DE62"><name>M: M 1234065287</name><Point><coordinates>-81.9527114,26.4590173,0</coordinates></Point><LookAt><longitude>-81.9527114</longitude><latitude>26.4590173</latitude><altitude>0</altitude><range>800</range><tilt>0</tilt><heading>0</heading></LookAt></Placemark><Placemark id="14B4E205685F692B"><name>M: M 1234065289</name><Point><coordinates>-81.9426634,26.4579938,0</coordinates></Point><LookAt><longitude>-81.9426634</longitude><latitude>26.4579938</latitude><altitude>0</altitude><range>800</range><tilt>0</tilt><heading>0</heading></LookAt></Placemark><Placemark id="2D5E10C3CCD30657"><name>M: M 1234065290</name><Point><coordinates>-81.9558164,26.4564828,0</coordinates></Point><LookAt><longitude>-81.9558164</longitude><latitude>26.4564828</latitude><altitude>0</altitude><range>800</range><tilt>0</tilt><heading>0</heading></LookAt></Placemark><Placemark id="45FFC5F3C517925E"><name>M: M 1234065295</name><Point><coordinates>-81.8988826,26.4134301,0</coordinates></Point><LookAt><longitude>-81.8988826</longitude><latitude>26.4134301</latitude><altitude>0</altitude><range>800</range><tilt>0</tilt><heading>0</heading></LookAt></Placemark><Placemark id="D49B7855E3792779"><name>M: M 1234065296</name><Point><coordinates>-81.8407723,26.4003015,0</coordinates></Point><LookAt><longitude>-81.8407723</longitude><latitude>26.4003015</latitude><altitude>0</altitude><range>800</range><tilt>0</tilt><heading>0</heading></LookAt></Placemark><Placemark id="74ED6CC6D97D8BD0"><name>M: M 12508625509</name><Point><coordinates>-81.5935385,25.9880031,0</coordinates></Point><LookAt><longitude>-81.5935385</longitude><latitude>25.9880031</latitude><altitude>0</altitude><range>800</range><tilt>0</tilt><heading>0</heading></LookAt></Placemark><Placemark id="79A52EAE9AF3353C"><name>M: M 140464923</name><Point><coordinates>-82.5460533,27.3331767,0</coordinates></Point><LookAt><longitude>-82.5460533</longitude><latitude>27.3331767</latitude><altitude>0</altitude><range>800</range><tilt>0</tilt><heading>0</heading></LookAt></Placemark><Placemark id="C62C0730235E1FF1"><name>M: M 1484667242</name><Point><coordinates>-81.8953327,26.9756998,0</coordinates></Point><LookAt><longitude>-81.8953327</longitude><latitude>26.9756998</latitude><altitude>0</altitude><range>800</range><tilt>0</tilt><heading>0</heading></LookAt></Placemark><Placemark id="78F39A201867F01D"><name>M: M 192559258</name><Point><coordinates>-82.7677560,27.8176565,0</coordinates></Point><LookAt><longitude>-82.7677560</longitude><latitude>27.8176565</latitude><altitude>0</altitude><range>800</range><tilt>0</tilt><heading>0</heading></LookAt></Placemark><Placemark id="86592B939088DFC8"><name>M: M 1929852624</name><Point><coordinates>-82.0129809,26.4888517,0</coordinates></Point><LookAt><longitude>-82.0129809</longitude><latitude>26.4888517</latitude><altitude>0</altitude><range>800</range><tilt>0</tilt><heading>0</heading></LookAt></Placemark><Placemark id="BC8D324BD63026B5"><name>M: M 2215632556</name><Point><coordinates>-82.4518190,27.9401270,0</coordinates></Point><LookAt><longitude>-82.4518190</longitude><latitude>27.9401270</latitude><altitude>0</altitude><range>800</range><tilt>0</tilt><heading>0</heading></LookAt></Placemark><Placemark id="1BFF2D851AE74B18"><name>M: M 2215652465</name><Point><coordinates>-82.4553940,27.9377660,0</coordinates></Point><LookAt><longitude>-82.4553940</longitude><latitude>27.9377660</latitude><altitude>0</altitude><range>800</range><tilt>0</tilt><heading>0</heading></LookAt></Placemark><Placemark id="DB4DC01B878DEFD3"><name>M: M 293082546</name><Point><coordinates>-81.5363655,28.3863802,0</coordinates></Point><LookAt><longitude>-81.5363655</longitude><latitude>28.3863802</latitude><altitude>0</altitude><range>800</range><tilt>0</tilt><heading>0</heading></LookAt></Placemark><Placemark id="4E535AFE8F5F6C08"><name>M: M 3524802010</name><Point><coordinates>-82.4845493,27.8229498,0</coordinates></Point><LookAt><longitude>-82.4845493</longitude><latitude>27.8229498</latitude><altitude>0</altitude><range>800</range><tilt>0</tilt><heading>0</heading></LookAt></Placemark><Placemark id="9131E1DA89B002E7"><name>M: M 44640690</name><Point><coordinates>-82.7289235,27.9360485,0</coordinates></Point><LookAt><longitude>-82.7289235</longitude><latitude>27.9360485</latitude><altitude>0</altitude><range>800</range><tilt>0</tilt><heading>0</heading></LookAt></Placemark><Placemark id="81DF20E58FFA08AA"><name>M: M 470702435</name><Point><coordinates>-82.5341290,27.8853462,0</coordinates></Point><LookAt><longitude>-82.5341290</longitude><latitude>27.8853462</latitude><altitude>0</altitude><range>800</range><tilt>0</tilt><heading>0</heading></LookAt></Placemark><Placemark id="E0A2623A1D8B1F39"><name>M: M 493297685</name><Point><coordinates>-81.7288133,25.9735395,0</coordinates></Point><LookAt><longitude>-81.7288133</longitude><latitude>25.9735395</latitude><altitude>0</altitude><range>800</range><tilt>0</tilt><heading>0</heading></LookAt></Placemark><Placemark id="C4A6D797E6FD5FDD"><name>M: M 554136119</name><Point><coordinates>-82.1252474,26.5925616,0</coordinates></Point><LookAt><longitude>-82.1252474</longitude><latitude>26.5925616</latitude><altitude>0</altitude><range>800</range><tilt>0</tilt><heading>0</heading></LookAt></Placemark><Placemark id="3F6CAE6F80896BC3"><name>M: M 563870726</name><Point><coordinates>-82.6313581,27.7723339,0</coordinates></Point><LookAt><longitude>-82.6313581</longitude><latitude>27.7723339</latitude><altitude>0</altitude><range>800</range><tilt>0</tilt><heading>0</heading></LookAt></Placemark><Placemark id="C0416C86344DE7D2"><name>M: M 768853031</name><Point><coordinates>-82.4913037,27.4450176,0</coordinates></Point><LookAt><longitude>-82.4913037</longitude><latitude>27.4450176</latitude><altitude>0</altitude><range>800</range><tilt>0</tilt><heading>0</heading></LookAt></Placemark><Placemark id="37C8E1B0525E705B"><name>M: M 8461474099</name><Point><coordinates>-82.4639798,27.1120168,0</coordinates></Point><LookAt><longitude>-82.4639798</longitude><latitude>27.1120168</latitude><altitude>0</altitude><range>800</range><tilt>0</tilt><heading>0</heading></LookAt></Placemark><Placemark id="0AB62980C1574DF1"><name>M: M 889379511</name><Point><coordinates>-82.6293302,27.7730142,0</coordinates></Point><LookAt><longitude>-82.6293302</longitude><latitude>27.7730142</latitude><altitude>0</altitude><range>800</range><tilt>0</tilt><heading>0</heading></LookAt></Placemark><Placemark id="91D76F4E10DFBD54"><name>M: Madeira Beach Municipal Marina</name><Point><coordinates>-82.7959026,27.8039736,0</coordinates></Point><LookAt><longitude>-82.7959026</longitude><latitude>27.8039736</latitude><altitude>0</altitude><range>800</range><tilt>0</tilt><heading>0</heading></LookAt></Placemark><Placemark id="2EE3809AE157E27A"><name>M: Marco Island Marina</name><Point><coordinates>-81.7127150,25.9609741,0</coordinates></Point><LookAt><longitude>-81.7127150</longitude><latitude>25.9609741</latitude><altitude>0</altitude><range>800</range><tilt>0</tilt><heading>0</heading></LookAt></Placemark><Placemark id="02986BAC9D58417B"><name>M: Marina @ Bayshore Gardens</name><Point><coordinates>-82.5859080,27.4202866,0</coordinates></Point><LookAt><longitude>-82.5859080</longitude><latitude>27.4202866</latitude><altitude>0</altitude><range>800</range><tilt>0</tilt><heading>0</heading></LookAt></Placemark><Placemark id="DC9DB22381DAE636"><name>M: Marjorie Park Marina</name><Point><coordinates>-82.4541047,27.9307781,0</coordinates></Point><LookAt><longitude>-82.4541047</longitude><latitude>27.9307781</latitude><altitude>0</altitude><range>800</range><tilt>0</tilt><heading>0</heading></LookAt></Placemark><Placemark id="8D974B8A84C204BF"><name>M: Marker 1 Marina</name><Point><coordinates>-82.7863152,28.0503864,0</coordinates></Point><LookAt><longitude>-82.7863152</longitude><latitude>28.0503864</latitude><altitude>0</altitude><range>800</range><tilt>0</tilt><heading>0</heading></LookAt></Placemark><Placemark id="F4A6B92C2233ADE0"><name>M: Maximo Marina - Saint Petersburg/Tampa</name><Point><coordinates>-82.6823903,27.7243732,0</coordinates></Point><LookAt><longitude>-82.6823903</longitude><latitude>27.7243732</latitude><altitude>0</altitude><range>800</range><tilt>0</tilt><heading>0</heading></LookAt></Placemark><Placemark id="CECECF7A67B07A0D"><name>M: Mullock Creek Marina</name><Point><coordinates>-81.8513687,26.4734951,0</coordinates></Point><LookAt><longitude>-81.8513687</longitude><latitude>26.4734951</latitude><altitude>0</altitude><range>800</range><tilt>0</tilt><heading>0</heading></LookAt></Placemark><Placemark id="CE32F65BBC0C365A"><name>M: Municipal Marina</name><Point><coordinates>-82.7922848,28.0124558,0</coordinates></Point><LookAt><longitude>-82.7922848</longitude><latitude>28.0124558</latitude><altitude>0</altitude><range>800</range><tilt>0</tilt><heading>0</heading></LookAt></Placemark><Placemark id="BC9BCCA7568DC5BB"><name>M: Naples Boat Club</name><Point><coordinates>-81.7910926,26.1379145,0</coordinates></Point><LookAt><longitude>-81.7910926</longitude><latitude>26.1379145</latitude><altitude>0</altitude><range>800</range><tilt>0</tilt><heading>0</heading></LookAt></Placemark><Placemark id="9F9BD44081A09F3D"><name>M: Naples City Dock</name><Point><coordinates>-81.7932941,26.1322842,0</coordinates></Point><LookAt><longitude>-81.7932941</longitude><latitude>26.1322842</latitude><altitude>0</altitude><range>800</range><tilt>0</tilt><heading>0</heading></LookAt></Placemark><Placemark id="5950F9CF5EF828D7"><name>M: Naples Sailing &amp; Yacht Club</name><Point><coordinates>-81.7888299,26.1379633,0</coordinates></Point><LookAt><longitude>-81.7888299</longitude><latitude>26.1379633</latitude><altitude>0</altitude><range>800</range><tilt>0</tilt><heading>0</heading></LookAt></Placemark><Placemark id="F1EF32997F46E58E"><name>M: Naples Yacht Club</name><Point><coordinates>-81.7944015,26.1304273,0</coordinates></Point><LookAt><longitude>-81.7944015</longitude><latitude>26.1304273</latitude><altitude>0</altitude><range>800</range><tilt>0</tilt><heading>0</heading></LookAt></Placemark><Placemark id="01F02B4D266E8A4B"><name>M: Nav-A-Gator Marina</name><Point><coordinates>-82.0025130,27.0612458,0</coordinates></Point><LookAt><longitude>-82.0025130</longitude><latitude>27.0612458</latitude><altitude>0</altitude><range>800</range><tilt>0</tilt><heading>0</heading></LookAt></Placemark><Placemark id="FAA696669B7CE817"><name>M: O'Neil's Marina</name><Point><coordinates>-82.6805545,27.7074959,0</coordinates></Point><LookAt><longitude>-82.6805545</longitude><latitude>27.7074959</latitude><altitude>0</altitude><range>800</range><tilt>0</tilt><heading>0</heading></LookAt></Placemark><Placemark id="B9D5B76CC865A032"><name>M: Park Shore Marina</name><Point><coordinates>-81.8123155,26.1979370,0</coordinates></Point><LookAt><longitude>-81.8123155</longitude><latitude>26.1979370</latitude><altitude>0</altitude><range>800</range><tilt>0</tilt><heading>0</heading></LookAt></Placemark><Placemark id="C2F78F6585631617"><name>M: Piper's Marine</name><Point><coordinates>-82.5863879,27.9967230,0</coordinates></Point><LookAt><longitude>-82.5863879</longitude><latitude>27.9967230</latitude><altitude>0</altitude><range>800</range><tilt>0</tilt><heading>0</heading></LookAt></Placemark><Placemark id="A9D3D6A7E84E5954"><name>M: Pointe Marina</name><Point><coordinates>-82.4546185,27.9393175,0</coordinates></Point><LookAt><longitude>-82.4546185</longitude><latitude>27.9393175</latitude><altitude>0</altitude><range>800</range><tilt>0</tilt><heading>0</heading></LookAt></Placemark><Placemark id="2A239BFB2E2E2613"><name>M: Port of the Islands Marina</name><Point><coordinates>-81.5107725,25.9563367,0</coordinates></Point><LookAt><longitude>-81.5107725</longitude><latitude>25.9563367</latitude><altitude>0</altitude><range>800</range><tilt>0</tilt><heading>0</heading></LookAt></Placemark><Placemark id="5FE8A3D0E973C327"><name>M: Regatta Pointe Marina</name><Point><coordinates>-82.5756067,27.5099673,0</coordinates></Point><LookAt><longitude>-82.5756067</longitude><latitude>27.5099673</latitude><altitude>0</altitude><range>800</range><tilt>0</tilt><heading>0</heading></LookAt></Placemark><Placemark id="FDB86DE8EEE0ABE1"><name>M: Riviera Marina</name><Point><coordinates>-82.0537200,26.8886769,0</coordinates></Point><LookAt><longitude>-82.0537200</longitude><latitude>26.8886769</latitude><altitude>0</altitude><range>800</range><tilt>0</tilt><heading>0</heading></LookAt></Placemark><Placemark id="569331902D514333"><name>M: Safety Harbor Marina</name><Point><coordinates>-82.6874995,27.9892669,0</coordinates></Point><LookAt><longitude>-82.6874995</longitude><latitude>27.9892669</latitude><altitude>0</altitude><range>800</range><tilt>0</tilt><heading>0</heading></LookAt></Placemark><Placemark id="E19A9B65F5946671"><name>M: Shell Point Marina</name><Point><coordinates>-81.9991945,26.5169042,0</coordinates></Point><LookAt><longitude>-81.9991945</longitude><latitude>26.5169042</latitude><altitude>0</altitude><range>800</range><tilt>0</tilt><heading>0</heading></LookAt></Placemark><Placemark id="C43FCCAE0FFEAB53"><name>M: Snell Isle Marina</name><Point><coordinates>-82.6101480,27.7997190,0</coordinates></Point><LookAt><longitude>-82.6101480</longitude><latitude>27.7997190</latitude><altitude>0</altitude><range>800</range><tilt>0</tilt><heading>0</heading></LookAt></Placemark><Placemark id="C76DCD845BC52D9B"><name>M: St Petersburg Municipal Marina</name><Point><coordinates>-82.6290370,27.7704574,0</coordinates></Point><LookAt><longitude>-82.6290370</longitude><latitude>27.7704574</latitude><altitude>0</altitude><range>800</range><tilt>0</tilt><heading>0</heading></LookAt></Placemark><Placemark id="2BDAC91A4575EF6D"><name>M: St Petersburg Sailing Center</name><Point><coordinates>-82.6315040,27.7694894,0</coordinates></Point><LookAt><longitude>-82.6315040</longitude><latitude>27.7694894</latitude><altitude>0</altitude><range>800</range><tilt>0</tilt><heading>0</heading></LookAt></Placemark><Placemark id="DE2DB827A7DF1FB4"><name>M: St. Petersburg Municipal Marina</name><Point><coordinates>-82.6279038,27.7717283,0</coordinates></Point><LookAt><longitude>-82.6279038</longitude><latitude>27.7717283</latitude><altitude>0</altitude><range>800</range><tilt>0</tilt><heading>0</heading></LookAt></Placemark><Placemark id="9B12AC993F8FDDF5"><name>M: Tarpon Point Marina</name><Point><coordinates>-81.9998993,26.5391764,0</coordinates></Point><LookAt><longitude>-81.9998993</longitude><latitude>26.5391764</latitude><altitude>0</altitude><range>800</range><tilt>0</tilt><heading>0</heading></LookAt></Placemark><Placemark id="D0B7C586B22EA388"><name>M: Tarpon Pointe Marina</name><Point><coordinates>-82.5563670,27.4974285,0</coordinates></Point><LookAt><longitude>-82.5563670</longitude><latitude>27.4974285</latitude><altitude>0</altitude><range>800</range><tilt>0</tilt><heading>0</heading></LookAt></Placemark><Placemark id="BCDBB42709793F28"><name>M: Tarpon Springs City Marina</name><Point><coordinates>-82.7579354,28.1558516,0</coordinates></Point><LookAt><longitude>-82.7579354</longitude><latitude>28.1558516</latitude><altitude>0</altitude><range>800</range><tilt>0</tilt><heading>0</heading></LookAt></Placemark><Placemark id="4297545CE9515AE1"><name>M: Tween Waters Marina</name><Point><coordinates>-82.1890847,26.5104729,0</coordinates></Point><LookAt><longitude>-82.1890847</longitude><latitude>26.5104729</latitude><altitude>0</altitude><range>800</range><tilt>0</tilt><heading>0</heading></LookAt></Placemark><Placemark id="F2D86DD4520F9593"><name>M: Twin Dolphin Marina</name><Point><coordinates>-82.5732790,27.5000799,0</coordinates></Point><LookAt><longitude>-82.5732790</longitude><latitude>27.5000799</latitude><altitude>0</altitude><range>800</range><tilt>0</tilt><heading>0</heading></LookAt></Placemark><Placemark id="1B0E67B35667A0B3"><name>M: Uncle Henry's Marina</name><Point><coordinates>-82.2753503,26.8032655,0</coordinates></Point><LookAt><longitude>-82.2753503</longitude><latitude>26.8032655</latitude><altitude>0</altitude><range>800</range><tilt>0</tilt><heading>0</heading></LookAt></Placemark><Placemark id="B587CA4782EAB266"><name>M: USF Haney Landing Sailing Cener</name><Point><coordinates>-82.6348134,27.7619064,0</coordinates></Point><LookAt><longitude>-82.6348134</longitude><latitude>27.7619064</latitude><altitude>0</altitude><range>800</range><tilt>0</tilt><heading>0</heading></LookAt></Placemark><Placemark id="594B429F4686DE8C"><name>M: Vinoy Marina</name><Point><coordinates>-82.6288077,27.7771572,0</coordinates></Point><LookAt><longitude>-82.6288077</longitude><latitude>27.7771572</latitude><altitude>0</altitude><range>800</range><tilt>0</tilt><heading>0</heading></LookAt></Placemark><Placemark id="5584A4A8DC0710B9"><name>M: Walker's Hideaway Marina of Marco Island</name><Point><coordinates>-81.7217535,25.9568533,0</coordinates></Point><LookAt><longitude>-81.7217535</longitude><latitude>25.9568533</latitude><altitude>0</altitude><range>800</range><tilt>0</tilt><heading>0</heading></LookAt></Placemark><Placemark id="C14C66562141CEE5"><name>M: Waterfront</name><Point><coordinates>-82.6830300,27.7133521,0</coordinates></Point><LookAt><longitude>-82.6830300</longitude><latitude>27.7133521</latitude><altitude>0</altitude><range>800</range><tilt>0</tilt><heading>0</heading></LookAt></Placemark><Placemark id="A8EF74A7B68674AB"><name>M: Yacht Harbour Marina</name><Point><coordinates>-82.1967413,26.5478091,0</coordinates></Point><LookAt><longitude>-82.1967413</longitude><latitude>26.5478091</latitude><altitude>0</altitude><range>800</range><tilt>0</tilt><heading>0</heading></LookAt></Placemark><Placemark id="88678C8C35D12D3A"><name>MO: Apollo Beach</name><Point><coordinates>-82.4253680,27.7785888,0</coordinates></Point><LookAt><longitude>-82.4253680</longitude><latitude>27.7785888</latitude><altitude>0</altitude><range>800</range><tilt>0</tilt><heading>0</heading></LookAt></Placemark><Placemark id="DB4D3ACD6A5C731D"><name>MO: Charlotte</name><Point><coordinates>-82.3192271,26.6386274,0</coordinates></Point><LookAt><longitude>-82.3192271</longitude><latitude>26.6386274</latitude><altitude>0</altitude><range>800</range><tilt>0</tilt><heading>0</heading></LookAt></Placemark><Placemark id="C5D708B3B1684DF8"><name>MO: Eastern Tampa Fairway Anchorage</name><Point><coordinates>-82.9656661,27.6319804,0</coordinates></Point><LookAt><longitude>-82.9656661</longitude><latitude>27.6319804</latitude><altitude>0</altitude><range>800</range><tilt>0</tilt><heading>0</heading></LookAt></Placemark><Placemark id="B6E4264F021DCED9"><name>MO: Hillsborough Bay</name><Point><coordinates>-82.4444444,27.9104167,0</coordinates></Point><LookAt><longitude>-82.4444444</longitude><latitude>27.9104167</latitude><altitude>0</altitude><range>800</range><tilt>0</tilt><heading>0</heading></LookAt></Placemark><Placemark id="AB7FAD5D765E7FD2"><name>MO: Interbay Peninsula</name><Point><coordinates>-82.5233610,27.7915032,0</coordinates></Point><LookAt><longitude>-82.5233610</longitude><latitude>27.7915032</latitude><altitude>0</altitude><range>800</range><tilt>0</tilt><heading>0</heading></LookAt></Placemark><Placemark id="696307A9C1D37356"><name>MO: Manatee River</name><Point><coordinates>-82.6155252,27.5228673,0</coordinates></Point><LookAt><longitude>-82.6155252</longitude><latitude>27.5228673</latitude><altitude>0</altitude><range>800</range><tilt>0</tilt><heading>0</heading></LookAt></Placemark><Placemark id="45B08C1899330E6C"><name>MO: Marco Island</name><Point><coordinates>-81.7250515,25.9664106,0</coordinates></Point><LookAt><longitude>-81.7250515</longitude><latitude>25.9664106</latitude><altitude>0</altitude><range>800</range><tilt>0</tilt><heading>0</heading></LookAt></Placemark><Placemark id="DAF5D1217D541CE4"><name>MO: MO 13668083222</name><Point><coordinates>-82.6338613,27.7581323,0</coordinates></Point><LookAt><longitude>-82.6338613</longitude><latitude>27.7581323</latitude><altitude>0</altitude><range>800</range><tilt>0</tilt><heading>0</heading></LookAt></Placemark><Placemark id="4DEF5C09B2283E17"><name>MO: MO 1488572247</name><Point><coordinates>-82.6306364,27.7619950,0</coordinates></Point><LookAt><longitude>-82.6306364</longitude><latitude>27.7619950</latitude><altitude>0</altitude><range>800</range><tilt>0</tilt><heading>0</heading></LookAt></Placemark><Placemark id="1685DEEBC102DE65"><name>MO: MO 1491368042</name><Point><coordinates>-82.6352027,27.7551328,0</coordinates></Point><LookAt><longitude>-82.6352027</longitude><latitude>27.7551328</latitude><altitude>0</altitude><range>800</range><tilt>0</tilt><heading>0</heading></LookAt></Placemark><Placemark id="724B2687216C9CB6"><name>MO: MO 1491452132</name><Point><coordinates>-82.6336599,27.7566990,0</coordinates></Point><LookAt><longitude>-82.6336599</longitude><latitude>27.7566990</latitude><altitude>0</altitude><range>800</range><tilt>0</tilt><heading>0</heading></LookAt></Placemark><Placemark id="38D4F9D4C9740DF3"><name>MO: MO 2048760178</name><Point><coordinates>-81.6912087,26.7233442,0</coordinates></Point><LookAt><longitude>-81.6912087</longitude><latitude>26.7233442</latitude><altitude>0</altitude><range>800</range><tilt>0</tilt><heading>0</heading></LookAt></Placemark><Placemark id="88947B40F250D306"><name>MO: MO 211797606</name><Point><coordinates>-82.4503592,27.9405879,0</coordinates></Point><LookAt><longitude>-82.4503592</longitude><latitude>27.9405879</latitude><altitude>0</altitude><range>800</range><tilt>0</tilt><heading>0</heading></LookAt></Placemark><Placemark id="DC2903410B8FC01C"><name>MO: MO 300882433</name><Point><coordinates>-81.8732419,26.6518289,0</coordinates></Point><LookAt><longitude>-81.8732419</longitude><latitude>26.6518289</latitude><altitude>0</altitude><range>800</range><tilt>0</tilt><heading>0</heading></LookAt></Placemark><Placemark id="05F7F837E357675E"><name>MO: MO 429789969</name><Point><coordinates>-81.8819434,26.6365046,0</coordinates></Point><LookAt><longitude>-81.8819434</longitude><latitude>26.6365046</latitude><altitude>0</altitude><range>800</range><tilt>0</tilt><heading>0</heading></LookAt></Placemark><Placemark id="64DF3D3B919939B4"><name>MO: MO 450899550</name><Point><coordinates>-81.9225312,26.6241458,0</coordinates></Point><LookAt><longitude>-81.9225312</longitude><latitude>26.6241458</latitude><altitude>0</altitude><range>800</range><tilt>0</tilt><heading>0</heading></LookAt></Placemark><Placemark id="183976EDD2CC62B5"><name>MO: MO 450899654</name><Point><coordinates>-81.9201211,26.6242186,0</coordinates></Point><LookAt><longitude>-81.9201211</longitude><latitude>26.6242186</latitude><altitude>0</altitude><range>800</range><tilt>0</tilt><heading>0</heading></LookAt></Placemark><Placemark id="594B0E5B7F32BCC9"><name>MO: MO 493596481</name><Point><coordinates>-81.7842576,26.1024400,0</coordinates></Point><LookAt><longitude>-81.7842576</longitude><latitude>26.1024400</latitude><altitude>0</altitude><range>800</range><tilt>0</tilt><heading>0</heading></LookAt></Placemark><Placemark id="91C7FF6F7A443291"><name>MO: MO 567218802</name><Point><coordinates>-81.9455497,28.0779518,0</coordinates></Point><LookAt><longitude>-81.9455497</longitude><latitude>28.0779518</latitude><altitude>0</altitude><range>800</range><tilt>0</tilt><heading>0</heading></LookAt></Placemark><Placemark id="728CF3371A646D7B"><name>MO: MO 610738452</name><Point><coordinates>-81.6894485,25.9046800,0</coordinates></Point><LookAt><longitude>-81.6894485</longitude><latitude>25.9046800</latitude><altitude>0</altitude><range>800</range><tilt>0</tilt><heading>0</heading></LookAt></Placemark><Placemark id="6C90300340170A98"><name>MO: Mullet Key</name><Point><coordinates>-82.6328779,27.6474069,0</coordinates></Point><LookAt><longitude>-82.6328779</longitude><latitude>27.6474069</latitude><altitude>0</altitude><range>800</range><tilt>0</tilt><heading>0</heading></LookAt></Placemark><Placemark id="04A5D5FF1F0E59C3"><name>MO: Pier 60 Fishing Pier</name><Point><coordinates>-82.8300469,27.9773873,0</coordinates></Point><LookAt><longitude>-82.8300469</longitude><latitude>27.9773873</latitude><altitude>0</altitude><range>800</range><tilt>0</tilt><heading>0</heading></LookAt></Placemark><Placemark id="C5E82E9F8D024F8D"><name>MO: Pier 60 Fishing Pier</name><Point><coordinates>-82.8316891,27.9776336,0</coordinates></Point><LookAt><longitude>-82.8316891</longitude><latitude>27.9776336</latitude><altitude>0</altitude><range>800</range><tilt>0</tilt><heading>0</heading></LookAt></Placemark><Placemark id="09BDBD03E1016B81"><name>MO: Port Tampa</name><Point><coordinates>-82.5708368,27.8394496,0</coordinates></Point><LookAt><longitude>-82.5708368</longitude><latitude>27.8394496</latitude><altitude>0</altitude><range>800</range><tilt>0</tilt><heading>0</heading></LookAt></Placemark><Placemark id="89B57B21882B3D06"><name>MO: Quarantine Anchorage</name><Point><coordinates>-82.4976357,27.7831036,0</coordinates></Point><LookAt><longitude>-82.4976357</longitude><latitude>27.7831036</latitude><altitude>0</altitude><range>800</range><tilt>0</tilt><heading>0</heading></LookAt></Placemark></Document></kml>