<?xml version='1.0' encoding='utf-8'?>
<kml xmlns="http://www.opengis.net/kml/2.2"><Document><name>Candidates MA</name><Placemark id="DF393C850392A053"><name>M: Allen Harbor Marina</name><Point><coordinates>-71.4119682,41.6201596,0</coordinates></Point><LookAt><longitude>-71.4119682</longitude><latitude>41.6201596</latitude><altitude>0</altitude><range>800</range><tilt>0</tilt><heading>0</heading></LookAt></Placemark><Placemark id="65705433EF979F83"><name>M: Alofsin Pier</name><Point><coordinates>-71.3347569,41.4789674,0</coordinates></Point><LookAt><longitude>-71.3347569</longitude><latitude>41.4789674</latitude><altitude>0</altitude><range>800</range><tilt>0</tilt><heading>0</heading></LookAt></Placemark><Placemark id="F328E18044D8DC14"><name>M: Bardens Boatyard</name><Point><coordinates>-70.7616479,41.7042586,0</coordinates></Point><LookAt><longitude>-70.7616479</longitude><latitude>41.7042586</latitude><altitude>0</altitude><range>800</range><tilt>0</tilt><heading>0</heading></LookAt></Placemark><Placemark id="09D2F4192478F0BB"><name>M: Bass Haven Yacht Club</name><Point><coordinates>-70.8868485,42.5542913,0</coordinates></Point><LookAt><longitude>-70.8868485</longitude><latitude>42.5542913</latitude><altitude>0</altitude><range>800</range><tilt>0</tilt><heading>0</heading></LookAt></Placemark><Placemark id="A2C816A03D2FA304"><name>M: Battery Wharf Marina</name><Point><coordinates>-71.0506883,42.3673532,0</coordinates></Point><LookAt><longitude>-71.0506883</longitude><latitude>42.3673532</latitude><altitude>0</altitude><range>800</range><tilt>0</tilt><heading>0</heading></LookAt></Placemark><Placemark id="60EF62040ED85F1B"><name>M: Bay Pointe Marina</name><Point><coordinates>-70.9755525,42.2497556,0</coordinates></Point><LookAt><longitude>-70.9755525</longitude><latitude>42.2497556</latitude><altitude>0</altitude><range>800</range><tilt>0</tilt><heading>0</heading></LookAt></Placemark><Placemark id="79ED8CFB3F5104DC"><name>M: Boston Harbor Shipyard &amp; Marina</name><Point><coordinates>-71.0333352,42.3626441,0</coordinates></Point><LookAt><longitude>-71.0333352</longitude><latitude>42.3626441</latitude><altitude>0</altitude><range>800</range><tilt>0</tilt><heading>0</heading></LookAt></Placemark><Placemark id="7E2CE31D2B528063"><name>M: Boston Harbor Yacht Club</name><Point><coordinates>-71.0284262,42.3316164,0</coordinates></Point><LookAt><longitude>-71.0284262</longitude><latitude>42.3316164</latitude><altitude>0</altitude><range>800</range><tilt>0</tilt><heading>0</heading></LookAt></Placemark><Placemark id="944A2D38F2B9DC5F"><name>M: Boston Sailing Center</name><Point><coordinates>-71.0486749,42.3630117,0</coordinates></Point><LookAt><longitude>-71.0486749</longitude><latitude>42.3630117</latitude><altitude>0</altitude><range>800</range><tilt>0</tilt><heading>0</heading></LookAt></Placemark><Placemark id="8F9E4B11B1E2D87B"><name>M: Boston Waterboat Marina</name><Point><coordinates>-71.0484174,42.3607866,0</coordinates></Point><LookAt><longitude>-71.0484174</longitude><latitude>42.3607866</latitude><altitude>0</altitude><range>800</range><tilt>0</tilt><heading>0</heading></LookAt></Placemark><Placemark id="4029DAA2408839DC"><name>M: Bourne Marina</name><Point><coordinates>-70.6186476,41.7449512,0</coordinates></Point><LookAt><longitude>-70.6186476</longitude><latitude>41.7449512</latitude><altitude>0</altitude><range>800</range><tilt>0</tilt><heading>0</heading></LookAt></Placemark><Placemark id="43302DE0CC4A52F0"><name>M: Bowen's Wharf Marina</name><Point><coordinates>-71.3171339,41.4869367,0</coordinates></Point><LookAt><longitude>-71.3171339</longitude><latitude>41.4869367</latitude><altitude>0</altitude><range>800</range><tilt>0</tilt><heading>0</heading></LookAt></Placemark><Placemark id="326A27DE93701A4B"><name>M: Braintree Yacht Club</name><Point><coordinates>-70.9678402,42.2242902,0</coordinates></Point><LookAt><longitude>-70.9678402</longitude><latitude>42.2242902</latitude><altitude>0</altitude><range>800</range><tilt>0</tilt><heading>0</heading></LookAt></Placemark><Placemark id="A0DD229C7BF7B697"><name>M: Brewer's Cove Haven Marina</name><Point><coordinates>-71.3515840,41.7516686,0</coordinates></Point><LookAt><longitude>-71.3515840</longitude><latitude>41.7516686</latitude><altitude>0</altitude><range>800</range><tilt>0</tilt><heading>0</heading></LookAt></Placemark><Placemark id="4278396C0BADEF03"><name>M: Bristol Marine</name><Point><coordinates>-71.2897911,41.6767784,0</coordinates></Point><LookAt><longitude>-71.2897911</longitude><latitude>41.6767784</latitude><altitude>0</altitude><range>800</range><tilt>0</tilt><heading>0</heading></LookAt></Placemark><Placemark id="97711EC27CEE7E40"><name>M: Brown's Marina</name><Point><coordinates>-70.6506543,42.6119647,0</coordinates></Point><LookAt><longitude>-70.6506543</longitude><latitude>42.6119647</latitude><altitude>0</altitude><range>800</range><tilt>0</tilt><heading>0</heading></LookAt></Placemark><Placemark id="F00E9E9DCD33B972"><name>M: Cape Cod Canal Access</name><Point><coordinates>-70.6151644,41.7440486,0</coordinates></Point><LookAt><longitude>-70.6151644</longitude><latitude>41.7440486</latitude><altitude>0</altitude><range>800</range><tilt>0</tilt><heading>0</heading></LookAt></Placemark><Placemark id="0A422A3D2C4581C0"><name>M: Charles River Yacht Club</name><Point><coordinates>-71.0848824,42.3594578,0</coordinates></Point><LookAt><longitude>-71.0848824</longitude><latitude>42.3594578</latitude><altitude>0</altitude><range>800</range><tilt>0</tilt><heading>0</heading></LookAt></Placemark><Placemark id="D3165CAEBB1A00B4"><name>M: Charles Riverboat Company</name><Point><coordinates>-71.0759859,42.3687832,0</coordinates></Point><LookAt><longitude>-71.0759859</longitude><latitude>42.3687832</latitude><altitude>0</altitude><range>800</range><tilt>0</tilt><heading>0</heading></LookAt></Placemark><Placemark id="BA72D041A2FF2AB5"><name>M: Charlesgate Yacht Club</name><Point><coordinates>-71.0740144,42.3666774,0</coordinates></Point><LookAt><longitude>-71.0740144</longitude><latitude>42.3666774</latitude><altitude>0</altitude><range>800</range><tilt>0</tilt><heading>0</heading></LookAt></Placemark><Placemark id="ABFF5834F5ECCDDE"><name>M: Charlestown Marina</name><Point><coordinates>-71.0493605,42.3744878,0</coordinates></Point><LookAt><longitude>-71.0493605</longitude><latitude>42.3744878</latitude><altitude>0</altitude><range>800</range><tilt>0</tilt><heading>0</heading></LookAt></Placemark><Placemark id="B2B2C49FE5F81A6A"><name>M: Chatham Yacht Basin</name><Point><coordinates>-69.9826519,41.6765993,0</coordinates></Point><LookAt><longitude>-69.9826519</longitude><latitude>41.6765993</latitude><altitude>0</altitude><range>800</range><tilt>0</tilt><heading>0</heading></LookAt></Placemark><Placemark id="9E22A60C5BF9F042"><name>M: Church Street Marina</name><Point><coordinates>-71.2789371,41.6677718,0</coordinates></Point><LookAt><longitude>-71.2789371</longitude><latitude>41.6677718</latitude><altitude>0</altitude><range>800</range><tilt>0</tilt><heading>0</heading></LookAt></Placemark><Placemark id="4526D296CE4986A7"><name>M: Coasters Harbor Island Marina</name><Point><coordinates>-71.3259016,41.5050583,0</coordinates></Point><LookAt><longitude>-71.3259016</longitude><latitude>41.5050583</latitude><altitude>0</altitude><range>800</range><tilt>0</tilt><heading>0</heading></LookAt></Placemark><Placemark id="4A2A4F64E0D0CF2F"><name>M: Cohasset Harbor Marina</name><Point><coordinates>-70.7853911,42.2391139,0</coordinates></Point><LookAt><longitude>-70.7853911</longitude><latitude>42.2391139</latitude><altitude>0</altitude><range>800</range><tilt>0</tilt><heading>0</heading></LookAt></Placemark><Placemark id="C22317740FD42868"><name>M: Cohasset Yacht Club</name><Point><coordinates>-70.7891008,42.2425387,0</coordinates></Point><LookAt><longitude>-70.7891008</longitude><latitude>42.2425387</latitude><altitude>0</altitude><range>800</range><tilt>0</tilt><heading>0</heading></LookAt></Placemark><Placemark id="1D34FA724AA89561"><name>M: Cole Parkway Marina</name><Point><coordinates>-70.7227312,42.1945981,0</coordinates></Point><LookAt><longitude>-70.7227312</longitude><latitude>42.1945981</latitude><altitude>0</altitude><range>800</range><tilt>0</tilt><heading>0</heading></LookAt></Placemark><Placemark id="53A8BA97807EE411"><name>M: Constitution Marina</name><Point><coordinates>-71.0598098,42.3706219,0</coordinates></Point><LookAt><longitude>-71.0598098</longitude><latitude>42.3706219</latitude><altitude>0</altitude><range>800</range><tilt>0</tilt><heading>0</heading></LookAt></Placemark><Placemark id="8A970F4616AD9376"><name>M: Constitution Marina</name><Point><coordinates>-71.0579114,42.3703945,0</coordinates></Point><LookAt><longitude>-71.0579114</longitude><latitude>42.3703945</latitude><altitude>0</altitude><range>800</range><tilt>0</tilt><heading>0</heading></LookAt></Placemark><Placemark id="1C71AE4BCFEC9136"><name>M: Cottage Park Yacht Club</name><Point><coordinates>-70.9870110,42.3684736,0</coordinates></Point><LookAt><longitude>-70.9870110</longitude><latitude>42.3684736</latitude><altitude>0</altitude><range>800</range><tilt>0</tilt><heading>0</heading></LookAt></Placemark><Placemark id="54597C7E51E73DFC"><name>M: Courageous Sailing</name><Point><coordinates>-71.0508765,42.3715299,0</coordinates></Point><LookAt><longitude>-71.0508765</longitude><latitude>42.3715299</latitude><altitude>0</altitude><range>800</range><tilt>0</tilt><heading>0</heading></LookAt></Placemark><Placemark id="584BDDCDBD009AE2"><name>M: Crimson Sailing Academy</name><Point><coordinates>-71.0827347,42.3601423,0</coordinates></Point><LookAt><longitude>-71.0827347</longitude><latitude>42.3601423</latitude><altitude>0</altitude><range>800</range><tilt>0</tilt><heading>0</heading></LookAt></Placemark><Placemark id="19D0AADD8FF7F623"><name>M: Dockside Marina</name><Point><coordinates>-71.2153510,42.8301198,0</coordinates></Point><LookAt><longitude>-71.2153510</longitude><latitude>42.8301198</latitude><altitude>0</altitude><range>800</range><tilt>0</tilt><heading>0</heading></LookAt></Placemark><Placemark id="D4D58709B3FCFFE4"><name>M: East Greenwich Marina</name><Point><coordinates>-71.4446349,41.6617751,0</coordinates></Point><LookAt><longitude>-71.4446349</longitude><latitude>41.6617751</latitude><altitude>0</altitude><range>800</range><tilt>0</tilt><heading>0</heading></LookAt></Placemark><Placemark id="BA042CEF0E9781C0"><name>M: Fan Pier Marina</name><Point><coordinates>-71.0432459,42.3541014,0</coordinates></Point><LookAt><longitude>-71.0432459</longitude><latitude>42.3541014</latitude><altitude>0</altitude><range>800</range><tilt>0</tilt><heading>0</heading></LookAt></Placemark><Placemark id="37B6814E3122EAEB"><name>M: Fiddler's Cove Marina</name><Point><coordinates>-70.6353629,41.6469314,0</coordinates></Point><LookAt><longitude>-70.6353629</longitude><latitude>41.6469314</latitude><altitude>0</altitude><range>800</range><tilt>0</tilt><heading>0</heading></LookAt></Placemark><Placemark id="0A0F104B3C39892E"><name>M: Fort Adams Marina</name><Point><coordinates>-71.3371724,41.4811507,0</coordinates></Point><LookAt><longitude>-71.3371724</longitude><latitude>41.4811507</latitude><altitude>0</altitude><range>800</range><tilt>0</tilt><heading>0</heading></LookAt></Placemark><Placemark id="DB87100EF7A9B75B"><name>M: Full Keel Marine</name><Point><coordinates>-71.4497819,41.5755794,0</coordinates></Point><LookAt><longitude>-71.4497819</longitude><latitude>41.5755794</latitude><altitude>0</altitude><range>800</range><tilt>0</tilt><heading>0</heading></LookAt></Placemark><Placemark id="C1FF416FE19EAA6E"><name>M: Gloucester Landing</name><Point><coordinates>-70.6622768,42.6110683,0</coordinates></Point><LookAt><longitude>-70.6622768</longitude><latitude>42.6110683</latitude><altitude>0</altitude><range>800</range><tilt>0</tilt><heading>0</heading></LookAt></Placemark><Placemark id="65F5F3620091C20C"><name>M: Goodwin Creek Marina</name><Point><coordinates>-70.9324113,42.8323279,0</coordinates></Point><LookAt><longitude>-70.9324113</longitude><latitude>42.8323279</latitude><altitude>0</altitude><range>800</range><tilt>0</tilt><heading>0</heading></LookAt></Placemark><Placemark id="778A1EB847441FD3"><name>M: Hawthorne Cove Marina</name><Point><coordinates>-70.8819634,42.5214988,0</coordinates></Point><LookAt><longitude>-70.8819634</longitude><latitude>42.5214988</latitude><altitude>0</altitude><range>800</range><tilt>0</tilt><heading>0</heading></LookAt></Placemark><Placemark id="C78AB5001F79109A"><name>M: Hilton’s Marina</name><Point><coordinates>-70.8720450,42.8137562,0</coordinates></Point><LookAt><longitude>-70.8720450</longitude><latitude>42.8137562</latitude><altitude>0</altitude><range>800</range><tilt>0</tilt><heading>0</heading></LookAt></Placemark><Placemark id="A1B26AA0A7671F64"><name>M: Hingham Shipyard Marina</name><Point><coordinates>-70.9237085,42.2522425,0</coordinates></Point><LookAt><longitude>-70.9237085</longitude><latitude>42.2522425</latitude><altitude>0</altitude><range>800</range><tilt>0</tilt><heading>0</heading></LookAt></Placemark><Placemark id="46A69566AC2F9DDC"><name>M: Hingham Yacht Club</name><Point><coordinates>-70.8934245,42.2620464,0</coordinates></Point><LookAt><longitude>-70.8934245</longitude><latitude>42.2620464</latitude><altitude>0</altitude><range>800</range><tilt>0</tilt><heading>0</heading></LookAt></Placemark><Placemark id="62EC46547DACE987"><name>M: Hyannis Marina</name><Point><coordinates>-70.2743075,41.6500291,0</coordinates></Point><LookAt><longitude>-70.2743075</longitude><latitude>41.6500291</latitude><altitude>0</altitude><range>800</range><tilt>0</tilt><heading>0</heading></LookAt></Placemark><Placemark id="B234CD1BA1650857"><name>M: Hyannis Port Yacht Club</name><Point><coordinates>-70.2993577,41.6315016,0</coordinates></Point><LookAt><longitude>-70.2993577</longitude><latitude>41.6315016</latitude><altitude>0</altitude><range>800</range><tilt>0</tilt><heading>0</heading></LookAt></Placemark><Placemark id="F40E55E3EC342ADD"><name>M: Hyannis Yacht Club Mooring Field</name><Point><coordinates>-70.2736274,41.6394201,0</coordinates></Point><LookAt><longitude>-70.2736274</longitude><latitude>41.6394201</latitude><altitude>0</altitude><range>800</range><tilt>0</tilt><heading>0</heading></LookAt></Placemark><Placemark id="9881A6EB555CBF9A"><name>M: Jeffries Yacht Club</name><Point><coordinates>-71.0281536,42.3632226,0</coordinates></Point><LookAt><longitude>-71.0281536</longitude><latitude>42.3632226</latitude><altitude>0</altitude><range>800</range><tilt>0</tilt><heading>0</heading></LookAt></Placemark><Placemark id="5F4E9507A7B465DB"><name>M: Jubilee Yacht Club</name><Point><coordinates>-70.8789340,42.5400286,0</coordinates></Point><LookAt><longitude>-70.8789340</longitude><latitude>42.5400286</latitude><altitude>0</altitude><range>800</range><tilt>0</tilt><heading>0</heading></LookAt></Placemark><Placemark id="A5932F9ACAA1CB35"><name>M: Kazmiera Marina</name><Point><coordinates>-71.0330124,42.7689982,0</coordinates></Point><LookAt><longitude>-71.0330124</longitude><latitude>42.7689982</latitude><altitude>0</altitude><range>800</range><tilt>0</tilt><heading>0</heading></LookAt></Placemark><Placemark id="E81C4B0A780A457E"><name>M: Kingman Marine</name><Point><coordinates>-70.6153737,41.6774154,0</coordinates></Point><LookAt><longitude>-70.6153737</longitude><latitude>41.6774154</latitude><altitude>0</altitude><range>800</range><tilt>0</tilt><heading>0</heading></LookAt></Placemark><Placemark id="378961E068A337C7"><name>M: Long Cove Marina</name><Point><coordinates>-71.4939420,41.4203150,0</coordinates></Point><LookAt><longitude>-71.4939420</longitude><latitude>41.4203150</latitude><altitude>0</altitude><range>800</range><tilt>0</tilt><heading>0</heading></LookAt></Placemark><Placemark id="AC330ACDC235FE0F"><name>M: Lumber Wharf</name><Point><coordinates>-70.6179095,42.6595399,0</coordinates></Point><LookAt><longitude>-70.6179095</longitude><latitude>42.6595399</latitude><altitude>0</altitude><range>800</range><tilt>0</tilt><heading>0</heading></LookAt></Placemark><Placemark id="2D915E5DFD58A877"><name>M: M 1013633255</name><Point><coordinates>-71.2868536,41.7322976,0</coordinates></Point><LookAt><longitude>-71.2868536</longitude><latitude>41.7322976</latitude><altitude>0</altitude><range>800</range><tilt>0</tilt><heading>0</heading></LookAt></Placemark><Placemark id="77E46E240E807AEC"><name>M: M 1064700630</name><Point><coordinates>-71.3601183,41.4621451,0</coordinates></Point><LookAt><longitude>-71.3601183</longitude><latitude>41.4621451</latitude><altitude>0</altitude><range>800</range><tilt>0</tilt><heading>0</heading></LookAt></Placemark><Placemark id="7BA88F43ACE9EAEE"><name>M: M 11207169</name><Point><coordinates>-70.6494050,42.0851034,0</coordinates></Point><LookAt><longitude>-70.6494050</longitude><latitude>42.0851034</latitude><altitude>0</altitude><range>800</range><tilt>0</tilt><heading>0</heading></LookAt></Placemark><Placemark id="3C9B5CC464979327"><name>M: M 1127602006</name><Point><coordinates>-71.3362496,41.4740112,0</coordinates></Point><LookAt><longitude>-71.3362496</longitude><latitude>41.4740112</latitude><altitude>0</altitude><range>800</range><tilt>0</tilt><heading>0</heading></LookAt></Placemark><Placemark id="BA6B7C4631A48592"><name>M: M 1127609896</name><Point><coordinates>-71.3350633,41.4772109,0</coordinates></Point><LookAt><longitude>-71.3350633</longitude><latitude>41.4772109</latitude><altitude>0</altitude><range>800</range><tilt>0</tilt><heading>0</heading></LookAt></Placemark><Placemark id="6DA853CB6D39FCBA"><name>M: M 11871003</name><Point><coordinates>-71.4956734,41.4271888,0</coordinates></Point><LookAt><longitude>-71.4956734</longitude><latitude>41.4271888</latitude><altitude>0</altitude><range>800</range><tilt>0</tilt><heading>0</heading></LookAt></Placemark><Placemark id="E1557E1BB506706E"><name>M: M 1187628990</name><Point><coordinates>-69.9851206,41.6782524,0</coordinates></Point><LookAt><longitude>-69.9851206</longitude><latitude>41.6782524</latitude><altitude>0</altitude><range>800</range><tilt>0</tilt><heading>0</heading></LookAt></Placemark><Placemark id="15FEA739986801B2"><name>M: M 11961742</name><Point><coordinates>-71.4487897,41.4719865,0</coordinates></Point><LookAt><longitude>-71.4487897</longitude><latitude>41.4719865</latitude><altitude>0</altitude><range>800</range><tilt>0</tilt><heading>0</heading></LookAt></Placemark><Placemark id="E9553FFE7AC8B97C"><name>M: M 15683737</name><Point><coordinates>-71.3851274,41.4962122,0</coordinates></Point><LookAt><longitude>-71.3851274</longitude><latitude>41.4962122</latitude><altitude>0</altitude><range>800</range><tilt>0</tilt><heading>0</heading></LookAt></Placemark><Placemark id="DCC65557244ECF61"><name>M: M 1889247318</name><Point><coordinates>-70.9815503,42.2525211,0</coordinates></Point><LookAt><longitude>-70.9815503</longitude><latitude>42.2525211</latitude><altitude>0</altitude><range>800</range><tilt>0</tilt><heading>0</heading></LookAt></Placemark><Placemark id="54D0A34561A756CE"><name>M: M 211849032</name><Point><coordinates>-71.3869313,41.8169489,0</coordinates></Point><LookAt><longitude>-71.3869313</longitude><latitude>41.8169489</latitude><altitude>0</altitude><range>800</range><tilt>0</tilt><heading>0</heading></LookAt></Placemark><Placemark id="205FEE99B3D2BDBE"><name>M: M 214716328</name><Point><coordinates>-70.8482099,42.7608764,0</coordinates></Point><LookAt><longitude>-70.8482099</longitude><latitude>42.7608764</latitude><altitude>0</altitude><range>800</range><tilt>0</tilt><heading>0</heading></LookAt></Placemark><Placemark id="B632DFBEE723DB64"><name>M: M 486631196</name><Point><coordinates>-71.4024628,41.8175373,0</coordinates></Point><LookAt><longitude>-71.4024628</longitude><latitude>41.8175373</latitude><altitude>0</altitude><range>800</range><tilt>0</tilt><heading>0</heading></LookAt></Placemark><Placemark id="9C8E78AB84C80030"><name>M: M 502993016</name><Point><coordinates>-70.2221632,41.6482504,0</coordinates></Point><LookAt><longitude>-70.2221632</longitude><latitude>41.6482504</latitude><altitude>0</altitude><range>800</range><tilt>0</tilt><heading>0</heading></LookAt></Placemark><Placemark id="A98A97555BC44F32"><name>M: M 554315527</name><Point><coordinates>-70.8676179,42.8127734,0</coordinates></Point><LookAt><longitude>-70.8676179</longitude><latitude>42.8127734</latitude><altitude>0</altitude><range>800</range><tilt>0</tilt><heading>0</heading></LookAt></Placemark><Placemark id="FC570A6691A34EA0"><name>M: M 562542913</name><Point><coordinates>-70.8618893,42.8110186,0</coordinates></Point><LookAt><longitude>-70.8618893</longitude><latitude>42.8110186</latitude><altitude>0</altitude><range>800</range><tilt>0</tilt><heading>0</heading></LookAt></Placemark><Placemark id="92F286C864C38B1E"><name>M: M 630310124</name><Point><coordinates>-70.8824360,42.5400913,0</coordinates></Point><LookAt><longitude>-70.8824360</longitude><latitude>42.5400913</latitude><altitude>0</altitude><range>800</range><tilt>0</tilt><heading>0</heading></LookAt></Placemark><Placemark id="49B3CF3407C9043B"><name>M: M 631068584</name><Point><coordinates>-70.9197183,42.5590825,0</coordinates></Point><LookAt><longitude>-70.9197183</longitude><latitude>42.5590825</latitude><altitude>0</altitude><range>800</range><tilt>0</tilt><heading>0</heading></LookAt></Placemark><Placemark id="2D23A4B1B62C810F"><name>M: M 631705363</name><Point><coordinates>-71.1281678,41.7641268,0</coordinates></Point><LookAt><longitude>-71.1281678</longitude><latitude>41.7641268</latitude><altitude>0</altitude><range>800</range><tilt>0</tilt><heading>0</heading></LookAt></Placemark><Placemark id="942ECADF77724160"><name>M: M 631706607</name><Point><coordinates>-71.2106259,41.7174816,0</coordinates></Point><LookAt><longitude>-71.2106259</longitude><latitude>41.7174816</latitude><altitude>0</altitude><range>800</range><tilt>0</tilt><heading>0</heading></LookAt></Placemark><Placemark id="43D5F9B77628F396"><name>M: M 631706614</name><Point><coordinates>-71.1313756,41.7420400,0</coordinates></Point><LookAt><longitude>-71.1313756</longitude><latitude>41.7420400</latitude><altitude>0</altitude><range>800</range><tilt>0</tilt><heading>0</heading></LookAt></Placemark><Placemark id="01A183DB9CF620F0"><name>M: M 631730382</name><Point><coordinates>-71.3866885,41.7685288,0</coordinates></Point><LookAt><longitude>-71.3866885</longitude><latitude>41.7685288</latitude><altitude>0</altitude><range>800</range><tilt>0</tilt><heading>0</heading></LookAt></Placemark><Placemark id="9DE6BFEB5227D95A"><name>M: M 631730408</name><Point><coordinates>-71.3561455,41.7469729,0</coordinates></Point><LookAt><longitude>-71.3561455</longitude><latitude>41.7469729</latitude><altitude>0</altitude><range>800</range><tilt>0</tilt><heading>0</heading></LookAt></Placemark><Placemark id="222C41A896AE9B9B"><name>M: M 631730413</name><Point><coordinates>-71.3519338,41.7469279,0</coordinates></Point><LookAt><longitude>-71.3519338</longitude><latitude>41.7469279</latitude><altitude>0</altitude><range>800</range><tilt>0</tilt><heading>0</heading></LookAt></Placemark><Placemark id="A1149186729233C5"><name>M: M 641776341</name><Point><coordinates>-70.6806359,42.6130003,0</coordinates></Point><LookAt><longitude>-70.6806359</longitude><latitude>42.6130003</latitude><altitude>0</altitude><range>800</range><tilt>0</tilt><heading>0</heading></LookAt></Placemark><Placemark id="1B909F0D691FE4FA"><name>M: M 684221998</name><Point><coordinates>-70.6596038,41.9567908,0</coordinates></Point><LookAt><longitude>-70.6596038</longitude><latitude>41.9567908</latitude><altitude>0</altitude><range>800</range><tilt>0</tilt><heading>0</heading></LookAt></Placemark><Placemark id="F88BE29ED13CCDC2"><name>M: M 699277700</name><Point><coordinates>-70.9275478,41.4244803,0</coordinates></Point><LookAt><longitude>-70.9275478</longitude><latitude>41.4244803</latitude><altitude>0</altitude><range>800</range><tilt>0</tilt><heading>0</heading></LookAt></Placemark><Placemark id="39CB2E91F82EE5AB"><name>M: M 712544303</name><Point><coordinates>-70.9935088,42.3811901,0</coordinates></Point><LookAt><longitude>-70.9935088</longitude><latitude>42.3811901</latitude><altitude>0</altitude><range>800</range><tilt>0</tilt><heading>0</heading></LookAt></Placemark><Placemark id="FA389F193C91D42C"><name>M: M 733309920</name><Point><coordinates>-71.2734406,41.6174751,0</coordinates></Point><LookAt><longitude>-71.2734406</longitude><latitude>41.6174751</latitude><altitude>0</altitude><range>800</range><tilt>0</tilt><heading>0</heading></LookAt></Placemark><Placemark id="D6D48CB1EEBB4369"><name>M: M 847822009</name><Point><coordinates>-71.0817499,42.3628101,0</coordinates></Point><LookAt><longitude>-71.0817499</longitude><latitude>42.3628101</latitude><altitude>0</altitude><range>800</range><tilt>0</tilt><heading>0</heading></LookAt></Placemark><Placemark id="A316791106E64520"><name>M: M 864009843</name><Point><coordinates>-71.0049831,42.3832384,0</coordinates></Point><LookAt><longitude>-71.0049831</longitude><latitude>42.3832384</latitude><altitude>0</altitude><range>800</range><tilt>0</tilt><heading>0</heading></LookAt></Placemark><Placemark id="F397FDBDB87FE8CC"><name>M: M 905169306</name><Point><coordinates>-71.2186991,41.6459153,0</coordinates></Point><LookAt><longitude>-71.2186991</longitude><latitude>41.6459153</latitude><altitude>0</altitude><range>800</range><tilt>0</tilt><heading>0</heading></LookAt></Placemark><Placemark id="F3BE9CC171BA0254"><name>M: M 905169318</name><Point><coordinates>-71.2179206,41.6427303,0</coordinates></Point><LookAt><longitude>-71.2179206</longitude><latitude>41.6427303</latitude><altitude>0</altitude><range>800</range><tilt>0</tilt><heading>0</heading></LookAt></Placemark><Placemark id="9DD1F6C0A91741C2"><name>M: Manchester Marine</name><Point><coordinates>-70.7738131,42.5718487,0</coordinates></Point><LookAt><longitude>-70.7738131</longitude><latitude>42.5718487</latitude><altitude>0</altitude><range>800</range><tilt>0</tilt><heading>0</heading></LookAt></Placemark><Placemark id="7F6EBA97536EE670"><name>M: Marina at Hatter's Point</name><Point><coordinates>-70.9283404,42.8360384,0</coordinates></Point><LookAt><longitude>-70.9283404</longitude><latitude>42.8360384</latitude><altitude>0</altitude><range>800</range><tilt>0</tilt><heading>0</heading></LookAt></Placemark><Placemark id="AE66ECCE53E96800"><name>M: Marina Bay</name><Point><coordinates>-71.0281753,42.3006992,0</coordinates></Point><LookAt><longitude>-71.0281753</longitude><latitude>42.3006992</latitude><altitude>0</altitude><range>800</range><tilt>0</tilt><heading>0</heading></LookAt></Placemark><Placemark id="C01F135AE4ACA87E"><name>M: Mashpee Neck Marina</name><Point><coordinates>-70.4652240,41.6026053,0</coordinates></Point><LookAt><longitude>-70.4652240</longitude><latitude>41.6026053</latitude><altitude>0</altitude><range>800</range><tilt>0</tilt><heading>0</heading></LookAt></Placemark><Placemark id="F1F6DE36A34DB3F9"><name>M: Megansett Yacht Club</name><Point><coordinates>-70.6230891,41.6560864,0</coordinates></Point><LookAt><longitude>-70.6230891</longitude><latitude>41.6560864</latitude><altitude>0</altitude><range>800</range><tilt>0</tilt><heading>0</heading></LookAt></Placemark><Placemark id="7E9FF63989E06834"><name>M: Metropolitan Yacht Club</name><Point><coordinates>-70.9625070,42.2308170,0</coordinates></Point><LookAt><longitude>-70.9625070</longitude><latitude>42.2308170</latitude><altitude>0</altitude><range>800</range><tilt>0</tilt><heading>0</heading></LookAt></Placemark><Placemark id="A2769664676869C6"><name>M: Mill River Marine</name><Point><coordinates>-70.7903490,42.2384589,0</coordinates></Point><LookAt><longitude>-70.7903490</longitude><latitude>42.2384589</latitude><altitude>0</altitude><range>800</range><tilt>0</tilt><heading>0</heading></LookAt></Placemark><Placemark id="CADC263532D5A3AC"><name>M: Mill Wharf Marina</name><Point><coordinates>-70.7235011,42.1958362,0</coordinates></Point><LookAt><longitude>-70.7235011</longitude><latitude>42.1958362</latitude><altitude>0</altitude><range>800</range><tilt>0</tilt><heading>0</heading></LookAt></Placemark><Placemark id="BA949AF087145314"><name>M: Milton Town Landing</name><Point><coordinates>-71.0661094,42.2690255,0</coordinates></Point><LookAt><longitude>-71.0661094</longitude><latitude>42.2690255</latitude><altitude>0</altitude><range>800</range><tilt>0</tilt><heading>0</heading></LookAt></Placemark><Placemark id="A815FF1529C9BD43"><name>M: Mystic Wellington Yacht Club</name><Point><coordinates>-71.0798886,42.4011189,0</coordinates></Point><LookAt><longitude>-71.0798886</longitude><latitude>42.4011189</latitude><altitude>0</altitude><range>800</range><tilt>0</tilt><heading>0</heading></LookAt></Placemark><Placemark id="C0D1AC2B259945AA"><name>M: Nantasket Kayaks</name><Point><coordinates>-70.8583019,42.2702903,0</coordinates></Point><LookAt><longitude>-70.8583019</longitude><latitude>42.2702903</latitude><altitude>0</altitude><range>800</range><tilt>0</tilt><heading>0</heading></LookAt></Placemark><Placemark id="DBDDEB33FE27E68B"><name>M: New England Boatworks</name><Point><coordinates>-71.2844444,41.5902524,0</coordinates></Point><LookAt><longitude>-71.2844444</longitude><latitude>41.5902524</latitude><altitude>0</altitude><range>800</range><tilt>0</tilt><heading>0</heading></LookAt></Placemark><Placemark id="6584EEE4315E160A"><name>M: New Seabury Marina</name><Point><coordinates>-70.4642480,41.5865647,0</coordinates></Point><LookAt><longitude>-70.4642480</longitude><latitude>41.5865647</latitude><altitude>0</altitude><range>800</range><tilt>0</tilt><heading>0</heading></LookAt></Placemark><Placemark id="07C90D1CB1FB1737"><name>M: Newburyport Harbor Marina</name><Point><coordinates>-70.8656138,42.8122469,0</coordinates></Point><LookAt><longitude>-70.8656138</longitude><latitude>42.8122469</latitude><altitude>0</altitude><range>800</range><tilt>0</tilt><heading>0</heading></LookAt></Placemark><Placemark id="AD0AF62278D3A8F5"><name>M: Newport Marina</name><Point><coordinates>-71.3155883,41.4816970,0</coordinates></Point><LookAt><longitude>-71.3155883</longitude><latitude>41.4816970</latitude><altitude>0</altitude><range>800</range><tilt>0</tilt><heading>0</heading></LookAt></Placemark><Placemark id="18ADF3516E480413"><name>M: Newport Yacht Club</name><Point><coordinates>-71.3190484,41.4887550,0</coordinates></Point><LookAt><longitude>-71.3190484</longitude><latitude>41.4887550</latitude><altitude>0</altitude><range>800</range><tilt>0</tilt><heading>0</heading></LookAt></Placemark><Placemark id="57F12A438A4987B9"><name>M: Newton Yacht Club</name><Point><coordinates>-71.1737138,42.3584984,0</coordinates></Point><LookAt><longitude>-71.1737138</longitude><latitude>42.3584984</latitude><altitude>0</altitude><range>800</range><tilt>0</tilt><heading>0</heading></LookAt></Placemark><Placemark id="0179D735F4AA6503"><name>M: North End Boat Club</name><Point><coordinates>-70.8801686,42.8196284,0</coordinates></Point><LookAt><longitude>-70.8801686</longitude><latitude>42.8196284</latitude><altitude>0</altitude><range>800</range><tilt>0</tilt><heading>0</heading></LookAt></Placemark><Placemark id="572B4E672D51D356"><name>M: Outermost Harbor Marine</name><Point><coordinates>-69.9557087,41.6650491,0</coordinates></Point><LookAt><longitude>-69.9557087</longitude><latitude>41.6650491</latitude><altitude>0</altitude><range>800</range><tilt>0</tilt><heading>0</heading></LookAt></Placemark><Placemark id="98852C29FB58628E"><name>M: Oyster River Boatyard</name><Point><coordinates>-69.9848956,41.6751649,0</coordinates></Point><LookAt><longitude>-69.9848956</longitude><latitude>41.6751649</latitude><altitude>0</altitude><range>800</range><tilt>0</tilt><heading>0</heading></LookAt></Placemark><Placemark id="3D5E3621192ECFF4"><name>M: Palmer Cove Yacht Club</name><Point><coordinates>-70.8870776,42.5139373,0</coordinates></Point><LookAt><longitude>-70.8870776</longitude><latitude>42.5139373</latitude><altitude>0</altitude><range>800</range><tilt>0</tilt><heading>0</heading></LookAt></Placemark><Placemark id="1509BC0C15B0875C"><name>M: Parker's Boat Yard</name><Point><coordinates>-70.6139052,41.6743924,0</coordinates></Point><LookAt><longitude>-70.6139052</longitude><latitude>41.6743924</latitude><altitude>0</altitude><range>800</range><tilt>0</tilt><heading>0</heading></LookAt></Placemark><Placemark id="FB02E94F4F066E3B"><name>M: Port Edgewood Marina</name><Point><coordinates>-71.3906650,41.7826623,0</coordinates></Point><LookAt><longitude>-71.3906650</longitude><latitude>41.7826623</latitude><altitude>0</altitude><range>800</range><tilt>0</tilt><heading>0</heading></LookAt></Placemark><Placemark id="8A71C710234C6412"><name>M: Provincetown Marina</name><Point><coordinates>-70.1833721,42.0484890,0</coordinates></Point><LookAt><longitude>-70.1833721</longitude><latitude>42.0484890</latitude><altitude>0</altitude><range>800</range><tilt>0</tilt><heading>0</heading></LookAt></Placemark><Placemark id="1A30625AF3729249"><name>M: Quannapowitt Yacht Club</name><Point><coordinates>-71.0819734,42.5138393,0</coordinates></Point><LookAt><longitude>-71.0819734</longitude><latitude>42.5138393</latitude><altitude>0</altitude><range>800</range><tilt>0</tilt><heading>0</heading></LookAt></Placemark><Placemark id="2DF9BC6F48707C7F"><name>M: Quissett Harbor Boatyard</name><Point><coordinates>-70.6532198,41.5441141,0</coordinates></Point><LookAt><longitude>-70.6532198</longitude><latitude>41.5441141</latitude><altitude>0</altitude><range>800</range><tilt>0</tilt><heading>0</heading></LookAt></Placemark><Placemark id="C0E32D9FF50279DF"><name>M: Quissett Yacht Club</name><Point><coordinates>-70.6555151,41.5443802,0</coordinates></Point><LookAt><longitude>-70.6555151</longitude><latitude>41.5443802</latitude><altitude>0</altitude><range>800</range><tilt>0</tilt><heading>0</heading></LookAt></Placemark><Placemark id="A1174ADE91DED8A7"><name>M: Quonset Davisville Navy Yacht Club</name><Point><coordinates>-71.4147857,41.6184482,0</coordinates></Point><LookAt><longitude>-71.4147857</longitude><latitude>41.6184482</latitude><altitude>0</altitude><range>800</range><tilt>0</tilt><heading>0</heading></LookAt></Placemark><Placemark id="58F9ACE986E79B52"><name>M: Richard J. Resch Boathouse</name><Point><coordinates>-71.0972005,42.3551954,0</coordinates></Point><LookAt><longitude>-71.0972005</longitude><latitude>42.3551954</latitude><altitude>0</altitude><range>800</range><tilt>0</tilt><heading>0</heading></LookAt></Placemark><Placemark id="A81C7DFA5F31F68B"><name>M: Riverfront Marina</name><Point><coordinates>-70.8496691,42.7618569,0</coordinates></Point><LookAt><longitude>-70.8496691</longitude><latitude>42.7618569</latitude><altitude>0</altitude><range>800</range><tilt>0</tilt><heading>0</heading></LookAt></Placemark><Placemark id="45BE9C3A42AE1FB0"><name>M: Roht Marina</name><Point><coordinates>-70.7431044,42.1609256,0</coordinates></Point><LookAt><longitude>-70.7431044</longitude><latitude>42.1609256</latitude><altitude>0</altitude><range>800</range><tilt>0</tilt><heading>0</heading></LookAt></Placemark><Placemark id="D26E25F0F6354210"><name>M: Ryder's Cove Boat Yard</name><Point><coordinates>-69.9774597,41.7042340,0</coordinates></Point><LookAt><longitude>-69.9774597</longitude><latitude>41.7042340</latitude><altitude>0</altitude><range>800</range><tilt>0</tilt><heading>0</heading></LookAt></Placemark><Placemark id="0D97C9E336F4EAE3"><name>M: Safe Harbor Island Park Marina</name><Point><coordinates>-71.2182480,41.6286542,0</coordinates></Point><LookAt><longitude>-71.2182480</longitude><latitude>41.6286542</latitude><altitude>0</altitude><range>800</range><tilt>0</tilt><heading>0</heading></LookAt></Placemark><Placemark id="327FC6D8AC5C3414"><name>M: Safe Harbor Silver Spring</name><Point><coordinates>-71.4999943,41.4269812,0</coordinates></Point><LookAt><longitude>-71.4999943</longitude><latitude>41.4269812</latitude><altitude>0</altitude><range>800</range><tilt>0</tilt><heading>0</heading></LookAt></Placemark><Placemark id="CE672CBE74B4C9C8"><name>M: Salt Water Club</name><Point><coordinates>-70.8916316,42.3065825,0</coordinates></Point><LookAt><longitude>-70.8916316</longitude><latitude>42.3065825</latitude><altitude>0</altitude><range>800</range><tilt>0</tilt><heading>0</heading></LookAt></Placemark><Placemark id="2C9F0CF40DDD6F03"><name>M: Sandwich Marina</name><Point><coordinates>-70.5035910,41.7707415,0</coordinates></Point><LookAt><longitude>-70.5035910</longitude><latitude>41.7707415</latitude><altitude>0</altitude><range>800</range><tilt>0</tilt><heading>0</heading></LookAt></Placemark><Placemark id="3B56FC21DE5CD5FA"><name>M: Saquatucket Municipal Marina</name><Point><coordinates>-70.0590005,41.6684005,0</coordinates></Point><LookAt><longitude>-70.0590005</longitude><latitude>41.6684005</latitude><altitude>0</altitude><range>800</range><tilt>0</tilt><heading>0</heading></LookAt></Placemark><Placemark id="88B42D191C371D67"><name>M: Saunderstown Yacht Club</name><Point><coordinates>-71.4182846,41.5086994,0</coordinates></Point><LookAt><longitude>-71.4182846</longitude><latitude>41.5086994</latitude><altitude>0</altitude><range>800</range><tilt>0</tilt><heading>0</heading></LookAt></Placemark><Placemark id="F061C468CF6A536E"><name>M: Savin Hill Yacht Club</name><Point><coordinates>-71.0438876,42.3097540,0</coordinates></Point><LookAt><longitude>-71.0438876</longitude><latitude>42.3097540</latitude><altitude>0</altitude><range>800</range><tilt>0</tilt><heading>0</heading></LookAt></Placemark><Placemark id="CE1371A33303DBFA"><name>M: Scituate Boat Club</name><Point><coordinates>-70.7252291,42.2020879,0</coordinates></Point><LookAt><longitude>-70.7252291</longitude><latitude>42.2020879</latitude><altitude>0</altitude><range>800</range><tilt>0</tilt><heading>0</heading></LookAt></Placemark><Placemark id="5343259526805E18"><name>M: Scituate Harbor Marina</name><Point><coordinates>-70.7262882,42.2006175,0</coordinates></Point><LookAt><longitude>-70.7262882</longitude><latitude>42.2006175</latitude><altitude>0</altitude><range>800</range><tilt>0</tilt><heading>0</heading></LookAt></Placemark><Placemark id="7987A759AD709A19"><name>M: Scituate Marine Park Marina</name><Point><coordinates>-70.7181677,42.1957864,0</coordinates></Point><LookAt><longitude>-70.7181677</longitude><latitude>42.1957864</latitude><altitude>0</altitude><range>800</range><tilt>0</tilt><heading>0</heading></LookAt></Placemark><Placemark id="DAE492D1857A1C55"><name>M: Shaws Boat Yard</name><Point><coordinates>-71.1159258,41.8150917,0</coordinates></Point><LookAt><longitude>-71.1159258</longitude><latitude>41.8150917</latitude><altitude>0</altitude><range>800</range><tilt>0</tilt><heading>0</heading></LookAt></Placemark><Placemark id="B4F9C71222AA1FCB"><name>M: Somerset Marina</name><Point><coordinates>-71.1339085,41.7618524,0</coordinates></Point><LookAt><longitude>-71.1339085</longitude><latitude>41.7618524</latitude><altitude>0</altitude><range>800</range><tilt>0</tilt><heading>0</heading></LookAt></Placemark><Placemark id="FE44AC14A5B79679"><name>M: South Shore Yacht Club</name><Point><coordinates>-70.9324002,42.2478438,0</coordinates></Point><LookAt><longitude>-70.9324002</longitude><latitude>42.2478438</latitude><altitude>0</altitude><range>800</range><tilt>0</tilt><heading>0</heading></LookAt></Placemark><Placemark id="CDDC94EEC1DB4984"><name>M: Stage Harbor Marine</name><Point><coordinates>-69.9623214,41.6691180,0</coordinates></Point><LookAt><longitude>-69.9623214</longitude><latitude>41.6691180</latitude><altitude>0</altitude><range>800</range><tilt>0</tilt><heading>0</heading></LookAt></Placemark><Placemark id="45B222718A74198D"><name>M: Stanley's Boat Yard</name><Point><coordinates>-71.2928907,41.7354152,0</coordinates></Point><LookAt><longitude>-71.2928907</longitude><latitude>41.7354152</latitude><altitude>0</altitude><range>800</range><tilt>0</tilt><heading>0</heading></LookAt></Placemark><Placemark id="0FF0FB7BE2C36796"><name>M: Tern Harbor Marina</name><Point><coordinates>-70.9262002,42.2549680,0</coordinates></Point><LookAt><longitude>-70.9262002</longitude><latitude>42.2549680</latitude><altitude>0</altitude><range>800</range><tilt>0</tilt><heading>0</heading></LookAt></Placemark><Placemark id="2AC8469DD8073FF2"><name>M: The Marina</name><Point><coordinates>-71.4092934,41.6199105,0</coordinates></Point><LookAt><longitude>-71.4092934</longitude><latitude>41.6199105</latitude><altitude>0</altitude><range>800</range><tilt>0</tilt><heading>0</heading></LookAt></Placemark><Placemark id="604FD948AD01AC9B"><name>M: The Marina at Amebury Point</name><Point><coordinates>-70.9247148,42.8404584,0</coordinates></Point><LookAt><longitude>-70.9247148</longitude><latitude>42.8404584</latitude><altitude>0</altitude><range>800</range><tilt>0</tilt><heading>0</heading></LookAt></Placemark><Placemark id="7A1C1E12EF441744"><name>M: Town Landing</name><Point><coordinates>-70.4662680,41.6002338,0</coordinates></Point><LookAt><longitude>-70.4662680</longitude><latitude>41.6002338</latitude><altitude>0</altitude><range>800</range><tilt>0</tilt><heading>0</heading></LookAt></Placemark><Placemark id="B7470156AAA03D14"><name>M: Town river marina</name><Point><coordinates>-70.9866518,42.2533252,0</coordinates></Point><LookAt><longitude>-70.9866518</longitude><latitude>42.2533252</latitude><altitude>0</altitude><range>800</range><tilt>0</tilt><heading>0</heading></LookAt></Placemark><Placemark id="CBDD47A22F8434E4"><name>M: Union Boat Club</name><Point><coordinates>-71.0732898,42.3577805,0</coordinates></Point><LookAt><longitude>-71.0732898</longitude><latitude>42.3577805</latitude><altitude>0</altitude><range>800</range><tilt>0</tilt><heading>0</heading></LookAt></Placemark><Placemark id="9EFB2C668512C59E"><name>M: Union Wharf</name><Point><coordinates>-71.0498410,42.3648776,0</coordinates></Point><LookAt><longitude>-71.0498410</longitude><latitude>42.3648776</latitude><altitude>0</altitude><range>800</range><tilt>0</tilt><heading>0</heading></LookAt></Placemark><Placemark id="FAA6894BD620EC1A"><name>M: Watertown Yacht Club</name><Point><coordinates>-71.1677021,42.3618372,0</coordinates></Point><LookAt><longitude>-71.1677021</longitude><latitude>42.3618372</latitude><altitude>0</altitude><range>800</range><tilt>0</tilt><heading>0</heading></LookAt></Placemark><Placemark id="F23A4B9BFFDBA87F"><name>M: Wessagusset Yacht Club</name><Point><coordinates>-70.9475647,42.2498690,0</coordinates></Point><LookAt><longitude>-70.9475647</longitude><latitude>42.2498690</latitude><altitude>0</altitude><range>800</range><tilt>0</tilt><heading>0</heading></LookAt></Placemark><Placemark id="CD7F09D1DF3F83CA"><name>M: Wickford Cove Marina</name><Point><coordinates>-71.4481281,41.5679516,0</coordinates></Point><LookAt><longitude>-71.4481281</longitude><latitude>41.5679516</latitude><altitude>0</altitude><range>800</range><tilt>0</tilt><heading>0</heading></LookAt></Placemark><Placemark id="9985E633443DC9D7"><name>M: Wickford Marina</name><Point><coordinates>-71.4502273,41.5776278,0</coordinates></Point><LookAt><longitude>-71.4502273</longitude><latitude>41.5776278</latitude><altitude>0</altitude><range>800</range><tilt>0</tilt><heading>0</heading></LookAt></Placemark><Placemark id="0E4092A0B9CEDD11"><name>M: Wickford Shipyard</name><Point><coordinates>-71.4447575,41.5712281,0</coordinates></Point><LookAt><longitude>-71.4447575</longitude><latitude>41.5712281</latitude><altitude>0</altitude><range>800</range><tilt>0</tilt><heading>0</heading></LookAt></Placemark><Placemark id="82BD3D7477CE3D56"><name>M: Wickford Yacht Club</name><Point><coordinates>-71.4479166,41.5766195,0</coordinates></Point><LookAt><longitude>-71.4479166</longitude><latitude>41.5766195</latitude><altitude>0</altitude><range>800</range><tilt>0</tilt><heading>0</heading></LookAt></Placemark><Placemark id="DD9D999E0D50800C"><name>M: Windward Yacht Yard</name><Point><coordinates>-70.8747343,42.8156233,0</coordinates></Point><LookAt><longitude>-70.8747343</longitude><latitude>42.8156233</latitude><altitude>0</altitude><range>800</range><tilt>0</tilt><heading>0</heading></LookAt></Placemark><Placemark id="9131419575B997AE"><name>M: Woods Hole Marine</name><Point><coordinates>-70.6701341,41.5260769,0</coordinates></Point><LookAt><longitude>-70.6701341</longitude><latitude>41.5260769</latitude><altitude>0</altitude><range>800</range><tilt>0</tilt><heading>0</heading></LookAt></Placemark><Placemark id="5CFE3EDB05BE95FC"><name>M: Woods Hole Yacht Club</name><Point><coordinates>-70.6758909,41.5272293,0</coordinates></Point><LookAt><longitude>-70.6758909</longitude><latitude>41.5272293</latitude><altitude>0</altitude><range>800</range><tilt>0</tilt><heading>0</heading></LookAt></Placemark><Placemark id="1DC77091E5BBEA0F"><name>MO: Area 1</name><Point><coordinates>-70.8045224,41.6527924,0</coordinates></Point><LookAt><longitude>-70.8045224</longitude><latitude>41.6527924</latitude><altitude>0</altitude><range>800</range><tilt>0</tilt><heading>0</heading></LookAt></Placemark><Placemark id="4AF7CAA090F47A8E"><name>MO: Area 1</name><Point><coordinates>-71.3285475,41.4762910,0</coordinates></Point><LookAt><longitude>-71.3285475</longitude><latitude>41.4762910</latitude><altitude>0</altitude><range>800</range><tilt>0</tilt><heading>0</heading></LookAt></Placemark><Placemark id="D444F0B87667FE18"><name>MO: Area 1 in Allerton Harbor</name><Point><coordinates>-70.8932922,42.3032170,0</coordinates></Point><LookAt><longitude>-70.8932922</longitude><latitude>42.3032170</latitude><altitude>0</altitude><range>800</range><tilt>0</tilt><heading>0</heading></LookAt></Placemark><Placemark id="36AD7B4F7E04BBBC"><name>MO: Area 2</name><Point><coordinates>-70.8128961,41.6469340,0</coordinates></Point><LookAt><longitude>-70.8128961</longitude><latitude>41.6469340</latitude><altitude>0</altitude><range>800</range><tilt>0</tilt><heading>0</heading></LookAt></Placemark><Placemark id="03AB3B3E05558D38"><name>MO: Area 2</name><Point><coordinates>-71.3214427,41.4852968,0</coordinates></Point><LookAt><longitude>-71.3214427</longitude><latitude>41.4852968</latitude><altitude>0</altitude><range>800</range><tilt>0</tilt><heading>0</heading></LookAt></Placemark><Placemark id="03B75ABBB35C34A4"><name>MO: Area 2 in Hull Bay</name><Point><coordinates>-70.8962089,42.2946059,0</coordinates></Point><LookAt><longitude>-70.8962089</longitude><latitude>42.2946059</latitude><altitude>0</altitude><range>800</range><tilt>0</tilt><heading>0</heading></LookAt></Placemark><Placemark id="8386AFA04B0B43A0"><name>MO: Area 3</name><Point><coordinates>-71.3240625,41.4938663,0</coordinates></Point><LookAt><longitude>-71.3240625</longitude><latitude>41.4938663</latitude><altitude>0</altitude><range>800</range><tilt>0</tilt><heading>0</heading></LookAt></Placemark><Placemark id="15A0810C77604758"><name>MO: Area 3 in Hull Bay</name><Point><coordinates>-70.8945471,42.2866191,0</coordinates></Point><LookAt><longitude>-70.8945471</longitude><latitude>42.2866191</latitude><altitude>0</altitude><range>800</range><tilt>0</tilt><heading>0</heading></LookAt></Placemark><Placemark id="BFBAF776AD2000F4"><name>MO: Bass River</name><Point><coordinates>-70.8886523,42.5537899,0</coordinates></Point><LookAt><longitude>-70.8886523</longitude><latitude>42.5537899</latitude><altitude>0</altitude><range>800</range><tilt>0</tilt><heading>0</heading></LookAt></Placemark><Placemark id="DAFB7BC191801FAD"><name>MO: Beverly and Mackerel Coves</name><Point><coordinates>-70.8594863,42.5458498,0</coordinates></Point><LookAt><longitude>-70.8594863</longitude><latitude>42.5458498</latitude><altitude>0</altitude><range>800</range><tilt>0</tilt><heading>0</heading></LookAt></Placemark><Placemark id="F840D9EEFC3DA807"><name>MO: Beverly Harbor</name><Point><coordinates>-70.8700416,42.5384668,0</coordinates></Point><LookAt><longitude>-70.8700416</longitude><latitude>42.5384668</latitude><altitude>0</altitude><range>800</range><tilt>0</tilt><heading>0</heading></LookAt></Placemark></Document></kml>